region,zone,woreda,hfname,phone,KEY,PARENT_KEY,KEY_org,clncstaff,labstaff,pahrm,phem,hmis,_merge,anytrain,vect,dx,rx,mxsevr,sme,malogy,IRT,iccm,scm,lpm,bcc,free,insu,api,tpr,priv,chart,ipls,nostk,gmsa,met,sld,lnct,oil,rdt,llin,irs,chlrqntb,chlrqnsyp,prmqn,crtm,artsntinj,artsntsp,qnntb,qnninj,dxmethod,eqa,sbcc,books,dxmic,dxrdt,dxboth,wname,nobk,labdxbk,eqabk,splcolbk,gmsbk,bfbk,bfsbk,micbk,micjb,malrxbk,
SNNP,Gedeo,193,Bule prim hospital,967517025,uuid:0078a04a-3da3-4cb0-953f-3776ab2500ad,,,0,0,0,1,1,matched (3), No,,,,,,,,,,,,No service given for free,No, No, No, No, No, Yes , No,0,0,0,0,0,0,0,0,0,0,0,0,0,0,0,0, Microscopy  , No,,,Yes,No,No,Bule, No,0,0,0,0,0,0,0,0,0,
Amhara,North Wollo,211,Bilebala health ceanter,No,uuid:0156cc17-4af7-47b2-91d7-0a3cf101f02a,,,8,0,1,1,1,matched (3), No,,,,,,,,,,,,Diagnosis,No, No, No, No, Yes, No, No,0,0,0,0,0,0,0,0,0,0,0,0,0,0,0,0, RDT, No,,,No,Yes,No,, Yes,0,0,0,0,0,0,0,0,1,
Oromiya,East Hararge,90,WayberHC,No,uuid:023efc02-fb52-4786-b06f-dd517e5064e3,,,3,0,1,1,0,matched (3), No,,,,,,,,,,,,Diagnosis,Yes, No, No, No, Yes, No, No,0,0,0,0,0,0,0,0,0,0,0,0,0,0,0,0,other, No,,,No,No,No,META-WEREDA, Yes,0,0,0,0,0,0,0,0,1,
SNNP,Sidama,165,Dore H/L,0,uuid:026c7189-78d8-4438-abd1-c591583e63e6,,,23,0,4,1,3,matched (3), No,,,,,,,,,,,,"Drugs (coartem, artesunate inj.)",No, No, No, No, No, Yes , No,0,0,0,0,0,0,0,0,0,0,0,0,0,0,0,0, Microscopy  , Yes,,,Yes,No,No,Awassa Zuria, No,0,0,0,0,0,0,0,0,0,
Amhara,South Wolo,224,Beke Health Cente,0,uuid:02b87a30-1824-452c-a6a7-fe6135743bf4,,,3,1,1,1,1,matched (3), No,,,,,,,,,,,,"Drugs (coartem, artesunate inj.)",Yes, No, No, Yes, No, Yes , Yes,0,0,0,0,0,0,0,0,1,0,1,0,0,1,0,1, Both Microscope and RDT, Yes,,,No,No,Yes,Kallu, Yes,0,0,0,0,0,0,0,0,1,
Tigray,South Tigray,116,Nekiseke   Health   Center,925057946,uuid:03332ce2-b871-4be4-b496-88acda4f863d,,,11,1,2,1,1,matched (3), Yes,0,0,0,1,0,0,0,0,0,0,0,"Drugs (coartem, artesunate inj.)",Yes, Yes, Yes, No, Yes, Yes , No,0,0,0,0,0,0,0,0,0,0,0,0,0,0,0,0, Both Microscope and RDT, Yes,,,No,No,Yes,Endamehone, Yes,0,0,0,0,0,0,0,0,0,
Amhara,North Shewa,242,Keyit health center,116560260,uuid:0389ba27-5ba3-4b9f-b399-bd2f29b4bb6b,,,16,2,3,1,1,matched (3), No,,,,,,,,,,,,"Drugs (coartem, artesunate inj.)",Yes, No, No, No, No, Yes , Yes,1,0,0,0,0,1,0,0,1,1,1,1,1,1,1,1, Microscopy  , Yes,,,Yes,No,No,Baso Worana, No,0,0,0,0,0,0,0,0,0,
Tigray,South Tigray,114,Lachi health center,914753459,uuid:03cf431b-4e92-4883-8696-3fc547cf98ef,,,23,1,1,1,1,matched (3), No,,,,,,,,,,,,Diagnosis,No, Yes, Yes, No, Yes, Yes , Yes,0,0,0,0,0,0,0,0,0,0,0,1,0,0,0,0, Microscopy  , Yes,,,Yes,No,No,Mekele, Yes,0,0,0,0,0,0,0,0,1,
Oromiya,Arsi,45,Lafto Health Center,920386819,uuid:043bc0e3-59c7-44ef-afea-545bcfb9a5e1,,,6,0,1,1,1,matched (3), No,,,,,,,,,,,,Diagnosis,Yes, No, No, No, No, No, Yes,0,0,0,0,0,0,0,0,1,1,0,0,1,1,0,0, RDT, No,,,No,Yes,No,SHANAN KOLU, No,0,0,0,0,0,0,0,0,0,
Tigray,South Tigray,116,Neksege Health center,925067946,uuid:04ff3d8b-dee4-4847-9e41-6e0f143cbbe2,,,11,1,2,1,1,matched (3), Yes,0,0,0,1,0,0,0,0,0,0,0,"Drugs (coartem, artesunate inj.)",Yes, Yes, Yes, No, Yes, Yes , No,0,0,0,0,0,0,0,0,0,0,0,0,0,0,0,0, Both Microscope and RDT, Yes,,,No,No,Yes,Endamehone, Yes,0,0,0,0,0,0,0,0,0,
SNNP,Gurage,135,Gunchire primery Hospital,113320515,uuid:054cdb96-e515-4db7-988e-15ff03b22d1e,,,39,7,5,1,2,matched (3), No,,,,,,,,,,,,"Drugs (coartem, artesunate inj.)",No, Yes, Yes, No, No, Yes , Yes,0,0,0,0,0,0,0,0,1,1,0,0,0,0,0,0, Microscopy  , No,,,Yes,No,No,Enemor Ener, No,0,0,0,0,0,0,0,0,0,
SNNP,Silitie,200,Regdina HC,918162799,uuid:05eac8c8-2ad5-4331-991f-12aba1e85f06,,,5,2,1,1,1,matched (3), Yes,4,4,4,4,4,4,0,0,0,4,4,"Drugs (coartem, artesunate inj.)",Yes, No, Yes, No, No,,,,,,,,,,,,,,,,,,,,,,,,,,Sankura, Yes,0,0,0,0,0,0,0,0,0,
SNNP,Silitie,196,Elose Health center,0,uuid:0611c838-f844-4359-be80-8519ff1916ae,,,13,2,2,1,1,matched (3), No,,,,,,,,,,,,"Drugs (coartem, artesunate inj.)",Yes, No, No, No, No, Yes , No,0,0,0,0,0,0,0,0,0,0,0,0,0,0,0,0, Microscopy  , Yes,,,Yes,No,No,Siliti, Yes,0,0,0,0,0,0,0,0,1,
Amhara,North Shewa,260,Deneba .Hospital,116200492,uuid:068d537b-2dda-4623-94ce-2ec6f06e77ec,,,7,4,7,1,1,matched (3), No,,,,,,,,,,,,"Drugs (coartem, artesunate inj.)",Yes, No, No, No, No, Yes , Yes,0,0,0,0,0,1,0,0,1,1,0,1,1,1,1,1, Microscopy  , Yes,,,Yes,No,No,Siadebr, Yes,1,1,1,1,1,1,1,0,0,
Amhara,North Wollo,213,Robit healthy center,33333158,uuid:068fa836-93fa-4db3-acf9-856934fe6d1f,,,8,1,2,1,1,matched (3), No,,,,,,,,,,,,"Drugs (coartem, artesunate inj.)",Yes, No, No, Yes, No, Yes , No,0,0,0,0,0,0,0,0,0,0,0,0,0,0,0,0, Microscopy  , Yes,,,Yes,No,No,Raya Kobo, No,0,0,0,0,0,0,0,0,0,
Oromiya,East Hararge,89,Harewacha HC,256680168,uuid:0826456d-7e12-473b-a1d3-561d7a148e3d,,,1,1,1,1,1,matched (3), No,,,,,,,,,,,,"Drugs (coartem, artesunate inj.)",No, No, Yes, Yes, Yes, No, No,0,0,0,0,0,0,0,0,0,0,0,0,0,0,0,0, Microscopy  , No,,,Yes,No,No,MELKA BELO-WEREDA, No,0,0,0,0,0,0,0,0,0,
SNNP,Gedeo,190,VMokonissa H/c,928792282,uuid:092c172b-1a7a-41a9-af06-30329529dfb5,,,0,0,0,1,1,matched (3), No,,,,,,,,,,,,"Drugs (coartem, artesunate inj.)",No, No, No, No, No, No, No,0,0,0,0,0,0,0,0,0,0,0,0,0,0,0,0, Both Microscope and RDT, No,,,No,No,Yes,Wonago, No,0,0,0,0,0,0,0,0,0,
Oromiya,Arsi,41,Gologota H/C,224530027,uuid:095e3b9a-8c50-4f48-a5b4-54fdbed22efc,,,13,2,2,1,1,matched (3), No,,,,,,,,,,,,Diagnosis,Yes, No, No, No, Yes, Yes , No,0,0,0,0,0,0,0,0,0,0,0,0,0,0,0,0, Microscopy  , Yes,,,Yes,No,No,MERTI-WEREDA, Yes,1,0,0,0,0,0,0,0,0,
Oromiya,Arsi,31,Hamda Diksis health center,910047053,uuid:0979f05c-cc4a-461e-9a43-baeeb7fe0616,,,0,1,2,1,0,matched (3), No,,,,,,,,,,,,"Drugs (coartem, artesunate inj.)",No, No, No, No, No, Yes , No,0,0,0,0,0,0,0,0,0,0,0,0,0,0,0,0,other, No,,,No,No,No,DEKSIS-WEREDA, No,0,0,0,0,0,0,0,0,0,
Tigray,Central Tigray,93,Wedi Keshi health center,914763419,uuid:09fe0936-303d-4661-abed-1e3cdfe5c20b,,,10,1,2,1,1,matched (3), No,,,,,,,,,,,,Diagnosis,Yes, No, No, No, Yes, Yes , Yes,0,0,0,0,0,0,0,0,0,1,0,0,0,0,0,0, Both Microscope and RDT, No,,,No,No,Yes,Adwa, Yes,0,0,0,0,0,0,0,0,1,
SNNP,Kembata Timbaro,156,Sheshera hc,No phone,uuid:0ab5201d-934a-485b-bf04-8579d43f5475,,,,,,,,master only (1),,,,,,,,,,,,,,, No, Yes, No, Yes,,,,,,,,,,,,,,,,,,,,,,,,,,Kedida Gamela,,,,,,,,,,,
SNNP,Hadiya,143,Wada health center,G,uuid:0c56cead-94cf-4b82-9c0a-c9d2144514f8,,,25,3,3,1,1,matched (3), No,,,,,,,,,,,,Diagnosis,Yes, No, No, No, No, Yes , No,0,0,0,0,0,0,0,0,0,0,0,0,0,0,0,0, Microscopy  , Yes,,,Yes,No,No,Mirab badewacho, No,0,0,0,0,0,0,0,0,0,
Amhara,South Wolo,217,Netti Health Center,0,uuid:0cf7e8be-9e5e-493e-a88c-56696ab76164,,,8,0,0,1,1,matched (3), Yes,0,0,0,0,0,0,2,0,0,0,0,Diagnosis,Yes, No, No, Yes, No, No, No,0,0,0,0,0,0,0,0,0,0,0,0,0,0,0,0, RDT, No,,,No,Yes,No,Albuko, Yes,0,0,0,0,0,0,0,0,0,
Tigray,South Tigray,118,Semer   Meles   Health  Center,3477719,uuid:0d0cc0d6-63af-4c8c-8e52-32c76d3f4b9a,,,19,1,2,1,1,matched (3), No,,,,,,,,,,,,"Drugs (coartem, artesunate inj.)",No, Yes, Yes, No, Yes, Yes , No,0,0,0,0,0,0,0,0,0,0,0,0,0,0,0,0, Microscopy  , Yes,,,Yes,No,No,Maychew Town, No,0,0,0,0,0,0,0,0,0,
Amhara,South Wolo,225,Kellela H.C,334510225,uuid:0d51b379-0e85-4704-a294-99b960ad87c6,,,9,3,3,1,1,matched (3), No,,,,,,,,,,,,Diagnosis,Yes, No, No, No, No, Yes , No,0,0,0,0,0,0,0,0,0,0,0,0,0,0,0,0, Microscopy  , No,,,Yes,No,No,Kellala, Yes,1,0,0,0,0,0,0,0,0,
SNNP,Gurage,132,Mamede health center,118845871,uuid:0daac84c-5b30-4ce3-bab9-9a86d2d24e2b,,,6,1,1,1,0,matched (3), No,,,,,,,,,,,,"Drugs (coartem, artesunate inj.)",Yes, No, Yes, No, Yes, Yes , Yes,1,0,0,1,0,1,0,1,0,1,1,1,0,1,1,1, Microscopy  , Yes,,,Yes,No,No,Abshge, Yes,1,0,0,0,0,0,0,0,0,
Amhara,South Wolo,221,Chewkutir HC,No,uuid:0dc9ba34-3e00-4f86-b481-8fe5091adb2c,,,10,0,1,1,0,matched (3), No,,,,,,,,,,,,"Drugs (coartem, artesunate inj.)",No, No, Yes, No, No, Yes , Yes,0,0,0,0,0,0,0,0,0,1,1,0,1,1,1,1, RDT, No,,,No,Yes,No,Delanta, No,0,0,0,0,0,0,0,0,0,
SNNP,Gurage,140,Eskut health center,914341836,uuid:0f1511b3-03df-4fe9-9068-401bd5c02fbd,,,4,1,1,1,1,matched (3), No,,,,,,,,,,,,"Drugs (coartem, artesunate inj.)",Yes, No, No, No, No, Yes , No,0,0,0,0,0,0,0,0,0,0,0,0,0,0,0,0, Microscopy  , No,,,Yes,No,No,Geta, No,0,0,0,0,0,0,0,0,0,
Amhara,South Wolo,225,Muqechi H.C,No phone number,uuid:0f28c6ff-8dbd-4bb2-8efd-f778c69e73bf,,,4,0,0,2,0,matched (3), Yes,0,0,1,0,0,0,0,0,0,0,0,Diagnosis,Yes, No, Yes, No, No, Yes , No,0,0,0,0,0,0,0,0,0,0,0,0,0,0,0,0, RDT, No,,,No,Yes,No,Kellala, Yes,0,0,0,0,0,0,0,0,1,
SNNP,Kembata Timbaro,154,Shinshicho primary hospital,9652,uuid:0fd09457-3f80-4bb1-b91b-99e7a162eed1,,,55,9,8,1,1,matched (3), Yes,0,2,1,1,1,0,0,0,0,0,0,"Drugs (coartem, artesunate inj.)",Yes, No, Yes, No, No, Yes , No,0,0,0,0,0,0,0,0,0,0,0,0,0,0,0,0, Microscopy  , Yes,,,Yes,No,No,Kacha Bira, No,0,0,0,0,0,0,0,0,0,
Amhara,North Shewa,260,Deneba,920219719,uuid:0fe00475-271e-4f9b-a275-3bde99e2f131,,,4,1,1,1,1,matched (3), No,,,,,,,,,,,,Diagnosis,Yes, No, No, No, No, Yes , Yes,0,0,0,0,0,1,1,1,1,1,1,1,1,1,1,1, Microscopy  , Yes,,,Yes,No,No,Siadebr, Yes,0,0,1,1,1,1,1,0,0,
SNNP,Hadiya,148,Bendelicho,910616046,uuid:0ff2ae9d-2494-4759-8e2d-6cfad44cc246,,,17,1,0,1,1,matched (3), No,,,,,,,,,,,,"Drugs (coartem, artesunate inj.)",Yes, No, No, No, No, Yes , No,0,0,0,0,0,0,0,0,0,0,0,0,0,0,0,0, Both Microscope and RDT, No,,,No,No,Yes,Analemo, No,0,0,0,0,0,0,0,0,0,
SNNP,Sidama,172,Bursa health center,917152387,uuid:1007f11e-c9a3-4aa6-bfa2-3587e02313c7,,,5,2,0,1,2,matched (3), No,,,,,,,,,,,,Diagnosis,No, No, No, No, No, Yes , No,0,0,0,0,0,0,0,0,0,0,0,0,0,0,0,0, Microscopy  , No,,,Yes,No,No,Bursa, No,0,0,0,0,0,0,0,0,0,
SNNP,Kembata Timbaro,156,Adilo health center,465540122,uuid:114cf501-9e1a-4105-bb56-282ad0da0e76,,,28,2,2,1,1,matched (3), No,,,,,,,,,,,,"Drugs (coartem, artesunate inj.)",Yes, No, Yes, No, Yes, Yes , Yes,0,0,0,0,0,1,0,0,0,0,0,1,0,0,0,0, Microscopy  , Yes,,,Yes,No,No,Kedida Gamela, Yes,0,0,0,0,0,0,0,0,0,
Oromiya,East Hararge,69,Aweday Health Center,922800884,uuid:127c20d8-034d-4ab4-a80f-eaaf1e375caa,,,4,2,2,1,1,matched (3), No,,,,,,,,,,,,"Drugs (coartem, artesunate inj.)",No, No, No, No, No, Yes , No,0,0,0,0,0,0,0,0,0,0,0,0,0,0,0,0, Microscopy  , No,,,Yes,No,No,AWEDAY-TOWN, No,0,0,0,0,0,0,0,0,0,
SNNP,Sidama,171,Konsore chafa,916139616,uuid:1384b7bc-5001-4c2a-bd19-08f0c4484d34,,,1,1,2,1,1,matched (3), No,,,,,,,,,,,,"Drugs (coartem, artesunate inj.)",Yes, No, No, No, Yes, No, Yes,0,1,0,0,0,1,1,1,0,1,1,0,0,1,1,1, Both Microscope and RDT, No,,,No,No,Yes,Boricha, Yes,0,0,0,0,0,0,0,0,0,
Tigray,Central Tigray,103,Berhe Geberemedhin health  center,914764723,uuid:13cbb452-2d46-47c2-9926-f744cfd127f3,,,26,1,1,1,0,matched (3), No,,,,,,,,,,,,Diagnosis,No, No, No, No, Yes, Yes , No,0,0,0,0,0,0,0,0,0,0,0,0,0,0,0,0, Microscopy  , No,,,Yes,No,No,Adwa Town, Yes,0,0,0,0,0,0,0,0,0,
Amhara,North Shewa,246,Lemi,111190027,uuid:13d8ab75-774f-441c-ae6d-f300f55a38fd,,,6,2,2,1,1,matched (3), No,,,,,,,,,,,,"Drugs (coartem, artesunate inj.)",Yes, No, No, No, Yes, Yes , Yes,0,0,0,0,0,0,0,0,0,0,1,0,0,1,0,0, Both Microscope and RDT, No,,,No,No,Yes,Ensaro, Yes,1,0,1,1,1,1,1,0,0,
SNNP,Silitie,201,Wero hc,0,uuid:147fa459-775f-4e16-b160-1bdae9db81e1,,,9,1,1,1,1,matched (3), No,,,,,,,,,,,,"Drugs (coartem, artesunate inj.)",Yes, No, No, No, No, No, No,0,0,0,0,0,0,0,0,0,0,0,0,0,0,0,0, Microscopy  , No,,,Yes,No,No,Misirak Azerenet Berbere, No,0,0,0,0,0,0,0,0,0,
SNNP,Sidama,165,Mekubasa H.C,No,uuid:151df3e9-9d46-4ef3-a3cd-b7fa0b1ba0f4,,,31,2,2,1,1,matched (3), No,,,,,,,,,,,,"Drugs (coartem, artesunate inj.)",Yes, Yes, Yes, Yes, Yes, Yes , No,0,0,0,0,0,0,0,0,0,0,0,0,0,0,0,0, Microscopy  , No,,,Yes,No,No,Awassa Zuria, No,0,0,0,0,0,0,0,0,0,
SNNP,Sidama,172,Tankaro health center,916176864,uuid:15583cb8-d63a-473c-879a-9164a44db378,,,3,1,0,1,1,matched (3), No,,,,,,,,,,,,"Drugs (coartem, artesunate inj.)",No, No, No, No, No, Yes , No,0,0,0,0,0,0,0,0,0,0,0,0,0,0,0,0,other, No,,,No,No,No,Bursa, No,0,0,0,0,0,0,0,0,0,
Amhara,North Shewa,238,Kotu,921137603,uuid:15e25007-2f09-4584-b947-126bf108da7f,,,9,2,2,1,1,matched (3), No,,,,,,,,,,,,"Drugs (coartem, artesunate inj.)",Yes, No, No, No, No, Yes , Yes,0,0,0,0,0,0,0,0,0,0,0,0,0,0,0,0,other, No,,,No,No,No,Angolela, No,0,0,0,0,0,0,0,0,0,
Oromiya,Arsi,33,Amude,228990439,uuid:164aa796-0e13-4126-8b05-2c345f78faf7,,,4,1,1,1,1,matched (3), No,,,,,,,,,,,,Diagnosis,No, No, No, No, Yes, Yes , Yes,1,1,0,0,0,0,0,0,1,1,1,0,1,1,0,1, Both Microscope and RDT, Yes,,,No,No,Yes,DODOTA-WEREDA, Yes,0,0,0,0,0,0,0,0,1,
SNNP,Silitie,199,Nadugne Agam HC,925978186,uuid:1680cae0-fe2e-4ebe-bfeb-c822c6ae6c7d,,,6,0,0,1,1,matched (3), No,,,,,,,,,,,,"Drugs (coartem, artesunate inj.)",Yes, No, Yes, No, Yes, No, Yes,0,0,0,0,0,1,0,0,0,0,0,1,0,1,0,0, Microscopy  , Yes,,,Yes,No,No,Dalocha, No,0,0,0,0,0,0,0,0,0,
SNNP,Sidama,178,Girja hc,916161702,uuid:16dca2bf-8e61-400a-b00d-c60c0314a06c,,,14,2,2,1,1,matched (3), Yes,0,1,0,0,1,0,0,0,0,0,0,"Drugs (coartem, artesunate inj.)",No, No, No, No, No, Yes , Yes,0,0,0,0,0,1,1,1,0,0,0,1,0,0,0,0, Microscopy  , No,,,Yes,No,No,Aroresa, No,0,0,0,0,0,0,0,0,0,
Tigray,South Tigray,121,Timuga Health center,343160045,uuid:16e5f067-e037-40fc-8e08-e6a8baf5c43a,,,13,1,2,1,1,matched (3), No,,,,,,,,,,,,"Drugs (coartem, artesunate inj.)",Yes, No, Yes, No, Yes, Yes , No,0,0,0,0,0,0,0,0,0,0,0,0,0,0,0,0, Both Microscope and RDT, Yes,,,No,No,Yes,Alamata, Yes,0,0,0,0,0,0,0,0,0,
Amhara,South Wolo,236,Bokekisa h c,332130015,uuid:16fe910f-074a-48af-a81e-d86d217c2d7a,,,12,0,2,1,1,matched (3), No,,,,,,,,,,,,Diagnosis,Yes, No, No, Yes, No, Yes , Yes,0,0,0,0,0,0,1,1,0,0,0,1,0,0,0,0, RDT, Yes,,,No,Yes,No,Worebabo, No,0,0,0,0,0,0,0,0,0,
SNNP,Silitie,197,Tora Hospital,0,uuid:17ac92ab-ffab-4fb2-9f3e-eeeb0644ebd8,,,2,6,10,1,1,matched (3), No,,,,,,,,,,,,"Drugs (coartem, artesunate inj.)",Yes, No, No, No, No, Yes , Yes,1,1,1,1,1,1,0,0,1,1,1,1,0,0,1,1, Microscopy  , Yes,,,Yes,No,No,Lanifaro, Yes,0,0,0,0,0,0,0,0,1,
Tigray,South Tigray,114,Quiha hospital,914195716,uuid:180ef433-ca60-4550-ae47-c1e0d8c25b73,,,6,1,1,1,1,matched (3), No,,,,,,,,,,,,Diagnosis,Yes, No, Yes, No, No, Yes , No,0,0,0,0,0,0,0,0,0,0,0,0,0,0,0,0, Microscopy  , Yes,,,Yes,No,No,Mekele, Yes,0,0,0,0,0,0,0,0,0,
Oromiya,Arsi,41,Abomsa Hospital,224410935,uuid:183ba68d-24d4-43fc-a735-6ba9f7203aec,,,12,5,4,1,2,matched (3), No,,,,,,,,,,,,"Drugs (coartem, artesunate inj.)",Yes, No, No, No, No, Yes , Yes,0,0,0,0,0,0,0,0,0,0,0,0,1,0,0,0, Microscopy  , Yes,,,Yes,No,No,MERTI-WEREDA, No,0,0,0,0,0,0,0,0,0,
SNNP,Sidama,182,Teferkela hc,916184393,uuid:18c291f9-e62b-47d6-9cd1-7d99cbbc724f,,,26,3,1,1,1,matched (3), No,,,,,,,,,,,,"Drugs (coartem, artesunate inj.)",No, Yes, Yes, Yes, Yes, Yes , Yes,0,0,0,0,0,1,0,0,0,0,1,1,0,1,1,0, Both Microscope and RDT, Yes,,,No,No,Yes,Dara, Yes,1,0,0,0,0,0,0,0,0,
Amhara,North Wollo,211,Gelesot health ceanter,No,uuid:18de032a-7cc1-4a4b-a005-0b96f977b651,,,2,0,1,1,1,matched (3), No,,,,,,,,,,,,Diagnosis,No, No, No, No, No, Yes , No,0,0,0,0,0,0,0,0,0,0,0,0,0,0,0,0, RDT, No,,,No,Yes,No,, Yes,0,0,0,0,0,0,0,0,1,
Oromiya,West Hararge,65,Gebis Health  center,920450384,uuid:19373552-fe67-4a6b-8857-c33271309e0b,,,4,0,1,1,1,matched (3), No,,,,,,,,,,,,Diagnosis,No, Yes, Yes, No, Yes, No, No,0,0,0,0,0,0,0,0,0,0,0,0,0,0,0,0,other, No,,,No,No,No,MESELA-WEREDA, No,0,0,0,0,0,0,0,0,0,
Amhara,North Shewa,257,Gawuna,922360653,uuid:19f70f3e-8048-4c87-9ccb-44c48ad833eb,,,2,0,0,1,0,matched (3), No,,,,,,,,,,,,No service given for free,Yes, No, No, No, No, Yes , No,0,0,0,0,0,0,0,0,0,0,0,0,0,0,0,0, RDT, No,,,No,Yes,No,Mojana, Yes,0,0,0,0,0,0,0,0,1,
SNNP,Gurage,140,Kuante primery hospital,912120285,uuid:1a394e22-d2bf-4473-ab91-989cabf7a547,,,8,2,4,1,1,matched (3), No,,,,,,,,,,,,"Drugs (coartem, artesunate inj.)",Yes, No, No, No, No, Yes , No,0,0,0,0,0,0,0,0,0,0,0,0,0,0,0,0, Microscopy  , No,,,Yes,No,No,Geta, No,0,0,0,0,0,0,0,0,0,
Tigray,Central Tigray,93,Bete Yohannes health center,0,uuid:1a9c1c3a-fabd-45f0-b8ed-9651c6f7ac31,,,13,1,0,1,1,matched (3), Yes,0,0,0,0,1,0,0,0,0,0,0,Diagnosis,Yes, No, No, No, Yes, Yes , No,0,0,0,0,0,0,0,0,0,0,0,0,0,0,0,0, Both Microscope and RDT, No,,,No,No,Yes,Adwa, Yes,0,0,0,0,0,0,0,0,1,
Tigray,South Tigray,118,Maychew Health center,347770630,uuid:1ae2109a-56c6-4b99-992c-1f98d40b385b,,,8,1,2,1,1,matched (3), No,,,,,,,,,,,,"Drugs (coartem, artesunate inj.)",No, Yes, Yes, No, Yes, Yes , No,0,0,0,0,0,0,0,0,0,0,0,0,0,0,0,0, Both Microscope and RDT, Yes,,,No,No,Yes,Maychew Town, No,0,0,0,0,0,0,0,0,0,
SNNP,Gurage,140,Kebule hc,118840154,uuid:1ba552fd-9485-489e-9a27-fcc7497a66cf,,,4,1,1,1,1,matched (3), No,,,,,,,,,,,,"Drugs (coartem, artesunate inj.)",Yes, No, No, No, No, Yes , Yes,0,0,0,0,0,0,0,0,0,0,0,1,1,0,0,0, RDT, No,,,No,Yes,No,Geta, No,0,0,0,0,0,0,0,0,0,
SNNP,Silitie,202,Hulbareg HC,916026252,uuid:1bb8b856-3e94-4204-a443-8aad6a963450,,,17,3,3,1,1,matched (3), No,,,,,,,,,,,,"Drugs (coartem, artesunate inj.)",Yes, No, No, No, Yes, Yes , No,0,0,0,0,0,0,0,0,0,0,0,0,0,0,0,0, Microscopy  , Yes,,,Yes,No,No,Wilbareg, No,0,0,0,0,0,0,0,0,0,
SNNP,Gurage,135,Ener amanuel,932195324,uuid:1c5c06f8-ec82-4593-8329-22f360693503,,,4,1,1,1,1,matched (3), Yes,0,1,1,1,0,0,0,0,0,0,0,"Drugs (coartem, artesunate inj.)",No, No, No, No, Yes, Yes , Yes,0,0,0,0,0,0,0,0,0,0,0,1,0,0,0,0, Microscopy  , No,,,Yes,No,No,Enemor Ener, Yes,1,0,0,0,0,0,0,0,1,
Tigray,South Tigray,120,Hawelti Health center,977821423,uuid:1cc9df42-cca3-478d-a25a-436bebd374b2,,,10,1,2,1,1,matched (3), No,,,,,,,,,,,,"Drugs (coartem, artesunate inj.)",Yes, No, No, No, Yes, Yes , No,0,0,0,0,0,0,0,0,0,0,0,0,0,0,0,0, Both Microscope and RDT, Yes,,,No,No,Yes,Rya Azebo, No,0,0,0,0,0,0,0,0,0,
Amhara,South Wolo,237,Woreillu  H.c,331160067,uuid:1cf6e69a-42e3-4fdc-a6fd-5da8f0c4f772,,,9,3,3,1,1,matched (3), No,,,,,,,,,,,,"Drugs (coartem, artesunate inj.)",Yes, No, Yes, Yes, No, Yes , No,0,0,0,0,0,0,0,0,0,0,0,0,0,0,0,0, Microscopy  , No,,,Yes,No,No,Woreillu, Yes,0,0,0,0,0,0,0,0,1,
Amhara,South Wolo,234,Mekena HC,338921597,uuid:1d22e301-6656-4857-bfbe-83a38febe5f3,,,9,1,1,1,1,matched (3), No,,,,,,,,,,,,"Drugs (coartem, artesunate inj.)",Yes, Yes, Yes, No, Yes, Yes , Yes,0,0,0,0,0,1,0,0,1,1,1,1,1,1,1,1, RDT, No,,,No,Yes,No,Tenta, Yes,0,0,0,0,0,0,0,0,0,
SNNP,Silitie,198,Lera HC,V,uuid:1d27d836-f9aa-4499-876d-c679686ba67e,,,7,1,0,1,1,matched (3), No,,,,,,,,,,,,"Drugs (coartem, artesunate inj.)",Yes, No, No, No, No,,,,,,,,,,,,,,,,,,,,,,,,,,MIRAB AZERNET BERBERE, No,0,0,0,0,0,0,0,0,0,
Amhara,South Wolo,223,Jamma Hospital,033 226 0486,uuid:1d3536fa-59a7-4f3e-a7ff-2f0c82a94d04,,,4,3,3,1,1,matched (3), No,,,,,,,,,,,,No service given for free,Yes, No, No, No, No, Yes , No,0,0,0,0,0,0,0,0,0,0,0,0,0,0,0,0, Microscopy  , No,,,Yes,No,No,Jamma, No,0,0,0,0,0,0,0,0,0,
Amhara,South Wolo,221,Tsehaymewcha HC,338990207,uuid:1d3d802e-4229-431c-9464-5e58eef11e9d,,,8,0,1,1,0,matched (3), No,,,,,,,,,,,,Diagnosis,No, No, No, No, No, Yes , No,0,0,0,0,0,0,0,0,0,0,0,0,0,0,0,0, RDT, No,,,No,Yes,No,Delanta, No,0,0,0,0,0,0,0,0,0,
Oromiya,East Hararge,84,Kora mixe health center,924017558,uuid:1e1196da-7dc5-421f-bd8a-582321a073a4,,,1,1,1,1,0,matched (3), No,,,,,,,,,,,,Diagnosis,No, Yes, Yes, No, Yes, Yes , No,0,0,0,0,0,0,0,0,0,0,0,0,0,0,0,0, RDT, No,,,No,Yes,No,JARSO-WEREDA, Yes,0,0,0,0,0,0,0,0,0,
SNNP,Gurage,134,Wolkite health center,113301073,uuid:1f2a9bbd-69b4-4bd3-b97b-69f457b3ed9f,,,33,7,4,1,1,matched (3), Yes,0,1,0,0,0,0,0,1,0,0,0,"Drugs (coartem, artesunate inj.)",Yes, No, Yes, No, Yes, Yes , Yes,0,1,0,0,0,0,0,0,0,1,0,0,0,1,0,0, Microscopy  , Yes,,,Yes,No,No,Wolkite town, Yes,0,1,0,0,0,0,0,0,1,
Amhara,North Shewa,256,Dire Health Center,228126298,uuid:1f9036ed-7666-4777-a0d0-252dfe09ab50,,,9,0,1,1,0,matched (3), Yes,0,0,1,0,0,0,0,0,0,0,0,Diagnosis,Yes, No, No, No, Yes, Yes , Yes,0,0,0,0,0,1,0,0,0,0,0,0,0,0,0,0, RDT, No,,,No,Yes,No,Minjar, Yes,0,0,0,0,0,0,0,0,0,
SNNP,Gurage,135,Agata Health Center,910947580,uuid:1fd076bc-a0f3-4481-aa49-13d45891cef4,,,3,1,0,1,1,matched (3), No,,,,,,,,,,,,"Drugs (coartem, artesunate inj.)",No, No, No, No, No, Yes , Yes,1,1,0,1,1,0,0,0,1,1,1,1,1,1,1,1, Microscopy  , No,,,Yes,No,No,Enemor Ener, No,0,0,0,0,0,0,0,0,0,
Oromiya,East Hararge,73,Waleensu health center,917041345,uuid:1fd75e91-279c-42f2-a4ad-ead868cb86eb,,,2,0,0,2,0,matched (3), No,,,,,,,,,,,,Diagnosis,No, Yes, Yes, Yes, Yes, No, Yes,0,0,0,0,0,1,0,1,1,1,1,1,1,1,1,1, Both Microscope and RDT, No,,,No,No,Yes,CHINAKSEN-WEREDA, Yes,1,0,0,0,0,0,0,0,0,
Tigray,Central Tigray,93,Rahya health center,914745302,uuid:205ba290-0ae6-452b-b69f-5bc7e9706b2f,,,23,1,1,1,1,matched (3), Yes,1,0,1,0,1,0,0,0,0,0,0,Diagnosis,Yes, No, No, No, Yes, Yes , No,0,0,0,0,0,0,0,0,0,0,0,0,0,0,0,0, Both Microscope and RDT, No,,,No,No,Yes,Adwa, Yes,0,0,0,0,0,0,0,0,1,
Amhara,South Wolo,223,Degollo H.c,332260272,uuid:20629664-7ac5-4d25-a23d-abc8e9c1b384,,,7,1,2,1,2,matched (3), No,,,,,,,,,,,,Diagnosis,Yes, No, No, No, Yes, Yes , No,0,0,0,0,0,0,0,0,0,0,0,0,0,0,0,0, Microscopy  , No,,,Yes,No,No,Jamma, No,0,0,0,0,0,0,0,0,0,
Oromiya,East Hararge,81,Gursum health center,2577220022,uuid:207fbdb1-8a36-4090-aaf0-c75301ca10dc,,,1,2,2,1,1,matched (3), Yes,0,0,0,0,3,0,7,3,2,1,1,Diagnosis,No, Yes, No, No, Yes, Yes , No,0,0,0,0,0,0,0,0,0,0,0,0,0,0,0,0, Microscopy  , No,,,Yes,No,No,GURSUM-WEREDA, No,0,0,0,0,0,0,0,0,0,
Oromiya,West Hararge,64,Rimeti,923264850,uuid:2096724f-455e-4983-bd8a-40401e17a007,,,11,1,1,1,0,matched (3), Yes,0,0,0,0,8,0,0,1,0,0,0,"Drugs (coartem, artesunate inj.)",No, No, No, No, Yes, No, Yes,0,1,0,0,0,0,0,0,1,1,1,1,1,1,1,1, Microscopy  , No,,,Yes,No,No,HAWI GUDINA, Yes,1,0,0,0,0,0,0,0,0,
SNNP,Hadiya,147,Boshuana,916475733,uuid:2116abc4-67ae-489f-a8e4-3891d441d520,,,16,3,1,1,1,matched (3), No,,,,,,,,,,,,"Drugs (coartem, artesunate inj.)",No, No, No, No, Yes, Yes , No,0,0,0,0,0,0,0,0,0,0,0,0,0,0,0,0, RDT, No,,,No,Yes,No,Gombora, No,0,0,0,0,0,0,0,0,0,
Oromiya,West Hararge,57,Chiro hospital,255513035,uuid:21abb60f-76bf-4fb7-bc64-e70fba83800d,,,4,5,4,1,1,matched (3), No,,,,,,,,,,,,Diagnosis,No, No, No, No, No, Yes , No,0,0,0,0,0,0,0,0,0,0,0,0,0,0,0,0, Microscopy  , Yes,,,Yes,No,No,CHIRO TOWN, No,0,0,0,0,0,0,0,0,0,
Amhara,North Shewa,240,Daniso,920857430,uuid:21d2a755-d618-4b6a-a766-f1aba2938d7d,,,5,0,0,1,0,matched (3), No,,,,,,,,,,,,"Drugs (coartem, artesunate inj.)",Yes, No, Yes, No, Yes, Yes , No,0,0,0,0,0,0,0,0,0,0,0,0,0,0,0,0, Microscopy  , Yes,,,Yes,No,No,Antsokia, Yes,0,0,0,0,0,0,0,0,1,
Amhara,North Wollo,208,Mersa health center,333330055,uuid:22045c01-107b-4991-946c-e04eaeb63e5f,,,1,0,0,1,0,matched (3), No,,,,,,,,,,,,"Drugs (coartem, artesunate inj.)",Yes, Yes, Yes, Yes, Yes, Yes , Yes,1,1,0,0,0,1,1,1,0,0,0,0,1,1,0,0, Microscopy  , Yes,,,Yes,No,No,Habru, Yes,0,0,0,0,0,0,0,0,1,
Oromiya,Arsi,34,Machitu H/C,No phone number,uuid:23700796-0d24-4d01-b4f9-e18999efbb36,,,10,0,1,1,1,matched (3), No,,,,,,,,,,,,Diagnosis,Yes, No, No, No, No, No, Yes,0,0,0,0,0,1,0,0,0,0,0,0,0,0,0,0,other, Yes,,,No,No,No,ENKELO WABE-WEREDA, Yes,1,0,0,0,0,0,0,0,0,
Tigray,South Tigray,121,Tumuga  Health  Center,343160045,uuid:23823367-c993-47a9-963f-756f42a04275,,,17,1,2,1,1,matched (3), No,,,,,,,,,,,,"Drugs (coartem, artesunate inj.)",Yes, No, Yes, No, Yes, Yes , No,0,0,0,0,0,0,0,0,0,0,0,0,0,0,0,0, Both Microscope and RDT, Yes,,,No,No,Yes,Alamata, Yes,0,0,0,0,0,0,0,0,0,
Amhara,South Wolo,233,Seglen health Center,338990116,uuid:240927bf-8e3d-4ce4-a858-43cff19f9ec7,,,11,1,2,1,1,matched (3), Yes,1,0,0,0,1,0,0,0,0,0,0,"Drugs (coartem, artesunate inj.)",Yes, No, Yes, Yes, Yes, Yes , No,0,0,0,0,0,0,0,0,0,0,0,0,0,0,0,0, Both Microscope and RDT, Yes,,,No,No,Yes,Tehuledeire, No,0,0,0,0,0,0,0,0,0,
SNNP,Kembata Timbaro,157,Funamura HC,No,uuid:2465027a-ec76-4aa6-9a07-4680e44abb28,,,18,2,1,1,1,matched (3), No,,,,,,,,,,,,"Drugs (coartem, artesunate inj.)",Yes, No, No, Yes, Yes, Yes , No,0,0,0,0,0,0,0,0,0,0,0,0,0,0,0,0, Microscopy  , No,,,Yes,No,No,Angacha, Yes,0,0,0,0,0,0,0,0,0,
Oromiya,East Hararge,87,Hariro Health Center,915092575,uuid:25050cf4-673e-4826-9e40-371a473f7bf3,,,5,1,0,1,0,matched (3), No,,,,,,,,,,,,No service given for free,No, No, No, No, No, No, Yes,1,1,1,1,1,1,0,0,1,1,1,1,1,1,1,1, RDT, No,,,No,Yes,No,, No,0,0,0,0,0,0,0,0,0,
Tigray,Central Tigray,96,Adihaferom  health  center,914764069,uuid:258f98d3-c2d3-477c-933d-b1f068c86963,,,15,1,2,1,1,matched (3), No,,,,,,,,,,,,Diagnosis,Yes, No, No, No, No, Yes , No,0,0,0,0,0,0,0,0,0,0,0,0,0,0,0,0, Both Microscope and RDT, No,,,No,No,Yes,Ahiferom, Yes,0,0,0,0,0,0,0,0,0,
Amhara,South Wolo,226,Kombolcha 03,335510115,uuid:25aa9d32-448a-477b-b76c-ecbcb3aa0a2f,,,7,5,6,1,1,matched (3), No,,,,,,,,,,,,"Drugs (coartem, artesunate inj.)",Yes, No, Yes, No, Yes, Yes , No,0,0,0,0,0,0,0,0,0,0,0,0,0,0,0,0, Microscopy  , Yes,,,Yes,No,No,Kombolcha, Yes,1,1,1,1,1,1,1,0,1,
Amhara,South Wolo,224,Harbu Health Center,335521301,uuid:25b1fa64-46e1-4d12-b509-963e8361425a,,,4,2,3,2,1,matched (3), No,,,,,,,,,,,,"Drugs (coartem, artesunate inj.)",Yes, No, No, Yes, Yes, Yes , No,0,0,0,0,0,0,0,0,0,0,0,0,0,0,0,0, Both Microscope and RDT, Yes,,,No,No,Yes,Kallu, Yes,0,0,1,1,1,1,1,0,1,
Oromiya,West Hararge,56,Arbarakate Health Center,No,uuid:25ecd035-bc30-4de0-9e90-0d9351c39fee,,,2,1,1,1,1,matched (3), Yes,0,0,0,0,0,0,4,1,0,0,0,Diagnosis,No, Yes, Yes, No, Yes, Yes , Yes,1,1,0,1,0,0,0,0,1,1,1,1,1,1,1,1, Microscopy  , Yes,,,Yes,No,No,CHIRO ZURIA WEREDA, Yes,0,0,0,0,0,0,0,0,0,
Tigray,Central Tigray,97,Edega  arbi  primary  hospital,343460087,uuid:26398c5f-a7d1-4962-9872-a82f724e3ca1,,,39,2,2,1,1,matched (3), No,,,,,,,,,,,,Diagnosis,No, No, No, Yes, Yes, Yes , No,0,0,0,0,0,0,0,0,0,0,0,0,0,0,0,0, Microscopy  , Yes,,,Yes,No,No,Wereilehi, Yes,0,0,0,0,0,0,0,0,1,
Amhara,South Wolo,234,Billa HC,338922025,uuid:26549072-13fa-484f-9cca-32e3b810658c,,,7,0,0,1,0,matched (3), No,,,,,,,,,,,,"Drugs (coartem, artesunate inj.)",Yes, No, Yes, No, No, Yes , Yes,0,0,0,0,0,1,0,0,1,1,1,1,1,1,1,1, RDT, No,,,No,Yes,No,Tenta, No,0,0,0,0,0,0,0,0,0,
SNNP,Sidama,177,Abey taka health center,916648240,uuid:26c97f7f-beeb-43c5-9171-96966ebeb538,,,0,0,0,1,1,matched (3), No,,,,,,,,,,,,"Drugs (coartem, artesunate inj.)",No, No, No, No, No, No, No,0,0,0,0,0,0,0,0,0,0,0,0,0,0,0,0,other, No,,,No,No,No,Chire, No,0,0,0,0,0,0,0,0,0,
SNNP,Hadiya,151,Geja health center,912759766,uuid:27163e68-4c92-4381-9b2f-95fd0e1fa848,,,11,2,1,1,1,matched (3), No,,,,,,,,,,,,"Drugs (coartem, artesunate inj.)",No, No, No, No, Yes, Yes , Yes,1,1,0,0,0,0,0,0,0,1,0,1,1,1,1,1, Microscopy  , No,,,Yes,No,No,Misha, No,0,0,0,0,0,0,0,0,0,
SNNP,Gurage,138,Hawariat HC,113430099,uuid:271b406e-a215-44fe-a900-4a8bd3512403,,,10,1,1,1,1,matched (3), No,,,,,,,,,,,,"Drugs (coartem, artesunate inj.)",Yes, No, Yes, No, Yes, Yes , Yes,0,1,0,0,0,0,0,0,0,1,1,0,0,1,1,1, RDT, No,,,No,Yes,No,Mhur Aklil, Yes,0,0,0,0,0,0,0,0,0,
Oromiya,East Hararge,83,Karodada Health Center,913283536,uuid:27224ad1-e585-4b39-9420-d9c4f9b38fb1,,,4,1,1,1,1,matched (3), No,,,,,,,,,,,,"Drugs (coartem, artesunate inj.)",Yes, No, Yes, No, Yes, Yes , No,0,0,0,0,0,0,0,0,0,0,0,0,0,0,0,0, Both Microscope and RDT, Yes,,,No,No,Yes,HAROMAYA-WEREDA, No,0,0,0,0,0,0,0,0,0,
SNNP,Sidama,173,Bochessa,921452651,uuid:274e1823-44c5-4455-b60d-dc3b5089163c,,,8,1,1,1,1,matched (3), No,,,,,,,,,,,,"Drugs (coartem, artesunate inj.)",No, No, No, No, No, Yes , No,0,0,0,0,0,0,0,0,0,0,0,0,0,0,0,0, Microscopy  , No,,,Yes,No,No,Arbegona, No,0,0,0,0,0,0,0,0,0,
Oromiya,East Hararge,85,Langey Health center,252200058,uuid:284e1119-1477-4aa8-80fd-955110d4bdf7,,,4,2,2,1,1,matched (3), No,,,,,,,,,,,,Diagnosis,Yes, Yes, Yes, Yes, Yes, Yes , No,0,0,0,0,0,0,0,0,0,0,0,0,0,0,0,0, Microscopy  , Yes,,,Yes,No,No,KERSA-WEREDA, Yes,0,0,0,0,0,0,0,0,0,
Oromiya,East Hararge,86,Kara falana health center,915026998,uuid:2877b0ae-5bc9-4e36-a812-598df2bafbf6,,,1,1,2,1,1,matched (3), No,,,,,,,,,,,,Diagnosis,No, No, Yes, No, Yes, No, Yes,0,0,1,1,1,0,0,0,1,1,1,0,1,1,1,1, Microscopy  , Yes,,,Yes,No,No,KOMBOLCHA-WEREDA, No,0,0,0,0,0,0,0,0,0,
Amhara,North Shewa,257,Sasit,965906629,uuid:28f2273b-70f7-4315-922e-224e91ba1ff8,,,1,0,0,1,0,matched (3), No,,,,,,,,,,,,Diagnosis,Yes, No, No, No, No, Yes , Yes,1,0,0,0,0,0,0,0,1,1,1,1,1,1,1,1, Both Microscope and RDT, Yes,,,No,No,Yes,Mojana, No,0,0,0,0,0,0,0,0,0,
Oromiya,Arsi,39,Samera H/C,No  phone number,uuid:2944a361-b8bf-4f1a-a651-b04a211e151b,,,4,1,1,1,0,matched (3), No,,,,,,,,,,,,Diagnosis,Yes, No, No, No, No, No, No,0,0,0,0,0,0,0,0,0,0,0,0,0,0,0,0, Microscopy  , No,,,Yes,No,No,LEMU &  BILBILO-WEREDA, No,0,0,0,0,0,0,0,0,0,
Tigray,South Tigray,119,Korem general hospital,345510345,uuid:29504fb4-c3bf-4844-aea3-d30e80143d37,,,1,0,0,0,0,matched (3), No,,,,,,,,,,,,"Drugs (coartem, artesunate inj.)",No, No, Yes, No, No, No, No,0,0,0,0,0,0,0,0,0,0,0,0,0,0,0,0, Microscopy  , Yes,,,Yes,No,No,Korem Town, Yes,0,1,1,0,0,0,0,0,0,
SNNP,Sidama,174,Abela H.C,No,uuid:295d2b5f-18ca-4cec-addf-94434f2f9189,,,26,4,2,1,1,matched (3), No,,,,,,,,,,,,No service given for free,No, No, No, No, No, No, No,0,0,0,0,0,0,0,0,0,0,0,0,0,0,0,0, Microscopy  , No,,,Yes,No,No,Hula, No,0,0,0,0,0,0,0,0,0,
Oromiya,Arsi,32,Sagure H C,223380003,uuid:2a9124ca-e0e8-4bb8-ba91-458bd7de9297,,,0,0,0,0,0,matched (3), No,,,,,,,,,,,,Diagnosis,Yes, No, No, No, No, Yes , No,0,0,0,0,0,0,0,0,0,0,0,0,0,0,0,0, Microscopy  , No,,,Yes,No,No,DIGELUNA TIJO-WEREDA, No,0,0,0,0,0,0,0,0,0,
Tigray,South East,125,Hewane Health center,343450181,uuid:2adb9ed7-468a-4635-b8ea-2c2f5dc20b32,,,2,1,0,0,0,matched (3), No,,,,,,,,,,,,"Drugs (coartem, artesunate inj.)",No, Yes, No, Yes, Yes, No, No,0,0,0,0,0,0,0,0,0,0,0,0,0,0,0,0, Microscopy  , Yes,,,Yes,No,No,Hintalo Wajirat, Yes,0,0,0,0,0,0,0,0,1,
SNNP,Sidama,170,Yirgalem hc,912140173,uuid:2ae44b7f-46e9-446f-945f-5c792b6a8d5f,,,18,5,4,1,1,matched (3), No,,,,,,,,,,,,"Drugs (coartem, artesunate inj.)",Yes, No, No, Yes, No, Yes , Yes,0,0,0,0,0,0,0,0,0,0,0,1,0,0,0,0, Microscopy  , Yes,,,Yes,No,No,Yirgalem town, No,0,0,0,0,0,0,0,0,0,
Oromiya,East Hararge,90,chelenko hospital,912491469,uuid:2b21ee32-9667-4f97-b8df-04191544d1b2,,,5,6,7,1,1,matched (3), Yes,1,1,1,1,1,0,0,1,1,0,0,Diagnosis,Yes, No, No, No, No, Yes , Yes,0,0,0,0,0,1,1,1,0,0,0,0,0,0,0,0, Microscopy  , No,,,Yes,No,No,META-WEREDA, Yes,0,0,0,0,0,0,0,0,0,
Amhara,North Wollo,210,Lalibela health ceanter,333360426,uuid:2b725fea-9623-479c-9af5-7ec03d0e26ed,,,1,1,1,1,1,matched (3), No,,,,,,,,,,,,"Drugs (coartem, artesunate inj.)",No, No, No, No, Yes, Yes , No,0,0,0,0,0,0,0,0,0,0,0,0,0,0,0,0, Microscopy  , Yes,,,Yes,No,No,, Yes,0,0,0,0,0,0,0,0,1,
Amhara,South Wolo,231,Masha HC,33,uuid:2cd7bad3-cc86-49e6-af9a-463ece36137d,,,22,2,2,1,1,matched (3), No,,,,,,,,,,,,"Drugs (coartem, artesunate inj.)",Yes, No, Yes, No, No, Yes , No,0,0,0,0,0,0,0,0,0,0,0,0,0,0,0,0, Microscopy  , Yes,,,Yes,No,No,Mekdella, No,0,0,0,0,0,0,0,0,0,
Oromiya,East Hararge,75,Karamekala HC,935985207,uuid:2d0d0bfe-cd99-4377-a211-4de16ace6d3a,,,1,1,1,1,1,matched (3), No,,,,,,,,,,,,Diagnosis,Yes, No, No, Yes, Yes, No, Yes,0,0,0,0,0,0,0,0,0,0,0,0,0,0,0,0, Microscopy  , Yes,,,Yes,No,No,DEDER-WEREDA, Yes,0,0,0,0,0,0,0,0,1,
SNNP,Sidama,180,Hache,No,uuid:2d0febf1-98fe-4a9e-8b04-d361f3092f19,,,14,0,1,1,1,matched (3), No,,,,,,,,,,,,Diagnosis,No, Yes, No, Yes, No, Yes , No,0,0,0,0,0,0,0,0,0,0,0,0,0,0,0,0,other, No,,,No,No,No,Bensa, Yes,0,0,0,0,0,0,0,0,1,
Amhara,South Wolo,237,Dollu,No.phone number,uuid:2d4ff91a-affa-4e8f-9fe2-6f54c3c1bdc4,,,3,0,1,1,0,matched (3), No,,,,,,,,,,,,Diagnosis,Yes, No, No, Yes, No, Yes , No,0,0,0,0,0,0,0,0,0,0,0,0,0,0,0,0, RDT, No,,,No,Yes,No,Woreillu, No,0,0,0,0,0,0,0,0,0,
SNNP,Sidama,176,Tankaro,916452879,uuid:2ef204d6-3e38-4109-b5fc-829ec234d9b7,,,1,2,1,1,1,matched (3), No,,,,,,,,,,,,"Drugs (coartem, artesunate inj.)",No, No, No, No, No, Yes , Yes,0,0,0,0,0,1,0,0,0,0,1,1,0,0,0,0, Both Microscope and RDT, No,,,No,No,Yes,Malga, No,0,0,0,0,0,0,0,0,0,
SNNP,Hadiya,148,Achamo Health Center,9123556,uuid:2e73b924-7ca7-49c7-85be-cc41bf4ba70a,,,8,2,0,1,1,matched (3), No,,,,,,,,,,,,Diagnosis,Yes, Yes, No, No, Yes, No, No,0,0,0,0,0,0,0,0,0,0,0,0,0,0,0,0, RDT, No,,,No,Yes,No,Analemo, Yes,0,0,0,0,0,0,0,0,0,
Oromiya,Arsi,48,Alemegena health center,I,uuid:2ec34d50-a046-49d6-8219-d41dc4639a6b,,,,,,,,master only (1),,,,,,,,,,,,,,,,,,, No, Yes,1,1,1,1,1,1,1,1,1,1,0,0,1,1,1,1,,,,,,,,SUDE-WEREDA,,,,,,,,,,,
SNNP,Silitie,198,Lera health center,462370108,uuid:2ee52f0c-90df-4cd4-9d39-69681290c100,,,7,1,0,1,1,matched (3), No,,,,,,,,,,,,"Drugs (coartem, artesunate inj.)",Yes, No, No, No, No, Yes , No,0,0,0,0,0,0,0,0,0,0,0,0,0,0,0,0, Microscopy  , No,,,Yes,No,No,MIRAB AZERNET BERBERE, No,0,0,0,0,0,0,0,0,0,
Amhara,South Wolo,233,Hara h c,911540050,uuid:2ff25efc-f9b5-472c-beca-b5f3c032eee2,,,10,2,2,1,1,matched (3), Yes,0,0,1,0,1,0,0,0,0,0,0,"Drugs (coartem, artesunate inj.)",Yes, No, Yes, Yes, Yes, Yes , Yes,0,0,0,0,0,1,1,1,0,0,0,0,0,1,0,1, Both Microscope and RDT, Yes,,,No,No,Yes,Tehuledeire, No,0,0,0,0,0,0,0,0,0,
SNNP,Silitie,197,Archuma wente hc,0,uuid:2ff3b37c-354b-41f4-b88c-488acdda9a26,,,15,1,1,1,1,matched (3), No,,,,,,,,,,,,"Drugs (coartem, artesunate inj.)",Yes, No, No, No, No, Yes , Yes,0,0,0,0,0,0,0,0,0,0,1,1,1,1,0,1, Both Microscope and RDT, Yes,,,No,No,Yes,Lanifaro, No,0,0,0,0,0,0,0,0,0,
SNNP,Hadiya,145,Kosha  heslth center,910321728,uuid:35a5fb24-f452-41d7-b57f-c426bcafa18b,,,12,3,1,1,1,matched (3), No,,,,,,,,,,,,"Drugs (coartem, artesunate inj.)",No, No, No, No, No, No, No,0,0,0,0,0,0,0,0,0,0,0,0,0,0,0,0, Both Microscope and RDT, No,,,No,No,Yes,Soro, Yes,1,0,0,0,0,0,0,0,0,
Oromiya,West Hararge,54,Boke Tiko Health Center,No,uuid:2ffed8f5-2658-4d02-bcc1-9398b7f2dcda,,,4,2,1,1,1,matched (3), Yes,0,0,1,1,0,0,0,1,0,0,0,"Drugs (coartem, artesunate inj.)",No, Yes, Yes, No, No, Yes , Yes,1,0,0,0,0,1,0,0,0,0,0,1,0,0,0,0, Microscopy  , No,,,Yes,No,No,BOKE-WEREDA, Yes,0,0,0,0,0,0,0,0,0,
Amhara,North Shewa,238,Tsigereda,920857018,uuid:3011c5aa-22c0-49df-8871-2ff81b7a2a3c,,,6,1,2,1,1,matched (3), No,,,,,,,,,,,,No service given for free,Yes, No, No, No, No, No, Yes,1,1,1,1,1,1,1,1,1,1,1,1,1,1,1,1, RDT, No,,,No,Yes,No,Angolela, No,0,0,0,0,0,0,0,0,0,
SNNP,Gedeo,191,EDIDO HC,0,uuid:301c3da4-b505-4735-ba7e-9e7b2bfe0e6f,,,6,1,1,1,1,matched (3), No,,,,,,,,,,,,"Drugs (coartem, artesunate inj.)",No, No, No, No, No, Yes , No,0,0,0,0,0,0,0,0,0,0,0,0,0,0,0,0, Microscopy  , No,,,Yes,No,No,Yirgacheffe woreda, No,0,0,0,0,0,0,0,0,0,
SNNP,Sidama,179,Oloso health cenrer,915675382,uuid:30403956-10df-430f-9935-97e6b388d840,,,4,1,1,1,1,matched (3), No,,,,,,,,,,,,Diagnosis,Yes, No, No, No, No, Yes , Yes,0,0,0,0,0,1,0,0,0,0,0,0,0,0,0,0, Microscopy  , No,,,Yes,No,No,Bona Zuriya, No,0,0,0,0,0,0,0,0,0,
SNNP,Gurage,140,Wedaka Health Center,920968301,uuid:304737f3-90b0-4e19-8727-d78c914ca4b1,,,5,0,1,1,1,matched (3), No,,,,,,,,,,,,"Drugs (coartem, artesunate inj.)",Yes, No, No, No, No, Yes , No,0,0,0,0,0,0,0,0,0,0,0,0,0,0,0,0, RDT, No,,,No,Yes,No,Geta, No,0,0,0,0,0,0,0,0,0,
SNNP,Gedeo,193,Laba Reji Hc,940624413,uuid:30803f65-ba63-4576-9c49-e783219db8f3,,,0,0,0,1,1,matched (3), No,,,,,,,,,,,,No service given for free,No, No, No, No, No, No, No,0,0,0,0,0,0,0,0,0,0,0,0,0,0,0,0,other, No,,,No,No,No,Bule, No,0,0,0,0,0,0,0,0,0,
SNNP,Sidama,175,Kenera,916067149,uuid:31006ae1-5d96-4fe6-9c50-7d2bf9437182,,,11,2,2,1,1,matched (3), No,,,,,,,,,,,,Diagnosis,No, No, No, No, No, Yes , Yes,1,1,1,1,1,1,0,0,1,1,0,1,1,1,1,1, RDT, No,,,No,Yes,No,Gorche, No,0,0,0,0,0,0,0,0,0,
SNNP,Gurage,131,Mahalba Health center,113360106,uuid:3364cd8f-b5e6-4022-b929-ea913d32b8a1,,,14,1,1,1,1,matched (3), No,,,,,,,,,,,,"Drugs (coartem, artesunate inj.)",No, No, No, No, No, No, Yes,0,0,0,0,0,1,0,0,1,1,1,0,0,0,0,1, Microscopy  , No,,,Yes,No,No,Gedebano G/W, No,0,0,0,0,0,0,0,0,0,
Oromiya,Arsi,34,Wabe  kebena  H/C,No phone number,uuid:33f7abd8-2f82-4996-9a22-9a7438d8026d,,,3,0,1,1,1,matched (3), No,,,,,,,,,,,,Diagnosis,Yes, No, No, No, No, No, Yes,0,0,0,0,0,0,0,0,0,0,0,0,1,0,0,0, Microscopy  , No,,,Yes,No,No,ENKELO WABE-WEREDA, Yes,0,0,0,0,0,0,0,0,0,
SNNP,Gurage,137,Darcha health center,912744786,uuid:346ad55a-aa08-48a0-b61f-52f602f820ed,,,9,2,1,1,1,matched (3), No,,,,,,,,,,,,"Drugs (coartem, artesunate inj.)",Yes, No, Yes, No, Yes, Yes , Yes,0,0,0,0,0,0,0,0,0,0,1,0,0,1,0,1, Microscopy  , No,,,Yes,No,No,Eza, Yes,1,1,0,0,1,0,0,0,0,
SNNP,Silitie,195,Kutere hc,0,uuid:349a97fa-7f58-43de-9f7a-bc1c942c701c,,,10,2,1,1,1,matched (3), No,,,,,,,,,,,,"Drugs (coartem, artesunate inj.)",Yes, No, No, No, No, Yes , Yes,0,0,0,0,0,1,0,0,1,1,1,1,1,1,1,1, Microscopy  , No,,,Yes,No,No,Alicho Woriro, No,0,0,0,0,0,0,0,0,0,
SNNP,Silitie,195,Kawkoto hc,0,uuid:3597b01e-7d38-4da9-9737-ff6ea6ca7ce3,,,14,2,2,1,1,matched (3), No,,,,,,,,,,,,"Drugs (coartem, artesunate inj.)",Yes, No, No, No, No, Yes , No,0,0,0,0,0,0,0,0,0,0,0,0,0,0,0,0, Microscopy  , No,,,Yes,No,No,Alicho Woriro, No,0,0,0,0,0,0,0,0,0,
Tigray,Eastern Tigray,108,Degamba health center,914784837,uuid:38af86e8-b85d-4011-899e-f464caa69455,,,8,1,1,1,1,matched (3), No,,,,,,,,,,,,Diagnosis,Yes, No, Yes, No, Yes, Yes , No,0,0,0,0,0,0,0,0,0,0,0,0,0,0,0,0, Both Microscope and RDT, Yes,,,No,No,Yes,Hawzen, Yes,0,0,0,0,0,0,0,0,0,
Oromiya,Arsi,44,Waji Madicho,922062294,uuid:35e05426-14db-4e72-95e0-2609d901a003,,,5,0,1,1,1,matched (3), No,,,,,,,,,,,,Diagnosis,No, No, No, No, No, No, Yes,1,1,0,0,1,0,0,0,1,1,0,1,1,1,1,1, RDT, No,,,No,Yes,No,SERU-WEREDA, No,0,0,0,0,0,0,0,0,0,
Oromiya,Arsi,38,Adishiwot Hc,221191031,uuid:36ff2209-4388-441a-8576-8b26c3734987,,,7,2,1,1,1,matched (3), No,,,,,,,,,,,,"Drugs (coartem, artesunate inj.)",No, No, No, Yes, Yes, Yes , No,0,0,0,0,0,0,0,0,0,0,0,0,0,0,0,0, Microscopy  , No,,,Yes,No,No,JEJU-WEREDA, No,0,0,0,0,0,0,0,0,0,
Amhara,North Wollo,207,Hara,334520130,uuid:37041305-a675-4dc1-8afc-c7f0a1e956fe,,,16,1,0,1,0,matched (3), No,,,,,,,,,,,,"Drugs (coartem, artesunate inj.)",Yes, No, No, Yes, Yes, Yes , Yes,1,1,0,0,0,1,0,1,0,0,0,0,1,1,1,1, Microscopy  , Yes,,,Yes,No,No,Gubalaftu, Yes,0,0,0,0,0,0,0,0,1,
Amhara,North Shewa,261,D/sina health center,No phone,uuid:37554f3d-bf90-454e-8e8e-9ef3beafa004,,,19,3,3,2,1,matched (3), No,,,,,,,,,,,,"Drugs (coartem, artesunate inj.)",No, No, No, No, No, Yes , No,0,0,0,0,0,0,0,0,0,0,0,0,0,0,0,0, Microscopy  , Yes,,,Yes,No,No,Tarmaber, Yes,0,1,0,0,0,0,0,0,0,
Oromiya,East Hararge,70,Babile health center,949391310,uuid:37fd6d9e-9f45-4a1b-a1cd-33bd6216d8ab,,,27,2,1,1,1,matched (3), No,,,,,,,,,,,,"Drugs (coartem, artesunate inj.)",No, No, No, Yes, Yes, Yes , No,0,0,0,0,0,0,0,0,0,0,0,0,0,0,0,0, Microscopy  , Yes,,,Yes,No,No,BABILE TOWN, No,0,0,0,0,0,0,0,0,0,
Oromiya,West Hararge,58,Sakina,936007761,uuid:3834d243-8909-495d-a2a1-dd5f74bce2e2,,,8,0,0,1,1,matched (3), Yes,0,0,0,1,3,0,0,1,0,0,0,Diagnosis,No, No, Yes, No, Yes, No, Yes,0,0,0,0,0,1,0,0,1,1,1,0,1,1,1,1,other, No,,,No,No,No,DARO LEBU-WEREDA, Yes,0,0,0,0,0,0,0,0,1,
SNNP,Gedeo,190,Hase haro H/c,949166490,uuid:3b9f602d-f40a-401f-a852-aa892330c3a4,,,0,2,0,0,0,matched (3), No,,,,,,,,,,,,"Drugs (coartem, artesunate inj.)",No, No, No, No, No, Yes , No,0,0,0,0,0,0,0,0,0,0,0,0,0,0,0,0, Both Microscope and RDT, No,,,No,No,Yes,Wonago, No,0,0,0,0,0,0,0,0,0,
SNNP,Sidama,182,Odola hc,916160727,uuid:38d80ce9-c2e2-4675-bc16-df424d8012f3,,,18,2,0,1,1,matched (3), Yes,0,0,1,0,0,0,0,0,0,0,0,"Drugs (coartem, artesunate inj.)",No, No, No, No, Yes, Yes , Yes,0,0,0,0,0,1,0,0,1,0,1,1,0,0,1,0, RDT, No,,,No,Yes,No,Dara, Yes,0,0,0,0,0,0,0,0,0,
SNNP,Kembata Timbaro,160,Amacho wato health center,949637336,uuid:38f188ab-afcd-4295-b6a0-1acfdf7677ca,,,15,3,3,1,1,matched (3), No,,,,,,,,,,,,"Drugs (coartem, artesunate inj.)",No, No, No, No, No, No, No,0,0,0,0,0,0,0,0,0,0,0,0,0,0,0,0, Microscopy  , Yes,,,Yes,No,No,Doyogena, No,0,0,0,0,0,0,0,0,0,
Amhara,North Wollo,214,Kuna health ceanter,No,uuid:39707589-0188-40b2-a988-168da7f861bc,,,11,2,1,1,1,matched (3), No,,,,,,,,,,,,"Drugs (coartem, artesunate inj.)",Yes, No, No, No, No, Yes , No,0,0,0,0,0,0,0,0,0,0,0,0,0,0,0,0,other, No,,,No,No,No,Wadela, No,0,0,0,0,0,0,0,0,0,
Amhara,South Wolo,221,Tardat HC,No,uuid:39ab5ded-c456-4f8a-9a71-b657246da240,,,6,0,0,1,0,matched (3), No,,,,,,,,,,,,Diagnosis,No, No, No, No, No, No, Yes,0,0,0,0,0,1,0,0,1,1,0,1,1,1,1,1, RDT, No,,,No,Yes,No,Delanta, No,0,0,0,0,0,0,0,0,0,
SNNP,Sidama,181,First Fero health center,921564691,uuid:3a52edd7-14a1-4316-88e2-0c27b0c46fe9,,,4,1,1,1,1,matched (3), No,,,,,,,,,,,,Diagnosis,No, No, No, No, No, Yes , No,0,0,0,0,0,0,0,0,0,0,0,0,0,0,0,0, Microscopy  , No,,,Yes,No,No,Wensho, No,0,0,0,0,0,0,0,0,0,
Oromiya,Arsi,39,Meraro H/C,228900963,uuid:3a7500d8-a82d-4600-8b58-69a77860a25c,,,4,2,2,1,1,matched (3), No,,,,,,,,,,,,Diagnosis,Yes, No, No, Yes, No, Yes , No,0,0,0,0,0,0,0,0,0,0,0,0,0,0,0,0, Microscopy  , Yes,,,Yes,No,No,LEMU &  BILBILO-WEREDA, No,0,0,0,0,0,0,0,0,0,
Oromiya,East Hararge,92,Ibro Mussa Health Center,928161010,uuid:3a7dad10-1602-4681-a793-6fa8a0e2c17f,,,2,0,1,1,1,matched (3), No,,,,,,,,,,,,"Drugs (coartem, artesunate inj.)",No, No, No, No, No, No, No,0,0,0,0,0,0,0,0,0,0,0,0,0,0,0,0, RDT, No,,,No,Yes,No,MIDEGA TOLA-WEREDA, No,0,0,0,0,0,0,0,0,0,
Tigray,South Tigray,116,Meswaeti health center,343190145,uuid:3e940ab6-8b9a-497c-afeb-96fa5f1df906,,,15,1,2,1,1,matched (3), No,,,,,,,,,,,,"Drugs (coartem, artesunate inj.)",Yes, Yes, Yes, No, Yes, Yes , No,0,0,0,0,0,0,0,0,0,0,0,0,0,0,0,0, Both Microscope and RDT, Yes,,,No,No,Yes,Endamehone, Yes,0,0,0,0,0,0,0,0,0,
SNNP,Kembata Timbaro,156,Odoricho,465540122,uuid:3ba43a68-e28e-4332-b8e7-ec50925cab8d,,,,,,,,master only (1),,,,,,,,,,,,,,, Yes, Yes, No, Yes, Yes , No,0,0,0,0,0,0,0,0,0,0,0,0,0,0,0,0, Microscopy  , No,,,Yes,No,No,Kedida Gamela,,,,,,,,,,,
SNNP,Gedeo,191,Chito,0,uuid:3be2fa44-8cbf-468e-895e-c890721d0a56,,,7,1,1,1,1,matched (3), No,,,,,,,,,,,,Diagnosis,No, No, No, No, Yes, Yes , Yes,0,0,0,0,0,1,0,0,0,0,0,0,0,0,0,1, Microscopy  , No,,,Yes,No,No,Yirgacheffe woreda, No,0,0,0,0,0,0,0,0,0,
Oromiya,West Hararge,64,Ibsa,924466358,uuid:3c383640-302b-4d82-b96c-b2d816e7d668,,,4,0,0,1,1,matched (3), Yes,0,0,0,0,1,0,0,0,0,0,0,Diagnosis,No, No, No, No, Yes, No, Yes,0,0,0,0,0,1,0,0,1,1,1,0,0,1,0,0, RDT, No,,,No,Yes,No,HAWI GUDINA, No,0,0,0,0,0,0,0,0,0,
SNNP,Sidama,166,Mesankela,916374558,uuid:3c9deb17-4364-46f3-a06a-66cece756ad1,,,6,2,2,1,1,matched (3), No,,,,,,,,,,,,Diagnosis,No, No, No, No, No, Yes , Yes,0,0,0,0,0,1,0,0,0,0,0,0,1,0,0,0, Microscopy  , No,,,Yes,No,No,Dale, Yes,1,1,0,0,0,0,0,0,0,
Oromiya,Arsi,30,Moye Health center,922031708,uuid:3d6c56f0-8362-40c7-ae74-05e90903cded,,,6,1,1,1,0,matched (3), No,,,,,,,,,,,,Diagnosis,Yes, No, No, No, No, No, Yes,1,1,0,0,1,0,0,0,0,0,0,0,0,0,0,0,other, No,,,No,No,No,CHOLE-WEREDA, No,0,0,0,0,0,0,0,0,0,
SNNP,Hadiya,143,Sibaya health center,913947028,uuid:4037bf3c-d5f2-47c2-aa24-b7800d23a82a,,,9,2,1,1,1,matched (3), No,,,,,,,,,,,,"Drugs (coartem, artesunate inj.)",No, No, No, No, No, Yes , Yes,0,0,0,0,0,0,0,0,0,0,0,1,0,0,0,0, Both Microscope and RDT, No,,,No,No,Yes,Mirab badewacho, No,0,0,0,0,0,0,0,0,0,
Oromiya,Arsi,39,Siltana H/C,14,uuid:3eda69fa-abce-4095-91ef-84a5d0aa9fd0,,,5,2,1,1,1,matched (3), No,,,,,,,,,,,,Diagnosis,Yes, Yes, No, Yes, No, Yes , No,0,0,0,0,0,0,0,0,0,0,0,0,0,0,0,0, Microscopy  , Yes,,,Yes,No,No,LEMU &  BILBILO-WEREDA, No,0,0,0,0,0,0,0,0,0,
SNNP,Sidama,168,Dulecha tewerako H C,091 6975312,uuid:3f03bb80-87bb-4cda-a3cb-145b3b462817,,,5,1,1,1,0,matched (3), Yes,0,1,0,1,0,0,0,1,2,0,0,"Drugs (coartem, artesunate inj.)",Yes, No, No, No, Yes, Yes , Yes,0,0,0,0,0,1,1,1,0,0,1,1,1,0,0,1, Microscopy  , No,,,Yes,No,No,Shebedino, No,0,0,0,0,0,0,0,0,0,
SNNP,Kembata Timbaro,156,Megere,No telephone,uuid:3f490bce-5706-414a-a51f-f366558d809e,,,19,3,1,1,1,matched (3), No,,,,,,,,,,,,"Drugs (coartem, artesunate inj.)",Yes, No, No, No, Yes,,,,,,,,,,,,,,,,,,, Microscopy  , No,,,Yes,No,No,Kedida Gamela, Yes,0,0,0,0,0,0,0,0,0,
Oromiya,Arsi,32,Lole HC,2233992198,uuid:3f49e7fc-206a-4e42-aced-40de7128c369,,,0,0,0,1,1,matched (3), No,,,,,,,,,,,,Diagnosis,Yes, No, No, No, No, Yes , No,0,0,0,0,0,0,0,0,0,0,0,0,0,0,0,0, Microscopy  , No,,,Yes,No,No,DIGELUNA TIJO-WEREDA, No,0,0,0,0,0,0,0,0,0,
SNNP,Gurage,139,Bole hc,913558785,uuid:3fce0afc-a610-4c47-b980-0fc16d8ef363,,,5,1,1,1,1,matched (3), No,,,,,,,,,,,,"Drugs (coartem, artesunate inj.)",Yes, No, No, Yes, No, Yes , No,0,0,0,0,0,0,0,0,0,0,0,0,0,0,0,0, RDT, No,,,No,Yes,No,Gummer, No,0,0,0,0,0,0,0,0,0,
SNNP,Sidama,169,Babo chororo,09!134272429,uuid:40fe6a4f-acfb-4f52-90d1-bb0f2375dba4,,,1,2,1,1,1,matched (3), No,,,,,,,,,,,,"Drugs (coartem, artesunate inj.)",No, No, No, No, No, Yes , No,0,0,0,0,0,0,0,0,0,0,0,0,0,0,0,0, Both Microscope and RDT, No,,,No,No,Yes,Wondo Genet, No,0,0,0,0,0,0,0,0,0,
Tigray,Central Tigray,97,Maykenetal  health  center,914176441,uuid:412c4cd6-e1c6-4c5e-8d57-d30d6e8bf407,,,17,1,1,1,1,matched (3), Yes,1,0,1,0,0,0,0,0,0,0,0,Diagnosis,No, No, No, No, Yes, Yes , No,0,0,0,0,0,0,0,0,0,0,0,0,0,0,0,0, Both Microscope and RDT, Yes,,,No,No,Yes,Wereilehi, Yes,0,0,0,0,0,0,0,0,0,
Tigray,Eastern Tigray,105,Zalambesa h/c,347790227,uuid:41c1238c-5feb-495d-8e59-be303a9f6662,,,23,1,2,1,1,matched (3), Yes,0,0,0,0,0,0,1,0,0,0,0,"Drugs (coartem, artesunate inj.)",Yes, No, No, No, Yes, Yes , Yes,0,0,0,0,0,0,0,0,0,1,0,0,1,0,0,1, Both Microscope and RDT, Yes,,,No,No,Yes,Gulo Meheda, Yes,0,0,0,0,0,0,0,0,0,
Oromiya,Arsi,37,Boru Jawi,228990450,uuid:412ec10e-4f83-42f1-832d-a7348cda681d,,,5,1,2,1,1,matched (3), No,,,,,,,,,,,,Diagnosis,No, No, No, No, No, Yes , Yes,1,1,0,0,0,1,1,1,1,1,1,1,1,1,1,1,other, No,,,No,No,No,HETOSA-WEREDA, No,0,0,0,0,0,0,0,0,0,
Tigray,South East,124,Romanat,932034692,uuid:41b978a6-cde1-44e4-b4cb-fd39afd49acb,,,1,0,0,0,0,matched (3), No,,,,,,,,,,,,Drugs (quinine and chloroquine),No, No, Yes, No, Yes, Yes , No,0,0,0,0,0,0,0,0,0,0,0,0,0,0,0,0, Microscopy  , Yes,,,Yes,No,No,Enderta, Yes,0,0,0,1,0,0,0,0,1,
Amhara,North Shewa,261,Mezezo health center,No,uuid:4249c64b-07f8-46c2-96ef-3d4af3f589e0,,,8,2,2,1,1,matched (3), No,,,,,,,,,,,,Diagnosis,Yes, No, No, No, No, Yes , No,0,0,0,0,0,0,0,0,0,0,0,0,0,0,0,0, Both Microscope and RDT, Yes,,,No,No,Yes,Tarmaber, No,0,0,0,0,0,0,0,0,0,
Oromiya,Arsi,37,Wal-argi,0,uuid:4218d81d-bacb-4469-b6be-a6e64a2ae35e,,,3,1,1,1,0,matched (3), No,,,,,,,,,,,,Diagnosis,No, No, Yes, No, No, Yes , Yes,0,0,0,0,0,1,0,0,0,1,1,0,1,1,1,1, Microscopy  , Yes,,,Yes,No,No,HETOSA-WEREDA, No,0,0,0,0,0,0,0,0,0,
SNNP,Sidama,168,Morocho negash,926242583,uuid:42342aad-89f0-4510-8f41-864a840e502b,,,15,3,2,1,1,matched (3), Yes,1,1,1,1,1,0,1,3,1,0,0,"Drugs (coartem, artesunate inj.)",Yes, Yes, No, No, Yes, Yes , Yes,0,0,0,0,0,1,1,1,1,0,1,0,0,0,1,1, Microscopy  , No,,,Yes,No,No,Shebedino, No,0,0,0,0,0,0,0,0,0,
Tigray,Central Tigray,97,Nebelet  health  center,343280063,uuid:43ceb768-d33c-4d82-8c4d-f8c26cd8ec93,,,20,1,2,1,0,matched (3), Yes,0,0,0,0,1,0,0,0,0,0,0,"Drugs (coartem, artesunate inj.)",No, No, No, No, Yes, Yes , No,0,0,0,0,0,0,0,0,0,0,0,0,0,0,0,0, Both Microscope and RDT, Yes,,,No,No,Yes,Wereilehi, Yes,0,0,0,0,0,0,0,0,0,
Tigray,Central Tigray,94,Fre Swaet health center,348750447,uuid:424a628b-02e6-433e-99c1-b142fc382107,,,4,0,2,1,1,matched (3), No,,,,,,,,,,,,Diagnosis,Yes, No, No, No, Yes, Yes , No,0,0,0,0,0,0,0,0,0,0,0,0,0,0,0,0, RDT, No,,,No,Yes,No,Lailay Mayichewu, Yes,0,0,0,0,0,0,0,0,1,
Tigray,Eastern Tigray,109,Negash health center,343130003,uuid:4270f4ce-12de-4689-8c1a-82226c2d9039,,,7,1,1,1,1,matched (3), No,,,,,,,,,,,,Diagnosis,Yes, No, No, No, Yes, Yes , No,0,0,0,0,0,0,0,0,0,0,0,0,0,0,0,0, Microscopy  , Yes,,,Yes,No,No,Klite Awlalo, Yes,0,0,0,0,0,0,0,0,0,
Oromiya,East Hararge,83,Sharif kalid,986310398,uuid:42d5671e-c5be-43b3-8006-9aa6cbd06bdf,,,4,2,1,1,0,matched (3), No,,,,,,,,,,,,"Drugs (coartem, artesunate inj.)",Yes, No, No, No, Yes, Yes , Yes,0,0,1,0,0,1,0,0,0,0,0,0,0,0,0,0, Microscopy  , No,,,Yes,No,No,HAROMAYA-WEREDA, No,0,0,0,0,0,0,0,0,0,
Tigray,South Tigray,122,Alamata  Health  Center,911572636,uuid:43b66ef8-2dc9-4276-8820-52b15ad219c1,,,22,3,2,1,1,matched (3), No,,,,,,,,,,,,"Drugs (coartem, artesunate inj.)",No, Yes, Yes, No, Yes, Yes , No,0,0,0,0,0,0,0,0,0,0,0,0,0,0,0,0, Microscopy  , Yes,,,Yes,No,No,Alamata Town, No,0,0,0,0,0,0,0,0,0,
Amhara,North Shewa,241,Gina Ager,116240072,uuid:44e16fff-6cca-4b30-b785-5c36b15532e1,,,6,2,2,1,1,matched (3), No,,,,,,,,,,,,Diagnosis,Yes, No, No, No, No, Yes , No,0,0,0,0,0,0,0,0,0,0,0,0,0,0,0,0, Both Microscope and RDT, No,,,No,No,Yes,Asagirt, No,0,0,0,0,0,0,0,0,0,
SNNP,Gurage,136,Wurerber hc,920352411,uuid:4794ff5d-4d41-4333-9c08-b811c0b82479,,,7,2,1,1,1,matched (3), Yes,1,0,0,0,0,0,0,0,0,0,0,"Drugs (coartem, artesunate inj.)",Yes, No, Yes, No, Yes, Yes , No,0,0,0,0,0,0,0,0,0,0,0,0,0,0,0,0, Both Microscope and RDT, No,,,No,No,Yes,Cheha, Yes,0,0,0,0,0,0,0,0,1,
Oromiya,West Hararge,63,Gelemso Hospital,939587173,uuid:4511dee1-449f-483e-bcf7-d77127838bdb,,,13,9,9,2,2,matched (3), No,,,,,,,,,,,,Diagnosis,Yes, No, No, No, No, Yes , Yes,0,0,0,0,0,0,0,0,1,0,0,0,0,0,1,1, Microscopy  , No,,,Yes,No,No,HABRO-WEREDA, Yes,1,0,0,0,0,0,0,0,0,
Amhara,North Shewa,246,Selam Geno,920059764,uuid:4695f1ad-a137-4e9a-b9d9-7c1ebdbf637c,,,3,0,0,1,0,matched (3), No,,,,,,,,,,,,"Drugs (coartem, artesunate inj.)",Yes, No, No, No, Yes, Yes , Yes,0,0,0,0,0,0,0,0,0,0,1,0,1,1,0,1, RDT, No,,,No,Yes,No,Ensaro, Yes,0,0,0,0,0,0,0,0,0,
SNNP,Kembata Timbaro,157,Angecha,No phone,uuid:46c11cf2-8125-40bd-a9f0-cd5481747ec0,,,,,,,,master only (1),,,,,,,,,,,,,,,,,,,,,,,,,,,,,,,,,,,,,,,,,,,,Angacha,,,,,,,,,,,
Oromiya,West Hararge,59,Goro health  center,910923018,uuid:46c71f75-04cb-4fa8-99e1-930fa0183fed,,,7,1,0,1,0,matched (3), No,,,,,,,,,,,,Diagnosis,Yes, Yes, Yes, No, Yes, No, No,0,0,0,0,0,0,0,0,0,0,0,0,0,0,0,0, Microscopy  , Yes,,,Yes,No,No,DOBA WEREDA, Yes,1,0,0,0,0,0,0,0,0,
Amhara,South Wolo,235,Makafta HC,No,uuid:47048ad3-9b5d-4ddf-84ab-aab1c224a9ea,,,14,0,1,1,1,matched (3), No,,,,,,,,,,,,Diagnosis,No, No, No, No, No, No, Yes,1,0,1,1,1,0,0,0,0,1,1,0,1,1,1,1, RDT, No,,,No,Yes,No,Wogdi, Yes,0,0,0,0,0,0,0,0,1,
Oromiya,East Hararge,84,Ahmed imama health center,910909892,uuid:475f45cd-2097-49b8-8bca-eddf8aea93b9,,,1,1,1,1,1,matched (3), No,,,,,,,,,,,,"Drugs (coartem, artesunate inj.)",No, No, No, Yes, Yes, Yes , Yes,1,0,0,0,0,1,0,0,1,1,1,0,0,1,1,1, RDT, No,,,No,Yes,No,JARSO-WEREDA, No,0,0,0,0,0,0,0,0,0,
Amhara,North Shewa,254,Alem  ketema,111320348,uuid:4762ad88-1add-4ea9-aada-398880015ed7,,,6,1,2,2,1,matched (3), No,,,,,,,,,,,,"Drugs (coartem, artesunate inj.)",Yes, No, No, No, Yes, Yes , No,0,0,0,0,0,0,0,0,0,0,0,0,0,0,0,0, Microscopy  , Yes,,,Yes,No,No,Merhabete, Yes,0,0,0,1,1,1,1,1,0,
Oromiya,West Hararge,67,Bososo Health Center,No,uuid:47933007-bebd-469b-b548-b4703aa143e0,,,4,0,1,1,1,matched (3), No,,,,,,,,,,,,Diagnosis,No, No, No, Yes, Yes, Yes , Yes,0,0,0,0,0,1,0,0,0,0,0,0,0,0,0,0, RDT, No,,,No,Yes,No,ODA BULTUM WEREDA, Yes,0,0,0,0,0,0,0,0,0,
Tigray,Eastern Tigray,107,Mugulat h/center,920867903,uuid:49bf6193-7211-4ad9-b455-c61478b58b79,,,16,2,1,1,1,matched (3), No,,,,,,,,,,,,"Drugs (coartem, artesunate inj.)",No, No, No, Yes, Yes, Yes , Yes,1,0,0,0,0,0,0,0,0,1,0,0,0,0,0,0, Both Microscope and RDT, No,,,No,No,Yes,Ganta Afeshum, Yes,0,0,0,0,0,0,0,0,1,
Amhara,South Wolo,237,Woreillu hospital,331160416,uuid:47d5036b-aa91-4232-9f38-3539bad535d8,,,10,4,3,1,1,matched (3), No,,,,,,,,,,,,"Drugs (coartem, artesunate inj.)",Yes, No, No, No, No, Yes , Yes,0,0,0,0,0,1,1,1,1,1,0,1,1,1,0,0, Microscopy  , No,,,Yes,No,No,Woreillu, No,0,0,0,0,0,0,0,0,0,
Oromiya,West Hararge,66,Asebot,922698118,uuid:49897e94-f6ce-4c1e-9472-00cd86d4ddeb,,,14,1,2,1,1,matched (3), Yes,0,0,0,0,3,0,0,2,0,0,0,Diagnosis,No, Yes, Yes, Yes, Yes, Yes , No,0,0,0,0,0,0,0,0,0,0,0,0,0,0,0,0,other, No,,,No,No,No,MIESO-WEREDA, No,0,0,0,0,0,0,0,0,0,
SNNP,Gurage,129,Garino Health Center,910268028,uuid:49b062a9-83c5-4e2f-b894-f7a980fe01a6,,,7,1,1,1,1,matched (3), No,,,,,,,,,,,,"Drugs (coartem, artesunate inj.)",Yes, No, No, No, No, No, Yes,1,1,0,0,0,1,1,1,1,1,1,1,1,1,1,1, Microscopy  , No,,,Yes,No,No,Sodo, No,0,0,0,0,0,0,0,0,0,
Tigray,South Tigray,120,Chercher Health center,343170049,uuid:4a4c70d7-98be-46ba-b2ee-00f3fc66407c,,,15,1,2,1,1,matched (3), No,,,,,,,,,,,,"Drugs (coartem, artesunate inj.)",Yes, No, Yes, No, Yes, Yes , Yes,0,0,0,0,0,1,0,0,0,0,0,0,0,0,0,0, Both Microscope and RDT, Yes,,,No,No,Yes,Rya Azebo, No,0,0,0,0,0,0,0,0,0,
Oromiya,West Hararge,54,Arba HC,No,uuid:49d1ec7d-b8b5-4876-8704-b5d3a2f1701e,,,7,0,1,1,1,matched (3), Yes,0,0,0,0,3,0,0,0,0,0,0,Diagnosis,Yes, Yes, Yes, Yes, Yes, No, Yes,0,0,0,0,0,1,0,0,1,1,1,1,1,1,1,1, RDT, No,,,No,Yes,No,BOKE-WEREDA, Yes,0,0,0,0,0,0,0,0,0,
Tigray,South Tigray,120,Balla Health center,914239265,uuid:4b7b8e49-7cc5-45f5-97ce-cc705223a401,,,16,1,2,1,1,matched (3), No,,,,,,,,,,,,"Drugs (coartem, artesunate inj.)",Yes, Yes, No, No, Yes, Yes , No,0,0,0,0,0,0,0,0,0,0,0,0,0,0,0,0, Both Microscope and RDT, Yes,,,No,No,Yes,Rya Azebo, No,0,0,0,0,0,0,0,0,0,
Amhara,North Shewa,241,Tidesh,915570760,uuid:4a9ecc2d-0348-47d7-a121-f9b7c5726c98,,,4,0,1,1,0,matched (3), No,,,,,,,,,,,,Diagnosis,Yes, No, No, No, Yes, Yes , No,0,0,0,0,0,0,0,0,0,0,0,0,0,0,0,0, RDT, No,,,No,Yes,No,Asagirt, Yes,0,0,0,0,0,0,0,0,1,
Oromiya,East Hararge,79,kara mile health center,912021373,uuid:4ac10de3-4819-43a4-a096-761dfc5d4032,,,4,3,2,1,1,matched (3), No,,,,,,,,,,,,Diagnosis,Yes, No, No, No, Yes, Yes , No,0,0,0,0,0,0,0,0,0,0,0,0,0,0,0,0, Microscopy  , Yes,,,Yes,No,No,GORO GUTU-WEREDA, Yes,0,0,0,0,0,0,0,0,1,
Tigray,Central Tigray,99,Ahsaea health center,914788253,uuid:4c49f8b1-cbce-4330-b1e9-05418b7b030e,,,8,1,2,1,1,matched (3), No,,,,,,,,,,,,"Drugs (coartem, artesunate inj.)",Yes, No, No, No, Yes, Yes , No,0,0,0,0,0,0,0,0,0,0,0,0,0,0,0,0, Both Microscope and RDT, Yes,,,No,No,Yes,Mereb Leha, Yes,0,0,0,0,0,0,0,0,1,
Oromiya,West Hararge,67,Kara kurkura HC,253240089,uuid:4bad1902-25a3-4a9b-b91a-55f406458645,,,9,1,2,1,1,matched (3), Yes,0,0,0,0,9,0,0,0,0,0,0,Diagnosis,No, Yes, Yes, Yes, Yes, Yes , Yes,0,0,0,0,0,1,0,0,1,1,1,0,0,0,1,1, Microscopy  , Yes,,,Yes,No,No,ODA BULTUM WEREDA, No,0,0,0,0,0,0,0,0,0,
Amhara,North Wollo,214,Kone health ceanter,No,uuid:4bb7fbb2-fa7c-4e1e-baa4-735a51da1cda,,,3,0,2,1,1,matched (3), No,,,,,,,,,,,,"Drugs (coartem, artesunate inj.)",Yes, No, No, No, Yes, Yes , No,0,0,0,0,0,0,0,0,0,0,0,0,0,0,0,0,other, No,,,No,No,No,Wadela, Yes,1,0,0,0,0,0,0,0,0,
Amhara,South Wolo,229,Shikefe Health center,No phone no,uuid:4bc28ead-c124-4c8f-9087-b500de3f665a,,,4,1,0,1,1,matched (3), No,,,,,,,,,,,,"Drugs (coartem, artesunate inj.)",Yes, Yes, No, No, Yes, Yes , Yes,1,0,1,1,1,0,0,0,0,0,0,0,0,0,0,1, RDT, No,,,No,Yes,No,Legehida, No,0,0,0,0,0,0,0,0,0,
SNNP,Sidama,180,Cabbe,No,uuid:4db1c155-ea4f-486c-b631-0d1096b1b6ef,,,14,1,1,1,1,matched (3), No,,,,,,,,,,,,"Drugs (coartem, artesunate inj.)",No, No, No, Yes, No, Yes , Yes,0,0,0,0,0,1,0,0,0,0,0,0,0,0,0,0, Both Microscope and RDT, No,,,No,No,Yes,Bensa, No,0,0,0,0,0,0,0,0,0,
SNNP,Gedeo,194,Gedeb hospital,9462680035,uuid:4c931e59-3671-4b90-800a-e6492d00603e,,,35,4,4,1,1,matched (3), No,,,,,,,,,,,,"Drugs (coartem, artesunate inj.)",No, No, No, No, Yes, Yes , No,0,0,0,0,0,0,0,0,0,0,0,0,0,0,0,0, Microscopy  , No,,,Yes,No,No,Gedeb, No,0,0,0,0,0,0,0,0,0,
Tigray,South Tigray,117,Sesela,945082495,uuid:4c9a3f65-f29e-4f3d-aaa1-f2d865e24bf2,,,1,0,0,0,0,matched (3), No,,,,,,,,,,,,"Drugs (coartem, artesunate inj.)",No, No, Yes, No, No, Yes , No,0,0,0,0,0,0,0,0,0,0,0,0,0,0,0,0, RDT, No,,,No,Yes,No,Ofla, Yes,0,0,0,0,0,0,0,0,1,
Amhara,South Wolo,228,Fita  H.c,No.phone number,uuid:4cbfab2f-91d1-42c7-81aa-6693becc614f,,,0,4,1,1,1,matched (3), No,,,,,,,,,,,,Diagnosis,No, No, No, No, Yes, Yes , No,0,0,0,0,0,0,0,0,0,0,0,0,0,0,0,0, RDT, No,,,No,Yes,No,Legambo, No,0,0,0,0,0,0,0,0,0,
SNNP,Silitie,200,Getem gurbaye health center,918467576,uuid:4d1f6ade-2ca0-4627-b888-44ad74f60254,,,,,,,,master only (1),,,,,,,,,,,,,,,,,,, Yes , No,0,0,0,0,0,0,0,0,0,0,0,0,0,0,0,0, Microscopy  , Yes,,,Yes,No,No,Sankura,,,,,,,,,,,
SNNP,Silitie,197,Repe Health center,0,uuid:4d2ac24f-e541-48f7-af67-47bc1bca6937,,,10,1,1,1,1,matched (3), No,,,,,,,,,,,,"Drugs (coartem, artesunate inj.)",Yes, No, No, No, No, Yes , Yes,0,0,0,0,0,1,0,0,0,1,0,1,0,0,0,1, Microscopy  , Yes,,,Yes,No,No,Lanifaro, No,0,0,0,0,0,0,0,0,0,
Tigray,South Tigray,120,Hawelti  Health  Center,977821423,uuid:4ef0d7cc-4b1c-4a3c-818a-52ca925eba73,,,15,1,2,1,1,matched (3), No,,,,,,,,,,,,"Drugs (coartem, artesunate inj.)",Yes, No, No, No, Yes, Yes , No,0,0,0,0,0,0,0,0,0,0,0,0,0,0,0,0, Both Microscope and RDT, Yes,,,No,No,Yes,Rya Azebo, No,0,0,0,0,0,0,0,0,0,
SNNP,Kembata Timbaro,154,Kacha health center,931352546,uuid:4ded6f41-3500-4ef1-b728-c3cd6f58bf42,,,12,2,3,1,1,matched (3), No,,,,,,,,,,,,"Drugs (coartem, artesunate inj.)",Yes, No, No, No, Yes, No, No,0,0,0,0,0,0,0,0,0,0,0,0,0,0,0,0, Microscopy  , Yes,,,Yes,No,No,Kacha Bira, No,0,0,0,0,0,0,0,0,0,
Oromiya,West Hararge,63,Wachu HC,0948577166/0920063656,uuid:4dfb3662-e69a-473a-9436-d6af45f19957,,,6,1,2,1,1,matched (3), Yes,0,0,2,0,2,0,0,0,0,0,0,Diagnosis,Yes, No, No, No, No, Yes , Yes,0,0,0,1,0,0,0,0,1,1,1,0,1,1,1,1, Microscopy  , No,,,Yes,No,No,HABRO-WEREDA, No,0,0,0,0,0,0,0,0,0,
Amhara,North Shewa,256,Kiristos Semra health center,934867490,uuid:4e010d97-6200-4afb-a5dc-ebcce1310b98,,,10,0,1,1,1,matched (3), No,,,,,,,,,,,,Diagnosis,Yes, No, No, Yes, Yes, Yes , Yes,0,0,0,0,0,0,0,0,0,0,0,0,0,0,0,0, RDT, No,,,No,Yes,No,Minjar, No,0,0,0,0,0,0,0,0,0,
Tigray,Eastern Tigray,107,Adi Aynom,914402793,uuid:504960f7-59e3-4ceb-8deb-d126bb20b9a8,,,10,1,1,1,1,matched (3), No,,,,,,,,,,,,"Drugs (coartem, artesunate inj.)",No, No, No, No, Yes, Yes , No,0,0,0,0,0,0,0,0,0,0,0,0,0,0,0,0, Both Microscope and RDT, No,,,No,No,Yes,Ganta Afeshum, No,0,0,0,0,0,0,0,0,0,
SNNP,Kembata Timbaro,153,Debub ambukuna health center,912775372,uuid:514999c8-74bc-4ad7-9a22-82b6b33726b5,,,24,2,1,1,1,matched (3), No,,,,,,,,,,,,"Drugs (coartem, artesunate inj.)",Yes, No, No, No, Yes, Yes , Yes,0,1,0,0,0,1,0,0,0,1,1,1,0,1,1,1, Both Microscope and RDT, No,,,No,No,Yes,Tembaro, No,0,0,0,0,0,0,0,0,0,
Oromiya,Arsi,42,Kersa Hospital,223370619,uuid:50e9d712-0695-4257-a466-f207f76027b0,,,64,7,5,1,2,matched (3), No,,,,,,,,,,,,"Drugs (coartem, artesunate inj.)",Yes, No, No, No, No, No, No,0,0,0,0,0,0,0,0,0,0,0,0,0,0,0,0, Microscopy  , Yes,,,Yes,No,No,MUNESA-WEREDA, No,0,0,0,0,0,0,0,0,0,
SNNP,Sidama,166,Megare,916925003,uuid:561956df-2508-42c1-b4ce-efe12c198731,,,24,2,2,1,1,matched (3), No,,,,,,,,,,,,Diagnosis,No, No, No, No, No, Yes , Yes,0,0,0,0,0,0,0,0,0,0,0,1,1,0,0,0, Both Microscope and RDT, No,,,No,No,Yes,Dale, No,0,0,0,0,0,0,0,0,0,
Oromiya,Arsi,40,Huruta,223340511,uuid:515e3654-fa51-45d7-a340-71866dbd05d4,,,17,2,2,1,1,matched (3), No,,,,,,,,,,,,Diagnosis,No, No, No, No, No, Yes , No,0,0,0,0,0,0,0,0,0,0,0,0,0,0,0,0, Microscopy  , No,,,Yes,No,No,LODE HETOSA-WEREDA, Yes,0,0,0,0,0,0,0,0,1,
SNNP,Gedeo,194,Worka sakaro,0,uuid:527d380e-67f8-4a4d-badf-da3262276871,,,7,1,1,1,1,matched (3), No,,,,,,,,,,,,"Drugs (coartem, artesunate inj.)",No, No, No, No, No, Yes , Yes,1,1,0,0,0,1,1,1,1,1,1,1,1,1,1,1, Microscopy  , No,,,Yes,No,No,Gedeb, No,0,0,0,0,0,0,0,0,0,
Amhara,South Wolo,220,Mekaneselam HC,332200432,uuid:52c67b7e-bfa1-4385-bcd4-4e47c1801fc2,,,37,3,2,1,1,matched (3), No,,,,,,,,,,,,"Drugs (coartem, artesunate inj.)",Yes, No, No, Yes, Yes, Yes , Yes,0,0,0,0,0,1,0,0,0,0,1,0,0,1,0,1, Microscopy  , Yes,,,Yes,No,No,Borena, No,0,0,0,0,0,0,0,0,0,
SNNP,Silitie,200,Getem gurbaye,918467576,uuid:55143b01-9df6-4517-b055-2204a6d6007b,,,7,2,1,1,1,matched (3), No,,,,,,,,,,,,"Drugs (coartem, artesunate inj.)",Yes, Yes, No, No, No, Yes , No,0,0,0,0,0,0,0,0,0,0,0,0,0,0,0,0, Microscopy  , Yes,,,Yes,No,No,Sankura, Yes,0,0,0,0,1,0,0,0,1,
Oromiya,East Hararge,89,bareda health center,923331573,uuid:5514ad8f-29c3-4a6c-bb27-d0f4e6b2703a,,,1,0,0,1,0,matched (3), No,,,,,,,,,,,,Diagnosis,Yes, No, No, No, Yes, No, Yes,0,0,0,0,0,1,0,0,1,1,0,1,0,0,0,0, RDT, No,,,No,Yes,No,MELKA BELO-WEREDA, Yes,0,0,0,0,0,0,0,0,0,
Oromiya,Arsi,28,Oda jarjero,933611937,uuid:55614853-d343-40b9-bee4-b18ec7bdb455,,,11,0,1,1,1,matched (3), No,,,,,,,,,,,,Diagnosis,No, No, No, No, No, Yes , No,0,0,0,0,0,0,0,0,0,0,0,0,0,0,0,0, RDT, No,,,No,Yes,No,BELE GASGAR-WEREDA, No,0,0,0,0,0,0,0,0,0,
Oromiya,Arsi,43,Robe H/c,224430009,uuid:55c61627-2d67-4a08-b2f8-71dc485b4d26,,,7,2,2,1,1,matched (3), No,,,,,,,,,,,,"Drugs (coartem, artesunate inj.)",Yes, No, No, No, No, Yes , No,0,0,0,0,0,0,0,0,0,0,0,0,0,0,0,0, Microscopy  , Yes,,,Yes,No,No,ROBE-WEREDA, No,0,0,0,0,0,0,0,0,0,
SNNP,Gurage,141,Dinkula Health Center,113500051,uuid:55f5eab0-6f5e-444b-a682-ab4ea4a61cd1,,,7,1,1,1,1,matched (3), No,,,,,,,,,,,,"Drugs (coartem, artesunate inj.)",Yes, No, No, No, No, Yes , No,0,0,0,0,0,0,0,0,0,0,0,0,0,0,0,0, Microscopy  , No,,,Yes,No,No,Endegagne, No,0,0,0,0,0,0,0,0,0,
SNNP,Gurage,141,Jene hc,1118840372,uuid:57513b38-9a56-4c50-a784-78dcc5d11405,,,4,0,1,1,1,matched (3), No,,,,,,,,,,,,"Drugs (coartem, artesunate inj.)",Yes, No, No, Yes, No, Yes , Yes,1,1,0,0,0,0,0,0,0,1,1,0,1,1,1,1, Both Microscope and RDT, No,,,No,No,Yes,Endegagne, No,0,0,0,0,0,0,0,0,0,
Tigray,Eastern Tigray,105,Sebeya h/center,914237535,uuid:57c18e46-915b-4c9b-8811-24039d6cf3c0,,,27,1,2,1,1,matched (3), No,,,,,,,,,,,,"Drugs (coartem, artesunate inj.)",Yes, No, No, No, Yes, Yes , No,0,0,0,0,0,0,0,0,0,0,0,0,0,0,0,0, Both Microscope and RDT, Yes,,,No,No,Yes,Gulo Meheda, Yes,0,0,0,0,0,0,0,0,0,
Tigray,South Tigray,121,Silean   Weha   Health   Center,914485443,uuid:59460642-a016-4b36-b568-fbd33d6e78e9,,,11,1,1,1,0,matched (3), Yes,1,0,0,0,1,0,0,0,0,0,0,Diagnosis,Yes, No, Yes, No, Yes, Yes , No,0,0,0,0,0,0,0,0,0,0,0,0,0,0,0,0, Both Microscope and RDT, Yes,,,No,No,Yes,Alamata, No,0,0,0,0,0,0,0,0,0,
Tigray,Central Tigray,99,Chila health center,345592080,uuid:5ccaa0b7-d953-4bd4-8d4c-3ab050a56a4b,,,8,1,2,1,1,matched (3), No,,,,,,,,,,,,"Drugs (coartem, artesunate inj.)",Yes, No, No, No, Yes, Yes , No,0,0,0,0,0,0,0,0,0,0,0,0,0,0,0,0, Both Microscope and RDT, No,,,No,No,Yes,Mereb Leha, Yes,0,0,0,0,0,0,0,0,1,
Oromiya,Arsi,40,Lode Jimata,922036677,uuid:6312a5e2-006f-4b1e-ae49-1270407ccd16,,,8,2,2,1,1,matched (3), No,,,,,,,,,,,,Diagnosis,No, No, No, Yes, Yes, Yes , No,0,0,0,0,0,0,0,0,0,0,0,0,0,0,0,0, Both Microscope and RDT, No,,,No,No,Yes,LODE HETOSA-WEREDA, No,0,0,0,0,0,0,0,0,0,
Oromiya,East Hararge,79,Kobo weltaha H/C,0.093093695,uuid:59ea9270-ac46-435d-b534-13bbe8831833,,,2,0,1,1,1,matched (3), No,,,,,,,,,,,,Diagnosis,Yes, No, No, No, Yes, No, No,0,0,0,0,0,0,0,0,0,0,0,0,0,0,0,0,other, No,,,No,No,No,GORO GUTU-WEREDA, No,0,0,0,0,0,0,0,0,0,
Amhara,North Wollo,207,Awentegegn,34,uuid:5abc8dbb-c2f9-41ad-83f0-b71164375f0b,,,1,0,0,1,0,matched (3), No,,,,,,,,,,,,"Drugs (coartem, artesunate inj.)",Yes, No, No, Yes, Yes, Yes , Yes,1,0,1,1,0,1,1,1,0,1,1,0,0,1,1,1, Microscopy  , Yes,,,Yes,No,No,Gubalaftu, No,0,0,0,0,0,0,0,0,0,
Tigray,Eastern Tigray,109,Abrha atsebha health center,913456502,uuid:5ad9ce4b-b2dd-443c-bacf-0e53ee0ebca5,,,8,1,1,1,1,matched (3), No,,,,,,,,,,,,Diagnosis,Yes, Yes, Yes, No, Yes, Yes , Yes,0,0,0,0,0,1,0,0,0,0,0,0,0,0,0,0, RDT, No,,,No,Yes,No,Klite Awlalo, Yes,0,0,0,0,0,0,0,0,0,
SNNP,Gedeo,191,Eidido health center,0,uuid:5c1ed1fd-926f-4933-89e7-657007dcbf80,,,6,1,1,1,1,matched (3), No,,,,,,,,,,,,"Drugs (coartem, artesunate inj.)",No, No, No, No, No, Yes , No,0,0,0,0,0,0,0,0,0,0,0,0,0,0,0,0, Microscopy  , No,,,Yes,No,No,Yirgacheffe woreda, No,0,0,0,0,0,0,0,0,0,
Amhara,North Wollo,213,Gobye,334560169,uuid:5c239ef0-42e8-4dbe-97d0-5c2a3e4240a8,,,1,0,0,1,0,matched (3), No,,,,,,,,,,,,"Drugs (coartem, artesunate inj.)",Yes, No, No, Yes, No, Yes , Yes,1,0,0,0,0,1,1,1,0,0,1,0,0,1,0,1, RDT, Yes,,,No,Yes,No,Raya Kobo, Yes,0,0,0,0,0,0,0,0,1,
Oromiya,Arsi,43,Robe Hospital,224430722,uuid:5c38f735-77d5-44c3-8b5c-dd708b33ef79,,,28,7,7,1,1,matched (3), No,,,,,,,,,,,,Diagnosis,Yes, No, No, No, No, Yes , No,0,0,0,0,0,0,0,0,0,0,0,0,0,0,0,0, Microscopy  , Yes,,,Yes,No,No,ROBE-WEREDA, No,0,0,0,0,0,0,0,0,0,
SNNP,Silitie,202,Bilawanja HC,Z,uuid:5c45f2e5-dc15-4f5d-bcd3-a0753f47adfc,,,2,2,1,1,1,matched (3), No,,,,,,,,,,,,"Drugs (coartem, artesunate inj.)",Yes, No, No, No, No, No, No,0,0,0,0,0,0,0,0,0,0,0,0,0,0,0,0, Microscopy  , No,,,Yes,No,No,Wilbareg, Yes,1,0,0,0,0,0,0,0,0,
SNNP,Kembata Timbaro,155,Tunto health center,916547744,uuid:69a9a882-6dfa-4d34-9d2a-733a82c8f358,,,15,3,2,1,1,matched (3), No,,,,,,,,,,,,"Drugs (coartem, artesunate inj.)",Yes, No, No, No, No, Yes , Yes,0,0,0,0,0,1,0,0,0,0,0,0,1,0,0,0, Both Microscope and RDT, Yes,,,No,No,Yes,Hedero Tunto, No,0,0,0,0,0,0,0,0,0,
SNNP,Sidama,175,Hasa wita,926095130,uuid:5d550248-8a6f-4623-99dd-f33a37b02c53,,,10,1,1,1,1,matched (3), No,,,,,,,,,,,,Diagnosis,No, No, No, No, No, Yes , Yes,0,0,0,0,0,0,0,0,0,0,0,1,1,1,1,1, RDT, No,,,No,Yes,No,Gorche, No,0,0,0,0,0,0,0,0,0,
SNNP,Silitie,199,Ebot Tirora HC,916350490,uuid:5da24c44-f3bd-4ed1-b7f9-f3c81ab4f568,,,7,2,2,1,1,matched (3), No,,,,,,,,,,,,"Drugs (coartem, artesunate inj.)",Yes, No, No, No, Yes, No, Yes,0,0,0,0,0,1,0,0,0,0,0,0,0,0,0,0, Microscopy  , Yes,,,Yes,No,No,Dalocha, Yes,0,0,0,0,0,0,0,0,1,
Tigray,Eastern Tigray,111,Adigrat Hospital,344454856,uuid:5e322977-9339-4fa2-9138-b6813c7e1baa,,,220,14,17,1,4,matched (3), Yes,0,0,0,0,0,0,2,0,0,0,0,"Drugs (coartem, artesunate inj.)",Yes, No, No, No, No, Yes , Yes,0,0,0,0,0,0,0,0,1,0,0,0,0,0,0,0, Microscopy  , Yes,,,Yes,No,No,Adi Girat Town, Yes,0,0,0,0,0,0,0,0,1,
Oromiya,Arsi,30,Megna laga Buna Health Center,978554776,uuid:5e8e5803-f0e5-4385-82e2-518d7566a38d,,,2,1,1,1,0,matched (3), No,,,,,,,,,,,,Diagnosis,Yes, No, No, No, No, Yes , Yes,1,1,0,0,1,0,0,0,1,1,0,0,0,1,1,1, Microscopy  , Yes,,,Yes,No,No,CHOLE-WEREDA, No,0,0,0,0,0,0,0,0,0,
Oromiya,Arsi,46,Gado H/C,228120157,uuid:5eb2b29b-46a7-47f6-9b29-3f9f7f6d9cbd,,,5,1,1,1,1,matched (3), No,,,,,,,,,,,,Diagnosis,Yes, No, No, No, No, Yes , Yes,0,0,0,0,0,0,0,0,0,0,0,0,1,0,0,0, Microscopy  , No,,,Yes,No,No,, Yes,0,0,0,0,0,0,0,0,0,
Amhara,South Wolo,218,Wuchale  H C,332240067,uuid:5fda2ab4-7864-4a6c-a17c-59749813f322,,,20,3,2,3,1,matched (3), Yes,1,0,0,0,0,0,0,0,0,0,0,"Drugs (coartem, artesunate inj.)",Yes, No, Yes, Yes, No, Yes , No,0,0,0,0,0,0,0,0,0,0,0,0,0,0,0,0, Microscopy  , Yes,,,Yes,No,No,Ambasel, Yes,1,0,0,0,0,0,0,0,0,
SNNP,Silitie,198,Bilalo Health Center,921944920,uuid:60dadc63-f0dd-4c12-bb43-930a8e5f28e9,,,11,1,2,1,1,matched (3), No,,,,,,,,,,,,"Drugs (coartem, artesunate inj.)",Yes, No, No, No, No, No, No,0,0,0,0,0,0,0,0,0,0,0,0,0,0,0,0, Microscopy  , No,,,Yes,No,No,MIRAB AZERNET BERBERE, No,0,0,0,0,0,0,0,0,0,
SNNP,Gurage,133,Lencha health center,910467912,uuid:60e7e9c9-018e-4bf4-b49e-c5ba6192c6ed,,,10,2,1,1,1,matched (3), Yes,0,1,0,0,0,0,0,0,0,0,0,"Drugs (coartem, artesunate inj.)",No, No, Yes, No, Yes, Yes , Yes,0,0,0,0,0,0,0,0,0,0,1,0,0,1,1,1, Microscopy  , Yes,,,Yes,No,No,Kebena, Yes,0,0,0,0,0,0,0,0,0,
SNNP,Gurage,132,Hole HC,923123656,uuid:60e99373-08fc-452c-b503-0996a7f2b9a0,,,14,2,2,1,1,matched (3), No,,,,,,,,,,,,"Drugs (coartem, artesunate inj.)",Yes, No, Yes, No, Yes, Yes , Yes,0,1,0,0,0,1,1,1,0,0,1,0,0,1,1,1, Microscopy  , Yes,,,Yes,No,No,Abshge, Yes,1,0,0,0,0,0,0,0,0,
Tigray,Central Tigray,94,Mahbere Diego health center,912691873,uuid:61119178-b849-4785-863b-a6e65278577b,,,9,0,1,1,1,matched (3), No,,,,,,,,,,,,Diagnosis,Yes, No, No, No, Yes, Yes , No,0,0,0,0,0,0,0,0,0,0,0,0,0,0,0,0, RDT, No,,,No,Yes,No,Lailay Mayichewu, Yes,0,0,0,0,0,0,0,0,1,
Oromiya,East Hararge,85,Yabeta selama Health Center,920265376,uuid:61c17a8e-c794-4f0a-ab08-c478319c2947,,,4,1,2,1,1,matched (3), No,,,,,,,,,,,,Diagnosis,Yes, No, No, No, Yes, Yes , No,0,0,0,0,0,0,0,0,0,0,0,0,0,0,0,0, Microscopy  , No,,,Yes,No,No,KERSA-WEREDA, Yes,0,0,0,0,0,0,0,0,1,
Oromiya,East Hararge,88,Dire Gudina Health Center,920459080,uuid:61cc2d41-057c-4863-9b36-a2d00506f62d,,,5,1,1,1,1,matched (3), Yes,1,0,1,1,0,0,0,1,0,0,0,Diagnosis,No, No, No, No, Yes, No, Yes,0,0,0,0,0,1,0,0,1,1,1,0,1,1,1,1, Microscopy  , No,,,Yes,No,No,, Yes,0,0,0,0,0,0,0,0,1,
SNNP,Silitie,200,Regdina health center,91,uuid:62594bfa-685e-4671-8b99-3adec166da39,,,5,2,1,1,1,matched (3), Yes,4,4,4,4,4,4,0,0,0,4,4,"Drugs (coartem, artesunate inj.)",Yes, No, Yes, No, No, Yes , No,0,0,0,0,0,0,0,0,0,0,0,0,0,0,0,0, Microscopy  , Yes,,,Yes,No,No,Sankura, Yes,0,0,0,0,0,0,0,0,0,
Tigray,South Tigray,114,Mekelle health center,914090729,uuid:6aa79669-d0d9-4d7e-bb37-614a3944bb56,,,7,1,1,1,1,matched (3), No,,,,,,,,,,,,"Drugs (coartem, artesunate inj.)",No, No, No, No, Yes, Yes , No,0,0,0,0,0,0,0,0,0,0,0,0,0,0,0,0, Both Microscope and RDT, Yes,,,No,No,Yes,Mekele, Yes,0,0,0,0,0,0,0,0,0,
Oromiya,West Hararge,65,Golia health   center,929321721,uuid:63972e18-9979-4bdd-8bc6-dc0c9f29e8c9,,,7,1,1,1,1,matched (3), No,,,,,,,,,,,,Diagnosis,No, Yes, Yes, No, Yes, No, Yes,0,0,0,0,0,1,1,1,1,1,1,1,1,0,1,1, Microscopy  , Yes,,,Yes,No,No,MESELA-WEREDA, No,0,0,0,0,0,0,0,0,0,
Oromiya,West Hararge,64,Daro Abbona,909679617,uuid:64191619-e524-4c39-b537-78708d36a199,,,5,0,1,1,1,matched (3), Yes,0,0,0,0,1,0,6,1,0,0,0,Diagnosis,No, No, Yes, No, Yes, No, Yes,1,1,1,1,0,0,0,0,1,1,1,1,1,1,1,1,other, No,,,No,No,No,HAWI GUDINA, Yes,0,0,0,0,0,0,0,0,1,
SNNP,Sidama,177,Fechene,926915490,uuid:6419351b-463a-4b87-aafd-3ac02ffde84b,,,0,0,0,1,1,matched (3), No,,,,,,,,,,,,Diagnosis,No, No, No, No, No, No, Yes,0,0,0,0,0,0,0,0,0,0,0,0,0,0,0,0,other, No,,,No,No,No,Chire, No,0,0,0,0,0,0,0,0,0,
Tigray,South Tigray,114,Adiha health center,914765536,uuid:64535109-14dc-48cf-b439-57bc0c932cbe,,,7,1,1,1,1,matched (3), No,,,,,,,,,,,,Diagnosis,No, Yes, Yes, No, Yes, Yes , Yes,0,0,0,0,0,0,0,0,1,0,0,0,0,0,0,0, Microscopy  , No,,,Yes,No,No,Mekele, Yes,0,0,0,0,0,0,0,0,1,
Tigray,South East,124,Merebmieti,914723646,uuid:71d67946-dbbd-4691-bb21-611e08989a40,,,4,1,1,1,0,matched (3), No,,,,,,,,,,,,Diagnosis,No, No, No, No, Yes, Yes , No,0,0,0,0,0,0,0,0,0,0,0,0,0,0,0,0, Both Microscope and RDT, Yes,,,No,No,Yes,Enderta, Yes,0,0,0,0,0,0,0,0,1,
SNNP,Kembata Timbaro,154,Buge health center,916283554,uuid:655ec598-0820-43b8-8ddd-c50fd6349df1,,,20,2,1,1,1,matched (3), No,,,,,,,,,,,,"Drugs (coartem, artesunate inj.)",Yes, No, No, No, Yes, No, Yes,0,0,0,0,0,1,0,0,0,0,0,0,0,0,0,0, Microscopy  , No,,,Yes,No,No,Kacha Bira, No,0,0,0,0,0,0,0,0,0,
SNNP,Sidama,171,Darara HC,915683578,uuid:65c008fe-3297-45d7-9862-253d0d95ca89,,,1,2,2,1,1,matched (3), Yes,1,0,0,0,0,0,1,0,0,0,0,"Drugs (coartem, artesunate inj.)",Yes, No, Yes, No, Yes, Yes , Yes,0,0,0,0,0,0,0,0,1,1,1,1,1,1,1,1, Microscopy  , Yes,,,Yes,No,No,Boricha, No,0,0,0,0,0,0,0,0,0,
SNNP,Gedeo,192,Yirgachefe  districted hospital,0,uuid:662e3b00-c1e7-48f5-ba16-b4fb19d25a21,,,21,6,4,1,1,matched (3), No,,,,,,,,,,,,"Drugs (coartem, artesunate inj.)",No, No, No, No, Yes, Yes , Yes,0,0,0,0,0,0,0,0,0,0,0,0,1,0,0,1, Microscopy  , No,,,Yes,No,No,Yirgachefee Town, Yes,0,0,0,0,0,0,0,0,0,
Oromiya,Arsi,48,Alem gena Health center,922704808,uuid:66a8cebf-a834-4864-8cb7-648c426dff82,,,2,1,1,1,1,matched (3), No,,,,,,,,,,,,"Drugs (coartem, artesunate inj.)",No, No, No, No, No, No, Yes,0,0,0,0,0,1,0,0,1,1,1,1,1,1,1,1, RDT, Yes,,,No,Yes,No,SUDE-WEREDA, No,0,0,0,0,0,0,0,0,0,
SNNP,Sidama,186,TILTE HC,9,uuid:67f01707-d9fd-4354-bf5b-f285286b489c,,,0,0,0,1,0,matched (3), No,,,,,,,,,,,,"Drugs (coartem, artesunate inj.)",No, No, No, Yes, No, No, Yes,1,0,0,0,0,0,0,0,0,0,0,1,1,0,1,0, Microscopy  , No,,,Yes,No,No,Hawassa  town, No,0,0,0,0,0,0,0,0,0,
Tigray,Eastern Tigray,106,Edaga rebue health center,914289684,uuid:687da6fa-0174-4169-ac74-e8855c937052,,,5,0,1,1,1,matched (3), No,,,,,,,,,,,,Diagnosis,No, Yes, Yes, No, Yes, Yes , Yes,0,0,0,0,0,0,0,0,0,0,0,1,0,0,0,0, RDT, No,,,No,Yes,No,Saesi Tsadamba, Yes,0,0,0,0,0,0,0,0,0,
SNNP,Hadiya,142,Korga health center,913365981,uuid:693d19f8-df67-4225-8209-31fdc5878fba,,,25,2,3,1,1,matched (3), No,,,,,,,,,,,,"Drugs (coartem, artesunate inj.)",No, No, No, No, No, Yes , No,0,0,0,0,0,0,0,0,0,0,0,0,0,0,0,0, Microscopy  , Yes,,,Yes,No,No,Misrak badewacho, Yes,1,0,0,0,0,0,0,0,0,
SNNP,Gurage,137,Agena health center,912705584,uuid:699b40f7-d9b5-441f-bc1a-3c4b1f7525c2,,,24,2,1,1,1,matched (3), No,,,,,,,,,,,,"Drugs (coartem, artesunate inj.)",Yes, Yes, Yes, No, Yes, Yes , Yes,0,1,0,0,0,0,1,1,0,1,0,0,1,1,0,1, Microscopy  , Yes,,,Yes,No,No,Eza, Yes,1,1,0,0,0,0,0,0,0,
SNNP,Kembata Timbaro,157,Bucha,No phone,uuid:699d1680-a815-4244-a5c5-aa307708f906,,,18,3,3,1,1,matched (3), No,,,,,,,,,,,,"Drugs (coartem, artesunate inj.)",Yes, No, Yes, No, Yes, Yes , No,0,0,0,0,0,0,0,0,0,0,0,0,0,0,0,0, Microscopy  , No,,,Yes,No,No,Angacha, Yes,0,0,0,0,0,0,0,0,0,
SNNP,Gurage,139,Arekite Health Center,910609668,uuid:721ec777-5a25-4306-a501-61a6c44c80d0,,,6,1,2,1,1,matched (3), No,,,,,,,,,,,,Drugs (quinine and chloroquine),No, No, No, No, No, Yes , No,0,0,0,0,0,0,0,0,0,0,0,0,0,0,0,0, Both Microscope and RDT, No,,,No,No,Yes,Gummer, No,0,0,0,0,0,0,0,0,0,
Tigray,Central Tigray,97,Tsediay  health  center,938126248,uuid:73f62d4c-7c79-4d0c-934c-1bef7ff990a1,,,13,0,1,1,1,matched (3), Yes,0,0,1,0,0,0,0,0,0,0,0,Consultation time (for card),No, No, No, No, Yes, Yes , No,0,0,0,0,0,0,0,0,0,0,0,0,0,0,0,0, Both Microscope and RDT, Yes,,,No,No,Yes,Wereilehi, Yes,0,0,0,0,0,0,0,0,1,
SNNP,Gurage,128,Achamuja Health center,924362318,uuid:6b443511-a3b7-4f07-86ce-dc8d4100fe0b,,,10,2,1,1,1,matched (3), No,,,,,,,,,,,,"Drugs (coartem, artesunate inj.)",Yes, No, Yes, No, Yes, No, No,0,0,0,0,0,0,0,0,0,0,0,0,0,0,0,0, Microscopy  , No,,,Yes,No,No,, No,0,0,0,0,0,0,0,0,0,
Tigray,Central Tigray,103,Atsed marriam  health  center,914745235,uuid:6b6b78a7-cc54-4b5d-8a17-a00a47696295,,,32,1,1,1,1,matched (3), No,,,,,,,,,,,,Diagnosis,No, No, No, No, Yes, Yes , No,0,0,0,0,0,0,0,0,0,0,0,0,0,0,0,0, Microscopy  , No,,,Yes,No,No,Adwa Town, Yes,0,0,0,0,0,0,0,0,1,
Oromiya,Arsi,48,Halila health center,910409025,uuid:6be97772-edb9-4379-905d-6134ffc85d01,,,1,0,0,1,1,matched (3), No,,,,,,,,,,,,Diagnosis,No, No, No, No, No, No, Yes,0,0,0,0,0,1,0,1,1,1,1,1,1,1,1,1, RDT, No,,,No,Yes,No,SUDE-WEREDA, No,0,0,0,0,0,0,0,0,0,
SNNP,Sidama,184,Daye hospital,No,uuid:6d68d586-0772-458d-86f4-738c247c5ae6,,,48,4,5,0,1,matched (3), No,,,,,,,,,,,,"Drugs (coartem, artesunate inj.)",No, No, No, No, No, Yes , No,0,0,0,0,0,0,0,0,0,0,0,0,0,0,0,0, Microscopy  , No,,,Yes,No,No,, No,0,0,0,0,0,0,0,0,0,
Amhara,South Wolo,234,Tenta  Hospital,930285726,uuid:6daa1bb9-3608-4291-947d-a5a7deac6376,,,51,5,6,1,1,matched (3), No,,,,,,,,,,,,"Drugs (coartem, artesunate inj.)",Yes, No, Yes, No, No, Yes , No,0,0,0,0,0,0,0,0,0,0,0,0,0,0,0,0, Microscopy  , Yes,,,Yes,No,No,Tenta, No,0,0,0,0,0,0,0,0,0,
Oromiya,Arsi,42,Kenchere HC,0,uuid:6e485403-9131-4514-a153-6586499288a3,,,1,1,1,1,1,matched (3), No,,,,,,,,,,,,Diagnosis,Yes, No, No, No, No, Yes , No,0,0,0,0,0,0,0,0,0,0,0,0,0,0,0,0, Microscopy  , No,,,Yes,No,No,MUNESA-WEREDA, No,0,0,0,0,0,0,0,0,0,
SNNP,Kembata Timbaro,157,Shino funamura,No phone,uuid:6ee1cd12-87f8-4db4-a8dc-ce239527ca39,,,,,,,,master only (1),,,,,,,,,,,,,,, No, Yes, No, Yes, Yes , No,0,0,0,0,0,0,0,0,0,0,0,0,0,0,0,0,,,,,,,,Angacha,,,,,,,,,,,
Amhara,North Shewa,242,Goshbado health center,930293760,uuid:6f2e7e24-e660-413c-9aa9-34a9ad2f6c5c,,,14,2,2,1,1,matched (3), No,,,,,,,,,,,,No service given for free,Yes, No, No, No, No, Yes , No,0,0,0,0,0,0,0,0,0,0,0,0,0,0,0,0,other, No,,,No,No,No,Baso Worana, No,0,0,0,0,0,0,0,0,0,
Amhara,North Wollo,212,Agrit,338990273,uuid:6f9d4dc6-2cbe-4166-b9be-d2fd0671f3bb,,,6,0,1,2,1,matched (3), No,,,,,,,,,,,,"Drugs (coartem, artesunate inj.)",Yes, No, No, Yes, Yes, Yes , No,0,0,0,0,0,0,0,0,0,0,0,0,0,0,0,0, Microscopy  , Yes,,,Yes,No,No,Mekiet, No,0,0,0,0,0,0,0,0,0,
Oromiya,West Hararge,56,Beka kubi,No,uuid:70eca0a6-4d75-445b-ba4a-26709b889982,,,2,1,1,1,0,matched (3), No,,,,,,,,,,,,Diagnosis,No, No, No, No, Yes, Yes , Yes,0,0,0,0,0,1,1,1,0,0,1,1,1,1,0,0, Microscopy  , Yes,,,Yes,No,No,CHIRO ZURIA WEREDA, Yes,0,0,0,0,0,0,0,0,0,
SNNP,Silitie,199,EBOT TIrora health center,9,uuid:71a1c241-7b57-490c-aa77-c67de11220ca,,,,,,,,master only (1),,,,,,,,,,,,,,,,,,, No, Yes,0,0,0,0,0,1,0,0,0,0,0,1,1,0,1,1, Microscopy  , Yes,,,Yes,No,No,Dalocha,,,,,,,,,,,
Oromiya,East Hararge,83,Damota Health Center,915009125,uuid:71a46837-5b46-445a-8a26-a4ae3ffbf920,,,4,1,2,1,1,matched (3), No,,,,,,,,,,,,"Drugs (coartem, artesunate inj.)",Yes, No, No, No, Yes, Yes , No,0,0,0,0,0,0,0,0,0,0,0,0,0,0,0,0, Microscopy  , No,,,Yes,No,No,HAROMAYA-WEREDA, Yes,1,0,0,0,0,0,0,0,0,
Oromiya,Arsi,29,Bokoji health  center,223320026,uuid:74114f2f-2cde-4fc1-9435-966968e4ac9d,,,0,2,2,1,1,matched (3), No,,,,,,,,,,,,Diagnosis,Yes, No, No, No, No, No, Yes,0,0,0,0,0,1,0,0,1,0,0,1,0,0,0,0, Both Microscope and RDT, No,,,No,No,Yes,BOKOJI-TOWN WEREDA, No,0,0,0,0,0,0,0,0,0,
Oromiya,Arsi,43,Sediqa H/c,910781533,uuid:75d281c4-0a21-41b0-97c4-6c9998f2b745,,,5,1,1,1,1,matched (3), No,,,,,,,,,,,,Diagnosis,Yes, No, No, No, No, Yes , No,0,0,0,0,0,0,0,0,0,0,0,0,0,0,0,0, Both Microscope and RDT, No,,,No,No,Yes,ROBE-WEREDA, No,0,0,0,0,0,0,0,0,0,
SNNP,Sidama,186,Adare Hospital,462208202,uuid:7227b7dd-f8f3-40aa-a671-f700da0e5d63,,,0,0,0,1,0,matched (3), No,,,,,,,,,,,,Diagnosis,No, No, No, No, No, Yes , Yes,0,0,0,0,0,0,0,0,1,0,0,0,1,0,1,1, Microscopy  , Yes,,,Yes,No,No,Hawassa  town, No,0,0,0,0,0,0,0,0,0,
SNNP,Sidama,164,Belesto H.C,No,uuid:7239b1e3-db93-43a1-8a4f-d5dcacf1b0ec,,,27,1,1,1,1,matched (3), No,,,,,,,,,,,,"Drugs (coartem, artesunate inj.)",Yes, No, No, No, Yes, Yes , Yes,0,0,0,0,0,0,0,0,0,0,0,0,1,1,0,1, RDT, No,,,No,Yes,No,Alteta Wondo, Yes,0,0,0,0,0,0,0,0,1,
Oromiya,East Hararge,89,jaja health center,910612795,uuid:72ca06a9-e192-48b4-a0df-3fa5ac4e1c59,,,5,2,1,1,1,matched (3), No,,,,,,,,,,,,Diagnosis,Yes, No, Yes, No, Yes, No, No,0,0,0,0,0,0,0,0,0,0,0,0,0,0,0,0, Microscopy  , No,,,Yes,No,No,MELKA BELO-WEREDA, No,0,0,0,0,0,0,0,0,0,
Oromiya,East Hararge,85,Water Health Center,253310083,uuid:73ca1bdf-ddbc-41ad-9384-5b1d108b1bed,,,9,2,1,1,1,matched (3), No,,,,,,,,,,,,Diagnosis,Yes, Yes, Yes, No, Yes, Yes , Yes,0,0,0,0,0,1,0,0,1,1,0,0,1,1,1,1, Microscopy  , Yes,,,Yes,No,No,KERSA-WEREDA, Yes,0,0,0,0,0,0,0,0,0,
SNNP,Gurage,139,Arekite hc,910609668,uuid:7612c77b-a7d7-46df-a916-5a27131f8800,,,6,1,2,1,1,matched (3), No,,,,,,,,,,,,Drugs (quinine and chloroquine),Yes, No, No, No, No, Yes , No,0,0,0,0,0,0,0,0,0,0,0,0,0,0,0,0, Both Microscope and RDT, No,,,No,No,Yes,Gummer, No,0,0,0,0,0,0,0,0,0,
SNNP,Sidama,174,Hula hospital,No,uuid:77a9b23b-39dd-4118-848e-fd253547c4b4,,,77,10,6,1,1,matched (3), No,,,,,,,,,,,,"Drugs (coartem, artesunate inj.)",Yes, Yes, Yes, No, No, Yes , No,0,0,0,0,0,0,0,0,0,0,0,0,0,0,0,0, Both Microscope and RDT, No,,,No,No,Yes,Hula, No,0,0,0,0,0,0,0,0,0,
Oromiya,Arsi,31,Bulula health center,O,uuid:7444e61c-f014-41a7-8a79-63fd6f3198ba,,,4,0,2,1,1,matched (3), No,,,,,,,,,,,,No service given for free,No, No, No, No, No, No, No,0,0,0,0,0,0,0,0,0,0,0,0,0,0,0,0, Microscopy  , No,,,Yes,No,No,DEKSIS-WEREDA, No,0,0,0,0,0,0,0,0,0,
Oromiya,Arsi,43,Endato HC,927278864,uuid:75674b07-bc8d-4d24-bbd5-173103c6d224,,,5,1,1,1,1,matched (3), No,,,,,,,,,,,,"Drugs (coartem, artesunate inj.)",Yes, No, No, No, No, Yes , No,0,0,0,0,0,0,0,0,0,0,0,0,0,0,0,0, Microscopy  , Yes,,,Yes,No,No,ROBE-WEREDA, Yes,0,0,0,0,0,0,0,0,0,
SNNP,Sidama,171,Yirba hospital,916307648,uuid:75a190c5-67f9-48fb-96f1-d35f6300f96d,,,1,3,2,1,1,matched (3), No,,,,,,,,,,,,"Drugs (coartem, artesunate inj.)",Yes, No, No, No, No, Yes , No,0,0,0,0,0,0,0,0,0,0,0,0,0,0,0,0, Microscopy  , Yes,,,Yes,No,No,Boricha, No,0,0,0,0,0,0,0,0,0,
Oromiya,West Hararge,66,Miesso,912416111,uuid:75b3fab3-a2c8-402a-9524-caa2e80cdd01,,,11,1,2,1,1,matched (3), No,,,,,,,,,,,,Diagnosis,No, Yes, No, No, Yes, Yes , Yes,0,0,0,1,0,1,0,0,1,1,1,0,0,0,1,1, Microscopy  , No,,,Yes,No,No,MIESO-WEREDA, Yes,1,0,0,0,0,0,0,0,0,
Oromiya,East Hararge,73,Cinaaksan health center,920035809,uuid:79d2e6e2-3f80-4777-99db-372be29c5fde,,,2,2,2,1,0,matched (3), No,,,,,,,,,,,,Diagnosis,No, No, No, No, Yes, No, No,0,0,0,0,0,0,0,0,0,0,0,0,0,0,0,0, Both Microscope and RDT, Yes,,,No,No,Yes,CHINAKSEN-WEREDA, No,0,0,0,0,0,0,0,0,0,
SNNP,Sidama,176,Wotera rassa primary hospital,924388013,uuid:7a8a2a81-9a61-48aa-b23a-dec13f62fd0b,,,1,1,1,2,1,matched (3), No,,,,,,,,,,,,"Drugs (coartem, artesunate inj.)",No, Yes, No, No, No, Yes , Yes,1,0,0,0,0,1,1,1,0,0,0,1,0,0,0,0, Both Microscope and RDT, No,,,No,No,Yes,Malga, No,0,0,0,0,0,0,0,0,0,
SNNP,Silitie,202,Angamo yede health center,915780477,uuid:761b1ed0-77d7-485e-a4e2-dada26afd709,,,2,1,1,1,1,matched (3), No,,,,,,,,,,,,"Drugs (coartem, artesunate inj.)",Yes, No, No, No, No, No, Yes,0,0,0,0,0,0,0,0,1,0,0,1,0,0,0,0, Microscopy  , No,,,Yes,No,No,Wilbareg, No,0,0,0,0,0,0,0,0,0,
SNNP,Gurage,138,Wukiye health center,920603016,uuid:768c40ed-4b01-48f1-b098-8678292943ba,,,11,1,1,1,1,matched (3), No,,,,,,,,,,,,"Drugs (coartem, artesunate inj.)",Yes, No, Yes, No, Yes, Yes , Yes,0,1,0,0,0,0,0,0,0,0,1,1,1,1,0,1, Microscopy  , Yes,,,Yes,No,No,Mhur Aklil, Yes,1,0,0,0,0,0,0,0,0,
SNNP,Gurage,133,Wutign health center,913396498,uuid:76946714-f1d5-4d70-90fe-896d49e4249a,,,11,2,2,1,1,matched (3), No,,,,,,,,,,,,"Drugs (coartem, artesunate inj.)",No, No, Yes, No, No, Yes , Yes,0,0,0,0,0,0,0,1,0,1,1,0,0,1,0,1, Microscopy  , No,,,Yes,No,No,Kebena, Yes,0,1,0,0,0,0,0,0,0,
Amhara,North Shewa,240,Mekoy,334440022,uuid:769593a9-a821-42a2-9128-9e782391fe73,,,1,0,0,1,0,matched (3), Yes,0,1,1,0,0,0,0,0,0,0,0,"Drugs (coartem, artesunate inj.)",Yes, No, No, Yes, Yes, Yes , No,0,0,0,0,0,0,0,0,0,0,0,0,0,0,0,0, Microscopy  , Yes,,,Yes,No,No,Antsokia, Yes,0,0,1,1,1,1,1,1,1,
Oromiya,East Hararge,76,Bokko Health Center,911935276,uuid:76e91c55-21a1-4b15-bc88-c2ea3f220991,,,5,2,1,1,1,matched (3), Yes,0,1,1,0,0,1,1,0,0,1,1,"Drugs (coartem, artesunate inj.)",No, No, No, No, Yes, Yes , No,0,0,0,0,0,0,0,0,0,0,0,0,0,0,0,0, Microscopy  , No,,,Yes,No,No,FEDIS-WEREDA, Yes,1,0,0,0,0,0,0,0,0,
SNNP,Hadiya,150,Lisana Health Center,910052885,uuid:77a771fd-b376-4a78-a480-7d297e253cad,,,12,3,1,1,1,matched (3), No,,,,,,,,,,,,"Drugs (coartem, artesunate inj.)",No, No, No, No, No, No, No,0,0,0,0,0,0,0,0,0,0,0,0,0,0,0,0, Microscopy  , No,,,Yes,No,No,Lemo, No,0,0,0,0,0,0,0,0,0,
SNNP,Gurage,128,Gedina Aborat Health Center,910456366,uuid:7b78239d-0fb9-4903-ad90-a4ca75e007a5,,,14,2,1,1,1,matched (3), No,,,,,,,,,,,,"Drugs (coartem, artesunate inj.)",Yes, No, No, No, Yes, Yes , Yes,1,1,0,0,0,1,0,0,1,1,0,1,0,0,0,0, Both Microscope and RDT, No,,,No,No,Yes,, Yes,0,0,0,0,0,0,0,0,1,
Oromiya,Arsi,42,Ego HC,0,uuid:77dfab8a-b73b-46c7-a012-524c858583f6,,,0,0,0,1,1,matched (3), No,,,,,,,,,,,,Diagnosis,Yes, No, No, Yes, No, Yes , No,0,0,0,0,0,0,0,0,0,0,0,0,0,0,0,0, Microscopy  , No,,,Yes,No,No,MUNESA-WEREDA, No,0,0,0,0,0,0,0,0,0,
Tigray,South Tigray,118,Semere Meles Health center,347771049,uuid:790bdd02-af09-4631-b32e-ab81056c5c5b,,,19,1,2,1,1,matched (3), No,,,,,,,,,,,,"Drugs (coartem, artesunate inj.)",No, Yes, Yes, No, Yes, Yes , No,0,0,0,0,0,0,0,0,0,0,0,0,0,0,0,0, Microscopy  , Yes,,,Yes,No,No,Maychew Town, No,0,0,0,0,0,0,0,0,0,
SNNP,Silitie,201,Kilto Health center,0,uuid:7c528dfc-3408-4d3c-a72a-b05b92031b0f,,,12,2,2,1,1,matched (3), No,,,,,,,,,,,,"Drugs (coartem, artesunate inj.)",Yes, No, No, No, No, Yes , Yes,0,0,0,0,0,1,0,0,0,0,0,0,0,0,0,0, Both Microscope and RDT, No,,,No,No,Yes,Misirak Azerenet Berbere, No,0,0,0,0,0,0,0,0,0,
SNNP,Gurage,139,Jenboro hc,912242483,uuid:7a288567-223a-4693-b6c8-c1c899002c2a,,,4,1,1,1,1,matched (3), No,,,,,,,,,,,,Drugs (quinine and chloroquine),Yes, No, No, No, No, Yes , No,0,0,0,0,0,0,0,0,0,0,0,0,0,0,0,0, RDT, No,,,No,Yes,No,Gummer, No,0,0,0,0,0,0,0,0,0,
Tigray,Eastern Tigray,109,Agulae health center,914780756,uuid:7e79a32c-df76-4d25-9087-60f151ffea1e,,,7,1,1,1,1,matched (3), No,,,,,,,,,,,,Diagnosis,Yes, Yes, Yes, No, Yes, Yes , No,0,0,0,0,0,0,0,0,0,0,0,0,0,0,0,0, Both Microscope and RDT, Yes,,,No,No,Yes,Klite Awlalo, Yes,0,0,0,0,0,0,0,0,0,
SNNP,Gedeo,192,Yirgachaffe district hospital,0,uuid:7a908c3f-4426-4f9c-b817-3dd615b2c35e,,,21,6,4,1,1,matched (3), No,,,,,,,,,,,,"Drugs (coartem, artesunate inj.)",No, No, No, No, Yes, Yes , Yes,0,0,0,0,0,0,0,0,0,0,0,0,1,1,1,1, Microscopy  , No,,,Yes,No,No,Yirgachefee Town, Yes,0,0,0,0,0,0,0,0,1,
SNNP,Sidama,176,Wojigra,913822892,uuid:806ca696-9e7f-4c9a-8105-7d808f3b452d,,,1,1,1,1,1,matched (3), No,,,,,,,,,,,,"Drugs (coartem, artesunate inj.)",No, No, No, No, No, Yes , No,0,0,0,0,0,0,0,0,0,0,0,0,0,0,0,0, Both Microscope and RDT, No,,,No,No,Yes,Malga, No,0,0,0,0,0,0,0,0,0,
SNNP,Sidama,167,Ardagale H.C,No,uuid:7b1143af-c7c2-402b-b85a-b6f12241d22f,,,51,4,2,1,1,matched (3), No,,,,,,,,,,,,Diagnosis,Yes, Yes, Yes, Yes, Yes, Yes , Yes,0,0,0,0,0,1,0,0,1,1,0,1,1,1,0,0, Microscopy  , No,,,Yes,No,No,Loka Abaya, Yes,1,1,0,0,0,0,0,0,0,
SNNP,Silitie,201,Kilto hc,0,uuid:8095df7c-59b7-453c-97db-5c46e45f57fc,,,12,2,2,1,1,matched (3), No,,,,,,,,,,,,"Drugs (coartem, artesunate inj.)",Yes, No, No, No, No, Yes , Yes,0,0,0,0,0,1,0,0,0,0,0,0,0,0,0,0, Both Microscope and RDT, No,,,No,No,Yes,Misirak Azerenet Berbere, No,0,0,0,0,0,0,0,0,0,
SNNP,Hadiya,149,Wagebeta Health center,924755317,uuid:7bcc3eb3-7544-441d-b9ce-01bcecd5043c,,,3,2,2,1,1,matched (3), No,,,,,,,,,,,,"Drugs (coartem, artesunate inj.)",No, No, No, No, No, No, No,0,0,0,0,0,0,0,0,0,0,0,0,0,0,0,0, Microscopy  , Yes,,,Yes,No,No,Duna, No,0,0,0,0,0,0,0,0,0,
Tigray,South Tigray,122,Alamata General hospital,347740251,uuid:7c06b5da-77fc-427b-bee4-cecd6d26d3c9,,,126,13,21,1,4,matched (3), No,,,,,,,,,,,,"Drugs (coartem, artesunate inj.)",Yes, No, No, No, No, Yes , No,0,0,0,0,0,0,0,0,0,0,0,0,0,0,0,0, Microscopy  , Yes,,,Yes,No,No,Alamata Town, No,0,0,0,0,0,0,0,0,0,
Amhara,North Shewa,245,Ataye Hospital,912115680,uuid:7c308ec4-743c-41b2-baf9-37b31c5ec689,,,0,0,0,1,1,matched (3), Yes,0,0,0,0,0,0,0,0,0,0,0,"Drugs (coartem, artesunate inj.)",Yes, No, Yes, No, No, Yes , No,0,0,0,0,0,0,0,0,0,0,0,0,0,0,0,0, Microscopy  , Yes,,,Yes,No,No,Efrata, No,0,0,0,0,0,0,0,0,0,
Oromiya,East Hararge,80,Wachuge HC,920470037,uuid:7c491d12-dd0b-42a2-9f5a-132e0f331aab,,,3,0,1,1,1,matched (3), No,,,,,,,,,,,,Diagnosis,Yes, No, No, No, Yes, No, No,0,0,0,0,0,0,0,0,0,0,0,0,0,0,0,0,other, No,,,No,No,No,GORO MUTI, Yes,0,0,0,0,0,0,0,0,1,
Amhara,South Wolo,222,Tesema mekonen Health Center,0,uuid:84ab4a99-c0b1-4af7-bf91-2286142e543b,,,8,1,0,1,1,matched (3), No,,,,,,,,,,,,"Drugs (coartem, artesunate inj.)",Yes, No, No, Yes, Yes, Yes , No,0,0,0,0,0,0,0,0,0,0,0,0,0,0,0,0, Both Microscope and RDT, Yes,,,No,No,Yes,Dessiezuria, Yes,1,0,1,1,1,1,1,1,0,
SNNP,Sidama,170,Yirgalem hospital,46221065971,uuid:7d6087f5-00fa-4481-9262-992b738d7c83,,,200,22,18,1,1,matched (3), No,,,,,,,,,,,,"Drugs (coartem, artesunate inj.)",Yes, No, No, No, No, Yes , No,0,0,0,0,0,0,0,0,0,0,0,0,0,0,0,0, Microscopy  , Yes,,,Yes,No,No,Yirgalem town, Yes,1,0,0,0,0,0,0,0,0,
Oromiya,Arsi,38,Arboye,221191027,uuid:7d66a7ab-1862-4d1c-9579-92c9026663ed,,,14,2,1,1,1,matched (3), No,,,,,,,,,,,,"Drugs (coartem, artesunate inj.)",No, No, No, No, No, No, No,0,0,0,0,0,0,0,0,0,0,0,0,0,0,0,0, Microscopy  , Yes,,,Yes,No,No,JEJU-WEREDA, No,0,0,0,0,0,0,0,0,0,
Tigray,South Tigray,116,Shimta   Health  Center,927760742,uuid:7d6f1346-a1aa-4130-81ac-966df44141a8,,,15,1,1,1,1,matched (3), No,,,,,,,,,,,,"Drugs (coartem, artesunate inj.)",Yes, No, No, Yes, Yes, Yes , No,0,0,0,0,0,0,0,0,0,0,0,0,0,0,0,0, Microscopy  , Yes,,,Yes,No,No,Endamehone, No,0,0,0,0,0,0,0,0,0,
Amhara,South Wolo,235,Lemi HC,338200187,uuid:84d7fc03-e860-48dd-9e96-efadf222c548,,,17,1,1,1,0,matched (3), No,,,,,,,,,,,,"Drugs (coartem, artesunate inj.)",No, No, No, Yes, No, Yes , No,0,0,0,0,0,0,0,0,0,0,0,0,0,0,0,0, Both Microscope and RDT, Yes,,,No,No,Yes,Wogdi, No,0,0,0,0,0,0,0,0,0,
Amhara,North Shewa,254,Fetra,111143007,uuid:7f01a55e-a071-4da4-a126-e16884227ce9,,,4,0,1,1,1,matched (3), Yes,0,0,1,1,0,0,0,0,0,0,0,Diagnosis,Yes, No, No, No, Yes, Yes , No,0,0,0,0,0,0,0,0,0,0,0,0,0,0,0,0, RDT, No,,,No,Yes,No,Merhabete, Yes,1,0,1,1,1,1,1,0,0,
Amhara,North Shewa,244,Ayer tena,116814757,uuid:7f49088d-b2bc-49cb-a4e8-6c5d4e86601f,,,12,2,2,1,1,matched (3), No,,,,,,,,,,,,"Drugs (coartem, artesunate inj.)",No, No, No, No, Yes, Yes , Yes,0,0,0,0,0,0,0,0,0,0,0,1,1,0,0,0, Microscopy  , Yes,,,Yes,No,No,D/Berhan, No,0,0,0,0,0,0,0,0,0,
Amhara,South Wolo,216,Kurkur Health Center,033 8119088,uuid:805a6646-d6af-4d02-8fc3-40de1324841c,,,6,2,2,2,1,matched (3), No,,,,,,,,,,,,"Drugs (coartem, artesunate inj.)",No, No, No, No, Yes, Yes , Yes,0,0,0,0,0,0,0,0,1,1,0,1,1,1,1,1, Microscopy  , Yes,,,Yes,No,No,Dessie town, Yes,0,0,0,0,0,0,0,0,0,
SNNP,Sidama,176,Guguma,937209054,uuid:87e7820c-e47b-407b-a4b4-871dfeae49c7,,,1,1,1,1,1,matched (3), No,,,,,,,,,,,,"Drugs (coartem, artesunate inj.)",No, No, No, No, No, Yes , Yes,0,0,0,0,0,1,1,1,0,0,1,0,0,1,1,1, Both Microscope and RDT, No,,,No,No,Yes,Malga, No,0,0,0,0,0,0,0,0,0,
SNNP,Sidama,181,Bokaso health center,919694298,uuid:8079ce2d-93f7-4a21-b08a-d0783b4570f9,,,4,4,1,1,1,matched (3), No,,,,,,,,,,,,Diagnosis,No, No, No, No, No, Yes , No,0,0,0,0,0,0,0,0,0,0,0,0,0,0,0,0, Microscopy  , No,,,Yes,No,No,Wensho, No,0,0,0,0,0,0,0,0,0,
SNNP,Gurage,141,Jne Health Center,1118840372,uuid:8855a139-7e6e-484d-83af-5e97ce6e1d14,,,4,0,1,1,1,matched (3), No,,,,,,,,,,,,"Drugs (coartem, artesunate inj.)",Yes, No, No, Yes, No, Yes , Yes,1,1,0,0,0,0,1,1,0,1,1,0,1,1,1,1, Both Microscope and RDT, No,,,No,No,Yes,Endegagne, No,0,0,0,0,0,0,0,0,0,
Oromiya,East Hararge,86,Ijaa ginaa health center,915173799,uuid:80cc0146-efae-4c4c-a010-49c33e8828fa,,,1,1,2,1,1,matched (3), No,,,,,,,,,,,,Diagnosis,No, No, Yes, No, No, Yes , Yes,1,0,0,0,0,1,0,0,1,1,1,1,1,1,1,1, Microscopy  , Yes,,,Yes,No,No,KOMBOLCHA-WEREDA, Yes,1,0,0,0,0,0,0,0,0,
Oromiya,West Hararge,55,Teyfe HC,No,uuid:80ec472b-a894-4ad1-a59c-144c0c5a87b8,,,9,1,1,1,1,matched (3), Yes,0,0,0,0,6,0,0,0,0,0,0,Diagnosis,Yes, Yes, Yes, Yes, Yes, Yes , No,0,0,0,0,0,0,0,0,0,0,0,0,0,0,0,0, Microscopy  , Yes,,,Yes,No,No,BURKA DIMTU, Yes,0,0,0,0,0,0,0,0,1,
Oromiya,East Hararge,90,DuseHC,258610018,uuid:80ed5a51-b2b1-49e8-9bd4-1513d397411b,,,2,0,1,1,1,matched (3), No,,,,,,,,,,,,Diagnosis,Yes, No, No, No, Yes, No, No,0,0,0,0,0,0,0,0,0,0,0,0,0,0,0,0,other, No,,,No,No,No,META-WEREDA, Yes,1,0,0,0,0,0,0,0,0,
SNNP,Silitie,197,Repe hc,0,uuid:8164ea5c-b9ca-4089-81a8-61c60a53f6c1,,,10,1,1,1,1,matched (3), No,,,,,,,,,,,,"Drugs (coartem, artesunate inj.)",Yes,,,,,,,,,,,,,,,,,,,,,,, Microscopy  , Yes,,,Yes,No,No,Lanifaro, No,0,0,0,0,0,0,0,0,0,
Amhara,North Wollo,212,Shedeho meket,33,uuid:81c6c3d1-db8f-471c-bcf1-fe6bb5708fdc,,,8,4,4,0,1,matched (3), No,,,,,,,,,,,,"Drugs (coartem, artesunate inj.)",Yes, No, No, No, No, Yes , No,0,0,0,0,0,0,0,0,0,0,0,0,0,0,0,0, Microscopy  , No,,,Yes,No,No,Mekiet, No,0,0,0,0,0,0,0,0,0,
SNNP,Gurage,137,Koter health center,912789351,uuid:83939e2f-458e-4c0f-ab9f-7753fabccde4,,,15,1,2,1,1,matched (3), No,,,,,,,,,,,,"Drugs (coartem, artesunate inj.)",Yes, No, No, No, No, Yes , Yes,0,0,0,0,0,0,1,1,0,1,1,0,1,1,1,1, Microscopy  , No,,,Yes,No,No,Eza, No,0,0,0,0,0,0,0,0,0,
SNNP,Gedeo,194,Worka sakaro health center,0,uuid:83aa84d5-75a4-4c12-8212-853a6ca614f7,,,7,1,1,1,1,matched (3), No,,,,,,,,,,,,"Drugs (coartem, artesunate inj.)",No, No, No, No, No, Yes , Yes,1,1,0,0,0,1,1,1,1,1,1,1,1,1,1,1, Microscopy  , No,,,Yes,No,No,Gedeb, No,0,0,0,0,0,0,0,0,0,
Tigray,Eastern Tigray,107,Bzet,343120240,uuid:83b67958-ab61-4603-a100-4e3ea3f9d6d1,,,26,2,2,1,1,matched (3), No,,,,,,,,,,,,"Drugs (coartem, artesunate inj.)",Yes, No, Yes, No, Yes, Yes , Yes,1,0,0,0,0,0,0,0,1,1,0,0,0,0,0,1, Microscopy  , Yes,,,Yes,No,No,Ganta Afeshum, No,0,0,0,0,0,0,0,0,0,
SNNP,Kembata Timbaro,158,Funto,No phone number,uuid:83bb6324-1805-406c-94f1-54a81b8bff65,,,19,2,1,1,1,matched (3), No,,,,,,,,,,,,"Drugs (coartem, artesunate inj.)",Yes, No, Yes, No, No,,,,,,,,,,,,,,,,,,,,,,,,,,Damboya, Yes,0,0,0,0,0,0,0,0,0,
Tigray,Central Tigray,95,Axum health center,347753651,uuid:8bd654ad-ab60-4176-8317-c1cb238a22fc,,,5,1,2,1,1,matched (3), Yes,1,0,0,0,0,0,0,0,0,0,0,"Drugs (coartem, artesunate inj.)",No, No, No, No, Yes, Yes , No,0,0,0,0,0,0,0,0,0,0,0,0,0,0,0,0, Both Microscope and RDT, Yes,,,No,No,Yes,Akisum Town, Yes,0,0,0,0,0,0,0,0,1,
Amhara,South Wolo,228,Genetie H.c,033 8990117,uuid:8e3eb883-a06b-448e-a5cc-20097f6e09d2,,,7,2,2,1,1,matched (3), No,,,,,,,,,,,,"Drugs (coartem, artesunate inj.)",Yes, No, Yes, Yes, Yes, Yes , No,0,0,0,0,0,0,0,0,0,0,0,0,0,0,0,0, Both Microscope and RDT, No,,,No,No,Yes,Legambo, No,0,0,0,0,0,0,0,0,0,
Amhara,North Shewa,245,AtayeH.c,336610010,uuid:84ded09a-655e-4f91-8152-68f462bce734,,,23,0,0,1,0,matched (3), Yes,0,1,1,0,0,0,0,0,0,0,0,"Drugs (coartem, artesunate inj.)",Yes, No, No, Yes, Yes, Yes , Yes,0,0,0,0,0,0,0,0,1,0,0,0,0,0,0,0, Microscopy  , Yes,,,Yes,No,No,Efrata, No,0,0,0,0,0,0,0,0,0,
Tigray,South East,124,Maymekden,363863,uuid:859277f8-0813-4d75-8f80-4615473b8d70,,,1,0,0,0,0,matched (3), No,,,,,,,,,,,,"Drugs (coartem, artesunate inj.)",No, No, No, No, No, Yes , No,0,0,0,0,0,0,0,0,0,0,0,0,0,0,0,0, Microscopy  , Yes,,,Yes,No,No,Enderta, No,0,0,0,0,0,0,0,0,0,
Amhara,North Shewa,238,Cha cha,116320193,uuid:860691ec-39b7-4f56-b3dc-dcf3798009e6,,,12,1,3,1,1,matched (3), No,,,,,,,,,,,,No service given for free,Yes, No, No, Yes, No, Yes , No,0,0,0,0,0,0,0,0,0,0,0,0,0,0,0,0, Microscopy  , No,,,Yes,No,No,Angolela, No,0,0,0,0,0,0,0,0,0,
SNNP,Hadiya,143,Danema Hc,910284448,uuid:865e36d6-216e-46dd-9316-8377cba83802,,,0,2,2,1,1,matched (3), No,,,,,,,,,,,,"Drugs (coartem, artesunate inj.)",Yes, No, No, No, No, No, Yes,1,0,1,0,1,0,0,1,0,1,1,1,1,1,1,1, Microscopy  , No,,,Yes,No,No,Mirab badewacho, No,0,0,0,0,0,0,0,0,0,
SNNP,Sidama,166,Gidamo,908944536,uuid:866609a4-085f-4120-ae35-cc5d6ab28975,,,8,1,2,1,1,matched (3), No,,,,,,,,,,,,Diagnosis,No, No, No, No, No, No, Yes,0,0,0,0,0,1,0,0,0,0,0,1,0,0,0,0, RDT, No,,,No,Yes,No,Dale, No,0,0,0,0,0,0,0,0,0,
SNNP,Gedeo,189,Chelelektu H/Center,916960567,uuid:8679d8d7-f6c1-4051-8c27-3476c1e5d320,,,0,0,0,1,1,matched (3), No,,,,,,,,,,,,"Drugs (coartem, artesunate inj.)",No, No, No, No, Yes, Yes , Yes,0,0,0,0,0,1,0,0,1,1,1,1,1,1,1,1, Microscopy  , No,,,Yes,No,No,Kochore, No,0,0,0,0,0,0,0,0,0,
Oromiya,Arsi,30,Test,Test,uuid:87b0ad2a-1986-4c31-a757-9035c9e6cf6d,,,1,1,1,1,1,matched (3), No,,,,,,,,,,,,Diagnosis,No, No, No, No, No, No, No,0,0,0,0,0,0,0,0,0,0,0,0,0,0,0,0, Microscopy  , No,,,Yes,No,No,CHOLE-WEREDA, No,0,0,0,0,0,0,0,0,0,
SNNP,Kembata Timbaro,155,Lesho health center,911888017,uuid:87b15781-925f-4b35-ac30-1a9421b267ae,,,9,3,2,2,1,matched (3), No,,,,,,,,,,,,"Drugs (coartem, artesunate inj.)",Yes, No, No, No, Yes, Yes , No,0,0,0,0,0,0,0,0,0,0,0,0,0,0,0,0, Microscopy  , Yes,,,Yes,No,No,Hedero Tunto, No,0,0,0,0,0,0,0,0,0,
SNNP,Kembata Timbaro,158,Damboya,No phone number,uuid:8fc1f1c8-2260-4a8e-95f6-45f04607571d,,,31,4,1,1,1,matched (3), No,,,,,,,,,,,,"Drugs (coartem, artesunate inj.)",Yes, No, No, No, Yes, Yes , Yes,0,0,0,0,0,1,0,0,0,0,0,1,0,0,0,0, Both Microscope and RDT, Yes,,,No,No,Yes,Damboya, Yes,0,0,0,0,0,0,0,0,0,
Oromiya,East Hararge,86,Konbolcha health center,910153202,uuid:88019071-5a1f-4c29-b52e-4982619e9b58,,,1,2,2,1,1,matched (3), No,,,,,,,,,,,,Diagnosis,No, Yes, Yes, Yes, Yes, Yes , No,0,0,0,0,0,0,0,0,0,0,0,0,0,0,0,0, Microscopy  , No,,,Yes,No,No,KOMBOLCHA-WEREDA, Yes,0,0,0,0,0,0,0,0,0,
Oromiya,Arsi,39,Sirbo H/C,Ff,uuid:8802c0ec-bf4a-4014-bbed-f57d73000e8f,,,3,1,2,1,1,matched (3), No,,,,,,,,,,,,Diagnosis,Yes, No, No, No, No, Yes , No,0,0,0,0,0,0,0,0,0,0,0,0,0,0,0,0,other, No,,,No,No,No,LEMU &  BILBILO-WEREDA, No,0,0,0,0,0,0,0,0,0,
Tigray,South Tigray,118,Maychew   Health   Center,347770630,uuid:941b1b66-c0dd-43c8-a2c2-55f9cd2736e7,,,8,1,2,1,1,matched (3), No,,,,,,,,,,,,"Drugs (coartem, artesunate inj.)",No, Yes, Yes, No, Yes, Yes , No,0,0,0,0,0,0,0,0,0,0,0,0,0,0,0,0, Both Microscope and RDT, Yes,,,No,No,Yes,Maychew Town, No,0,0,0,0,0,0,0,0,0,
SNNP,Gurage,136,Yejoka hc,922906792,uuid:89047b1f-1ffd-4fe9-91d4-e077f6425ea0,,,5,1,1,1,1,matched (3), No,,,,,,,,,,,,"Drugs (coartem, artesunate inj.)",Yes, No, No, No, No, No, No,0,0,0,0,0,0,0,0,0,0,0,0,0,0,0,0, Microscopy  , No,,,Yes,No,No,Cheha, No,0,0,0,0,0,0,0,0,0,
Amhara,North Wollo,207,Sanka,33,uuid:8984c1e4-08d3-4fce-b2ea-9c2c613f72d8,,,15,1,0,1,0,matched (3), No,,,,,,,,,,,,"Drugs (coartem, artesunate inj.)",Yes, No, No, Yes, Yes, Yes , Yes,0,0,0,0,0,1,1,0,0,0,1,0,1,1,1,1,other, No,,,No,No,No,Gubalaftu, Yes,0,0,0,0,0,0,0,0,1,
SNNP,Hadiya,147,Satara Health Center,916657889,uuid:89ba7a4f-3490-438f-af70-e0e63d405135,,,8,2,1,1,1,matched (3), No,,,,,,,,,,,,"Drugs (coartem, artesunate inj.)",No, No, No, No, No, Yes , No,0,0,0,0,0,0,0,0,0,0,0,0,0,0,0,0, RDT, No,,,No,Yes,No,Gombora, No,0,0,0,0,0,0,0,0,0,
Tigray,South Tigray,118,LemLem   Karil  Hospital,348770101,uuid:8ad071ce-2bf2-4c02-9db0-b6994d3396f3,,,129,12,17,1,3,matched (3), No,,,,,,,,,,,,"Drugs (coartem, artesunate inj.)",Yes, Yes, No, No, No, Yes , No,0,0,0,0,0,0,0,0,0,0,0,0,0,0,0,0, Microscopy  , Yes,,,Yes,No,No,Maychew Town, No,0,0,0,0,0,0,0,0,0,
SNNP,Hadiya,151,Morsito Health Center,925250478,uuid:8ae8542c-80b9-44e8-b482-f0a82e611a65,,,21,3,21,1,1,matched (3), No,,,,,,,,,,,,"Drugs (coartem, artesunate inj.)",No, No, No, No, No, No, Yes,0,0,0,0,1,1,1,1,1,1,1,1,1,1,1,1, Microscopy  , No,,,Yes,No,No,Misha, No,0,0,0,0,0,0,0,0,0,
Amhara,South Wolo,229,Woinamba Health Center,No phone number,uuid:8bc9f2f4-abd3-4d09-b155-4cb841ee9712,,,6,1,2,1,1,matched (3), No,,,,,,,,,,,,"Drugs (coartem, artesunate inj.)",Yes, No, Yes, No, No, Yes , No,0,0,0,0,0,0,0,0,0,0,0,0,0,0,0,0, Microscopy  , Yes,,,Yes,No,No,Legehida, Yes,0,0,0,0,0,0,0,0,1,
Tigray,South East,123,Meadi,914797651,uuid:9517a3f6-aa8b-4dd5-a6fe-7d683d87f51b,,,1,0,0,0,0,matched (3), No,,,,,,,,,,,,"Drugs (coartem, artesunate inj.)",No, No, No, No, Yes, Yes , No,0,0,0,0,0,0,0,0,0,0,0,0,0,0,0,0, Both Microscope and RDT, Yes,,,No,No,Yes,Degua Temben, Yes,0,0,0,0,0,0,0,0,1,
SNNP,Gedeo,194,Gedeb district Hospital,9462680035,uuid:8c3d839d-4d29-4020-aeec-b6ba16770bce,,,35,4,4,1,1,matched (3), No,,,,,,,,,,,,"Drugs (coartem, artesunate inj.)",No, No, No, No, Yes, Yes , No,0,0,0,0,0,0,0,0,0,0,0,0,0,0,0,0, Microscopy  , No,,,Yes,No,No,Gedeb, No,0,0,0,0,0,0,0,0,0,
Tigray,Central Tigray,99,Birshwa primary hospital,345550539,uuid:8c625cd3-690f-4a25-8eb8-2d4b9a222386,,,44,3,4,1,1,matched (3), Yes,0,1,1,0,0,0,0,0,0,0,0,"Drugs (coartem, artesunate inj.)",Yes, No, Yes, No, Yes, Yes , No,0,0,0,0,0,0,0,0,0,0,0,0,0,0,0,0, Microscopy  , Yes,,,Yes,No,No,Mereb Leha, Yes,0,0,0,0,0,0,0,0,1,
Amhara,North Shewa,261,D/sina hospital,116890275,uuid:8cbdc70e-97c8-4c67-95e0-2922acd14452,,,25,5,5,1,1,matched (3), No,,,,,,,,,,,,"Drugs (coartem, artesunate inj.)",Yes, No, No, No, No, No, No,0,0,0,0,0,0,0,0,0,0,0,0,0,0,0,0, Microscopy  , Yes,,,Yes,No,No,Tarmaber, No,0,0,0,0,0,0,0,0,0,
SNNP,Sidama,164,Wicho,No,uuid:8cedafd5-4372-4d9a-a1e4-8a3fc5301a67,,,32,3,1,1,1,matched (3), No,,,,,,,,,,,,No service given for free,No, No, No, Yes, Yes, Yes , Yes,0,0,0,0,0,1,0,0,0,0,0,1,0,0,0,0, RDT, No,,,No,Yes,No,Alteta Wondo, No,0,0,0,0,0,0,0,0,0,
Amhara,North Shewa,258,Enewari,116880027,uuid:8d258941-f2c6-49f2-91d6-ef13074e1d82,,,25,2,3,1,1,matched (3), No,,,,,,,,,,,,"Drugs (coartem, artesunate inj.)",No, Yes, No, No, Yes, No, No,0,0,0,0,0,0,0,0,0,0,0,0,0,0,0,0, Microscopy  , Yes,,,Yes,No,No,Moretnajiru, No,0,0,0,0,0,0,0,0,0,
Oromiya,East Hararge,92,Midhega Tolla Health Center,935088009,uuid:8da70298-7a1a-4266-9082-7f1bb0bafd88,,,5,1,2,1,0,matched (3), No,,,,,,,,,,,,"Drugs (coartem, artesunate inj.)",No, No, Yes, Yes, Yes, Yes , Yes,0,0,0,0,0,0,0,0,0,0,0,1,0,0,1,1, Microscopy  , No,,,Yes,No,No,MIDEGA TOLA-WEREDA, Yes,0,0,0,0,0,0,0,0,1,
Oromiya,Arsi,26,Aseko H/C,228992043,uuid:8dd1b47b-db97-46f4-8e29-18660b1454c1,,,11,1,1,1,1,matched (3), No,,,,,,,,,,,,Diagnosis,No, No, No, No, No, Yes , Yes,0,0,1,0,0,1,0,0,1,0,0,1,0,0,0,0, Microscopy  , No,,,Yes,No,No,ASEKO-WEREDA, No,0,0,0,0,0,0,0,0,0,
Tigray,South Tigray,121,Merewa Health Center,923773080,uuid:97e75b15-35ea-46f7-a609-54f0a1ef79f6,,,14,1,2,1,1,matched (3), Yes,0,0,1,0,0,0,0,0,0,0,0,"Drugs (coartem, artesunate inj.)",Yes, Yes, No, No, No, Yes , No,0,0,0,0,0,0,0,0,0,0,0,0,0,0,0,0, Both Microscope and RDT, No,,,No,No,Yes,Alamata, No,0,0,0,0,0,0,0,0,0,
Oromiya,West Hararge,52,Calalaka,911828863,uuid:8e8bbe9a-1cf2-415b-8726-81718b465921,,,0,1,0,0,0,matched (3), Yes,0,1,2,2,14,0,0,0,0,0,0,Diagnosis,No, No, Yes, No, Yes, Yes , Yes,0,0,0,0,0,0,0,0,0,0,0,0,0,0,0,0, Microscopy  , No,,,Yes,No,No,ANCHAR-WEREDA, Yes,0,0,0,0,0,0,0,0,0,
Tigray,South Tigray,120,CherCher   Health   Center,343170049,uuid:98e94d6a-9a30-4526-876c-9cf92884c70e,,,15,1,2,1,1,matched (3), No,,,,,,,,,,,,"Drugs (coartem, artesunate inj.)",Yes, No, No, Yes, Yes, Yes , Yes,0,0,0,0,0,1,0,0,0,0,0,0,0,0,0,0, Both Microscope and RDT, Yes,,,No,No,Yes,Rya Azebo, No,0,0,0,0,0,0,0,0,0,
Amhara,South Wolo,225,Abet Wuha H.c,No.phone Number,uuid:8ffaaaba-622f-4949-a120-382fe5fb3104,,,3,0,1,1,1,matched (3), No,,,,,,,,,,,,"Drugs (coartem, artesunate inj.)",Yes, No, No, No, No, Yes , No,0,0,0,0,0,0,0,0,0,0,0,0,0,0,0,0, RDT, No,,,No,Yes,No,Kellala, No,0,0,0,0,0,0,0,0,0,
Amhara,North Shewa,241,Tamo,923770063,uuid:9008aadf-1000-4138-b4a3-81fa21701ba9,,,5,0,1,1,0,matched (3), No,,,,,,,,,,,,Diagnosis,Yes, No, No, No, No, Yes , No,0,0,0,0,0,0,0,0,0,0,0,0,0,0,0,0, RDT, No,,,No,Yes,No,Asagirt, No,0,0,0,0,0,0,0,0,0,
Oromiya,Arsi,41,Abomsa H/c,224410023,uuid:903b7c6d-6ba6-4e5c-865a-30b7f073aa1c,,,8,1,1,1,1,matched (3), No,,,,,,,,,,,,Diagnosis,Yes, No, No, No, Yes, Yes , Yes,0,0,1,0,0,1,0,0,1,0,0,1,0,0,0,0, Microscopy  , No,,,Yes,No,No,MERTI-WEREDA, Yes,0,0,0,0,0,0,0,0,0,
SNNP,Gedeo,194,Banko gotit heslth center,0,uuid:907299eb-69ab-4329-9813-64ee62e77044,,,5,3,1,1,1,matched (3), No,,,,,,,,,,,,Diagnosis,No, No, No, No, No, Yes , Yes,1,1,0,0,0,1,1,1,0,1,1,0,0,1,1,1, Microscopy  , No,,,Yes,No,No,Gedeb, No,0,0,0,0,0,0,0,0,0,
Tigray,Central Tigray,95,Millennium health center,348756352,uuid:9186c226-c868-4d85-9875-469b6648eeb1,,,5,2,1,1,1,matched (3), No,,,,,,,,,,,,"Drugs (coartem, artesunate inj.)",No, No, No, No, Yes, Yes , No,0,0,0,0,0,0,0,0,0,0,0,0,0,0,0,0, Microscopy  , No,,,Yes,No,No,Akisum Town, Yes,0,0,0,0,0,0,0,0,1,
Tigray,South Tigray,117,Zata,914421864,uuid:9229de60-d008-40fd-9497-4095523b7abf,,,1,0,0,0,0,matched (3), No,,,,,,,,,,,,Diagnosis,No, No, No, Yes, Yes, Yes , No,0,0,0,0,0,0,0,0,0,0,0,0,0,0,0,0, Microscopy  , Yes,,,Yes,No,No,Ofla, Yes,0,0,0,0,0,0,0,0,1,
SNNP,Hadiya,145,Jajura,913108202,uuid:930d15db-0176-4202-b301-0fb9d8b1751d,,,1,2,2,1,1,matched (3), No,,,,,,,,,,,,"Drugs (coartem, artesunate inj.)",No, No, No, No, No, No, Yes,1,1,1,1,0,1,1,1,1,1,0,1,1,0,1,0, Microscopy  , No,,,Yes,No,No,Soro, No,0,0,0,0,0,0,0,0,0,
Dire Dawa,Dire Dawa,262,Adisketema health center,252110408,uuid:93393377-5d5b-49ea-957f-a8a405a1ab09,,,30,3,3,1,1,matched (3), Yes,0,0,0,0,0,0,1,0,0,0,0,Diagnosis,Yes, No, Yes, Yes, Yes, Yes , Yes,0,0,0,0,0,0,0,0,1,0,0,0,0,0,0,0, Microscopy  , Yes,,,Yes,No,No,, Yes,0,0,0,0,0,0,0,0,1,
Oromiya,East Hararge,76,Tullo Health Center,912870065,uuid:93a609fd-f54b-4ecc-b096-d9b0715b406e,,,5,2,1,1,1,matched (3), Yes,1,3,1,1,3,0,0,4,0,2,2,Diagnosis,No, No, No, No, No, Yes , Yes,1,0,0,0,0,1,0,0,0,0,0,1,0,0,0,0, Microscopy  , Yes,,,Yes,No,No,FEDIS-WEREDA, Yes,0,0,0,0,0,0,0,0,1,
Amhara,South Wolo,231,Debrezyit HC,No,uuid:93d458dd-a5e0-45bd-bfe6-8acaf375a14f,,,12,0,1,1,1,matched (3), No,,,,,,,,,,,,Diagnosis,Yes, No, Yes, No, No, Yes , No,0,0,0,0,0,0,0,0,0,0,0,0,0,0,0,0, RDT, No,,,No,Yes,No,Mekdella, No,0,0,0,0,0,0,0,0,0,
SNNP,Gedeo,193,Woka Dibu HC,916309150,uuid:99ed0f68-18c6-4e40-b643-a7531566f35e,,,0,0,0,0,0,matched (3), No,,,,,,,,,,,,Diagnosis,No, No, No, No, No, Yes , No,0,0,0,0,0,0,0,0,0,0,0,0,0,0,0,0, Both Microscope and RDT, No,,,No,No,Yes,Bule, No,0,0,0,0,0,0,0,0,0,
Oromiya,East Hararge,75,deder town health center,253330653,uuid:94ab48ac-dae2-4286-a400-98db8a2657e8,,,4,0,1,1,0,matched (3), No,,,,,,,,,,,,Diagnosis,No, No, No, No, No, Yes , No,0,0,0,0,0,0,0,0,0,0,0,0,0,0,0,0, RDT, No,,,No,Yes,No,DEDER-WEREDA, No,0,0,0,0,0,0,0,0,0,
Oromiya,Arsi,42,Kersa Hc,223370053,uuid:94f8a621-dc4e-4433-9a1c-53c715be2794,,,3,1,2,1,1,matched (3), No,,,,,,,,,,,,"Drugs (coartem, artesunate inj.)",Yes, No, No, No, No, Yes , No,0,0,0,0,0,0,0,0,0,0,0,0,0,0,0,0, Microscopy  , No,,,Yes,No,No,MUNESA-WEREDA, No,0,0,0,0,0,0,0,0,0,
SNNP,Hadiya,147,Sage Health center,916456789,uuid:9eb23f23-4c7c-4264-b38b-7d68cd3f8299,,,12,3,0,1,1,matched (3), No,,,,,,,,,,,,"Drugs (coartem, artesunate inj.)",No, Yes, No, No, Yes, Yes , No,0,0,0,0,0,0,0,0,0,0,0,0,0,0,0,0, Both Microscope and RDT, No,,,No,No,Yes,Gombora, Yes,0,0,0,0,0,0,0,0,0,
Amhara,South Wolo,226,kombolcha 05  Health Center,335514090,uuid:96048fe8-3680-4f0f-aefa-cb745a14aacb,,,8,4,5,1,1,matched (3), No,,,,,,,,,,,,"Drugs (coartem, artesunate inj.)",Yes, No, No, No, Yes, Yes , Yes,0,0,0,0,0,0,0,0,0,0,1,0,0,1,1,1, Microscopy  , Yes,,,Yes,No,No,Kombolcha, Yes,1,0,1,1,1,1,1,0,1,
Oromiya,East Hararge,78,Goro Abu Health Center,921438536,uuid:970beb01-9fd2-4981-a9b6-47ad985da5d4,,,9,1,1,1,1,matched (3), No,,,,,,,,,,,,No service given for free,No, No, No, No, No, No, Yes,1,1,1,1,1,1,0,0,1,1,1,1,1,1,1,1, RDT, No,,,No,Yes,No,, No,0,0,0,0,0,0,0,0,0,
SNNP,Sidama,177,Chiri hospital,927079266,uuid:9721d798-58a8-41c6-ae09-f80afa81c85a,,,0,2,4,1,1,matched (3), No,,,,,,,,,,,,Diagnosis,No, No, No, No, No, Yes , Yes,0,0,0,0,0,0,0,0,0,0,0,1,0,0,0,0, RDT, No,,,No,Yes,No,Chire, No,0,0,0,0,0,0,0,0,0,
Oromiya,West Hararge,58,Mechara  Hc,255570626,uuid:97320a52-f37e-4ad6-8034-574e877146a3,,,12,1,1,1,1,matched (3), Yes,0,0,0,1,0,0,0,0,0,0,0,"Drugs (coartem, artesunate inj.)",No, Yes, Yes, No, Yes, No, Yes,0,0,0,0,0,0,0,0,1,1,1,0,0,1,1,1, Microscopy  , Yes,,,Yes,No,No,DARO LEBU-WEREDA, Yes,1,0,0,0,0,0,0,0,0,
SNNP,Gedeo,187,Haroressa HC,928777776,uuid:97b84e82-9c57-42d7-bef3-b6524c98dfc1,,,0,0,0,1,1,matched (3), No,,,,,,,,,,,,"Drugs (coartem, artesunate inj.)",No, No, No, No, Yes, No, Yes,0,0,0,0,0,1,1,0,0,0,0,1,1,1,1,0, Microscopy  , No,,,Yes,No,No,, Yes,1,1,1,0,0,0,0,0,0,
SNNP,Gedeo,191,Konga,0,uuid:97bb1ccd-9e58-4756-a2e5-b02f7f525f75,,,7,2,2,1,1,matched (3), No,,,,,,,,,,,,"Drugs (coartem, artesunate inj.)",Yes, No, No, No, No, Yes , No,0,0,0,0,0,0,0,0,0,0,0,0,0,0,0,0, Microscopy  , No,,,Yes,No,No,Yirgacheffe woreda, Yes,0,0,0,0,0,0,0,0,1,
Amhara,South Wolo,218,Marye H C,921142712,uuid:a1ff2419-1d3a-47a0-b1e3-7078bae137c6,,,10,1,2,2,1,matched (3), Yes,0,0,0,0,0,0,0,1,0,0,0,Diagnosis,Yes, No, Yes, No, No, Yes , No,0,0,0,0,0,0,0,0,0,0,0,0,0,0,0,0, Both Microscope and RDT, Yes,,,No,No,Yes,Ambasel, No,0,0,0,0,0,0,0,0,0,
Oromiya,West Hararge,66,Waltane,911390535,uuid:aa3db5f9-583b-44c5-a5cc-3fe1a342d4d7,,,5,1,1,1,1,matched (3), Yes,0,0,0,0,4,0,0,0,0,0,0,Diagnosis,No, No, No, No, Yes, Yes , Yes,0,1,0,1,0,1,0,0,1,1,1,0,1,1,1,1, Both Microscope and RDT, No,,,No,No,Yes,MIESO-WEREDA, Yes,1,0,0,0,0,0,0,0,0,
Tigray,Central Tigray,96,Feresmay  health  center,343100099,uuid:aa60977a-066e-497a-949e-f9f1311ff71d,,,21,2,1,1,1,matched (3), Yes,0,0,1,0,1,0,0,0,0,0,0,"Drugs (coartem, artesunate inj.)",Yes, No, No, No, Yes, Yes , No,0,0,0,0,0,0,0,0,0,0,0,0,0,0,0,0, Both Microscope and RDT, No,,,No,No,Yes,Ahiferom, Yes,0,0,0,0,0,0,0,0,0,
Oromiya,West Hararge,67,Shunko Health Center,No,uuid:995c89d6-2bc5-45c3-ae93-12581351aae7,,,4,0,0,1,1,matched (3), Yes,0,0,0,0,1,0,0,0,0,0,0,Diagnosis,No, No, No, Yes, Yes, Yes , No,0,0,0,0,0,0,0,0,0,0,0,0,0,0,0,0, RDT, No,,,No,Yes,No,ODA BULTUM WEREDA, No,0,0,0,0,0,0,0,0,0,
SNNP,Kembata Timbaro,154,Hobicheka health center,960945496,uuid:b10acbb7-eaed-459e-8f00-061deb325150,,,8,3,0,1,1,matched (3), No,,,,,,,,,,,,"Drugs (coartem, artesunate inj.)",Yes, No, No, No, No, No, No,0,0,0,0,0,0,0,0,0,0,0,0,0,0,0,0, Both Microscope and RDT, No,,,No,No,Yes,Kacha Bira, No,0,0,0,0,0,0,0,0,0,
Amhara,South Wolo,236,Bistim h center,914069450,uuid:99f8a6b6-25e9-4ef2-b6f7-3fe3d8345ee0,,,22,2,3,1,1,matched (3), No,,,,,,,,,,,,"Drugs (coartem, artesunate inj.)",Yes, No, No, No, Yes, Yes , Yes,0,0,0,0,0,1,0,0,1,0,0,0,0,0,1,1, Microscopy  , Yes,,,Yes,No,No,Worebabo, No,0,0,0,0,0,0,0,0,0,
Amhara,South Wolo,223,Shelafaf H.c,No phone number,uuid:9ad61620-f69c-4b73-987d-c5eb4d0075db,,,3,0,1,1,0,matched (3), No,,,,,,,,,,,,"Drugs (coartem, artesunate inj.)",Yes, No, No, No, Yes, Yes , Yes,1,1,1,1,1,1,1,1,0,1,1,1,1,1,1,0, RDT, No,,,No,Yes,No,Jamma, No,0,0,0,0,0,0,0,0,0,
SNNP,Silitie,200,Alemgebeya Hospital,9,uuid:9cdeb531-1d34-4b3d-ba59-463bfe542d95,,,9,7,4,2,1,matched (3), No,,,,,,,,,,,,"Drugs (coartem, artesunate inj.)",Yes, No, Yes, No, No, Yes , No,0,0,0,0,0,0,0,0,0,0,0,0,0,0,0,0, Microscopy  , Yes,,,Yes,No,No,Sankura, Yes,0,0,0,0,0,0,0,0,1,
SNNP,Sidama,178,Bubisa h c,925168411,uuid:9db1db73-b8d6-4fb9-83f5-21ab0f15e670,,,12,0,1,1,1,matched (3), No,,,,,,,,,,,,"Drugs (coartem, artesunate inj.)",No, No, No, No, No, Yes , Yes,0,0,0,0,0,1,1,1,1,0,0,0,0,0,0,0, RDT, No,,,No,Yes,No,Aroresa, No,0,0,0,0,0,0,0,0,0,
SNNP,Sidama,175,Gorche,926307554,uuid:9eae313e-87ba-40bc-9458-1ec94a543188,,,7,2,3,1,1,matched (3), No,,,,,,,,,,,,Diagnosis,No, No, No, No, No, Yes , Yes,0,0,0,0,0,1,0,0,0,0,0,0,1,0,0,0, Microscopy  , No,,,Yes,No,No,Gorche, No,0,0,0,0,0,0,0,0,0,
SNNP,Sidama,178,Odda,No,uuid:b39a0918-ef23-4ed9-8406-99b81cca2b2e,,,18,1,1,1,1,matched (3), No,,,,,,,,,,,,No service given for free,No, No, No, No, Yes, Yes , Yes,1,0,1,1,0,0,0,0,1,0,0,0,0,0,0,1, Both Microscope and RDT, No,,,No,No,Yes,Aroresa, No,0,0,0,0,0,0,0,0,0,
Oromiya,Arsi,32,Tijo HC,228992281,uuid:9ec6b9a7-0002-4249-b6ce-57aeb07cbc8b,,,0,0,0,1,1,matched (3), No,,,,,,,,,,,,Diagnosis,Yes, No, No, No, No, Yes , No,0,0,0,0,0,0,0,0,0,0,0,0,0,0,0,0, Microscopy  , No,,,Yes,No,No,DIGELUNA TIJO-WEREDA, No,0,0,0,0,0,0,0,0,0,
Tigray,Eastern Tigray,111,Mayda Agame,344450194,uuid:9f064259-9974-46fd-b7ee-b790139f9a22,,,33,2,2,1,1,matched (3), No,,,,,,,,,,,,"Drugs (coartem, artesunate inj.)",No, No, No, No, Yes, Yes , Yes,0,0,0,0,0,1,0,0,1,1,0,1,1,1,1,1, Microscopy  , No,,,Yes,No,No,Adi Girat Town, Yes,0,0,0,0,0,0,0,0,1,
SNNP,Silitie,198,Jiro HC,910039565,uuid:9fefbde5-c6dc-47fb-b90a-1ac66fb176e5,,,,,,,,master only (1),,,,,,,,,,,,,,, No, No, Yes, No, Yes , No,0,0,0,0,0,0,0,0,0,0,0,0,0,0,0,0,,,,,,,,MIRAB AZERNET BERBERE,,,,,,,,,,,
Oromiya,West Hararge,63,Frijiru HC,961162052,uuid:a03bb168-4204-43fd-9e99-68ad6f2198c2,,,5,0,0,1,0,matched (3), No,,,,,,,,,,,,Diagnosis,Yes, No, No, No, Yes, No, Yes,0,0,1,0,0,0,0,0,1,1,1,1,1,1,1,1,other, No,,,No,No,No,HABRO-WEREDA, No,0,0,0,0,0,0,0,0,0,
SNNP,Silitie,203,Werabe HC,467710206,uuid:a0f249b9-a2bd-4e58-b255-d342d740fdf6,,,6,2,0,1,1,matched (3), No,,,,,,,,,,,,"Drugs (coartem, artesunate inj.)",Yes, No, Yes, No, Yes, Yes , No,0,0,0,0,0,0,0,0,0,0,0,0,0,0,0,0, Microscopy  , Yes,,,Yes,No,No,Werabe Town, Yes,0,0,0,0,0,0,0,0,1,
Oromiya,West Hararge,59,Doba health  center,2.51257E+11,uuid:a10ef69b-ee24-47e6-99a1-3d2644f40a2f,,,5,2,1,1,1,matched (3), No,,,,,,,,,,,,Diagnosis,Yes, Yes, Yes, No, Yes, Yes , No,0,0,0,0,0,0,0,0,0,0,0,0,0,0,0,0, Microscopy  , Yes,,,Yes,No,No,DOBA WEREDA, Yes,0,1,0,0,0,0,0,0,0,
Amhara,North Shewa,253,Kolu maregafa health center,9,uuid:b580789e-8496-495a-b7eb-48dcc2029a7e,,,18,1,2,2,1,matched (3), No,,,,,,,,,,,,Diagnosis,Yes, Yes, Yes, Yes, No, No, No,0,0,0,0,0,0,0,0,0,0,0,0,0,0,0,0, Both Microscope and RDT, No,,,No,No,Yes,, No,0,0,0,0,0,0,0,0,0,
Oromiya,Arsi,35,Chancho,228990337,uuid:a296d2fa-6a86-4d0b-b584-b4c02fce11ff,,,16,4,1,1,1,matched (3), No,,,,,,,,,,,,Diagnosis,No, No, No, No, No, Yes , Yes,0,0,0,0,0,0,0,0,0,0,0,0,0,1,1,1, Microscopy  , No,,,Yes,No,No,GOLOLCHA-WEREDA, Yes,0,0,0,0,0,0,0,0,1,
Amhara,South Wolo,229,Xxx,Xxx,uuid:a32b729f-6a53-44a8-8cdb-5f4bd0300a69,,,6,1,2,1,1,matched (3), No,,,,,,,,,,,,"Drugs (coartem, artesunate inj.)",Yes, No, Yes, No, No, Yes , Yes,0,0,0,0,0,0,0,0,0,0,0,0,0,1,0,0, Microscopy  , Yes,,,Yes,No,No,Legehida, Yes,0,0,0,0,0,0,0,0,1,
SNNP,Sidama,179,Malgano kabado,926040289,uuid:a3c7a6cf-ca1a-445c-b3aa-888129af24c6,,,3,0,1,1,1,matched (3), No,,,,,,,,,,,,"Drugs (coartem, artesunate inj.)",Yes, No, No, No, No, No, No,0,0,0,0,0,0,0,0,0,0,0,0,0,0,0,0,other, No,,,No,No,No,Bona Zuriya, No,0,0,0,0,0,0,0,0,0,
SNNP,Gurage,131,Jeima Woline  Health Center,91234456,uuid:a4243ecf-a08e-42ae-b4fc-08643da3b23f,,,8,2,0,1,1,matched (3), Yes,0,0,0,0,0,0,0,0,0,0,0,"Drugs (coartem, artesunate inj.)",No, No, No, No, No, No, Yes,1,1,0,0,1,1,0,0,1,0,0,1,0,1,0,1, Microscopy  , No,,,Yes,No,No,Gedebano G/W, No,0,0,0,0,0,0,0,0,0,
Oromiya,West Hararge,57,Chiro,920149605,uuid:a492fa79-752a-44ab-8a8c-fda64c995d53,,,4,1,2,1,1,matched (3), Yes,0,0,0,0,15,0,0,0,0,0,0,"Drugs (coartem, artesunate inj.)",No, Yes, Yes, No, No, No, No,0,0,0,0,0,0,0,0,0,0,0,0,0,0,0,0, Microscopy  , Yes,,,Yes,No,No,CHIRO TOWN, Yes,0,0,0,0,0,0,0,0,0,
Oromiya,Arsi,47,Lode Lemafo health center,910038936,uuid:a4c774a9-34d4-482b-8dbe-8601933d0bc8,,,1,1,2,1,1,matched (3), No,,,,,,,,,,,,Diagnosis,Yes, No, No, No, No, Yes , No,0,0,0,0,0,0,0,0,0,0,0,0,0,0,0,0, Microscopy  , No,,,Yes,No,No,SIRE-WEREDA, No,0,0,0,0,0,0,0,0,0,
Oromiya,East Hararge,79,boroda health center,911762412,uuid:a51aefd3-6f78-4d23-a3e1-26426ef2b8ab,,,5,2,2,1,1,matched (3), No,,,,,,,,,,,,Diagnosis,Yes, No, No, No, No, Yes , No,0,0,0,0,0,0,0,0,0,0,0,0,0,0,0,0, Microscopy  , No,,,Yes,No,No,GORO GUTU-WEREDA, Yes,0,0,0,0,0,0,0,0,0,
Oromiya,Arsi,40,Qusilegna(Aleko) HC,0,uuid:a52c7def-953a-4cc0-a263-7e8d79040d6f,,,1,1,1,1,1,matched (3), No,,,,,,,,,,,,Diagnosis,No, No, No, No, No, Yes , Yes,0,0,0,0,0,1,0,0,1,1,1,0,1,1,1,1, Microscopy  , No,,,Yes,No,No,LODE HETOSA-WEREDA, No,0,0,0,0,0,0,0,0,0,
SNNP,Hadiya,142,Shone primary hospital,911759681,uuid:a578a66a-e153-473d-920f-1dfba7d8a272,,,2,5,4,3,3,matched (3), No,,,,,,,,,,,,"Drugs (coartem, artesunate inj.)",No, No, No, No, Yes, Yes , No,0,0,0,0,0,0,0,0,0,0,0,0,0,0,0,0, Microscopy  , Yes,,,Yes,No,No,Misrak badewacho, No,0,0,0,0,0,0,0,0,0,
SNNP,Sidama,173,Yaye hospital,922335775,uuid:a60b6197-12b9-46b2-b36a-2f2546669edc,,,10,5,5,1,3,matched (3), No,,,,,,,,,,,,"Drugs (coartem, artesunate inj.)",No, No, No, No, No, Yes , No,0,0,0,0,0,0,0,0,0,0,0,0,0,0,0,0, Microscopy  , No,,,Yes,No,No,Arbegona, No,0,0,0,0,0,0,0,0,0,
Tigray,Central Tigray,96,Mezber  health  center,914025905,uuid:a74dee45-3496-4b6d-b82e-733bb1e1d042,,,15,1,2,1,1,matched (3), No,,,,,,,,,,,,Diagnosis,Yes, No, Yes, No, Yes, Yes , Yes,0,0,0,0,0,1,0,0,1,1,0,0,0,0,0,0, RDT, No,,,No,Yes,No,Ahiferom, Yes,0,0,0,0,0,0,0,0,0,
Amhara,North Shewa,260,Siadebir Health  center,920855721,uuid:a79cc1d4-827f-4285-b137-b168842871a7,,,4,0,2,1,1,matched (3), No,,,,,,,,,,,,"Drugs (coartem, artesunate inj.)",Yes, No, No, No, No, Yes , Yes,0,0,0,0,0,1,0,0,0,1,1,0,1,1,1,1, Microscopy  , Yes,,,Yes,No,No,Siadebr, Yes,0,0,1,1,1,1,1,0,0,
Oromiya,Arsi,37,Itaya,223350348,uuid:a80684ef-306d-4392-b92c-7cef2ee29237,,,6,2,2,1,1,matched (3), No,,,,,,,,,,,,Diagnosis,No, No, No, No, No, Yes , Yes,0,0,0,0,0,1,0,0,1,0,1,0,1,1,1,1, Microscopy  , No,,,Yes,No,No,HETOSA-WEREDA, No,0,0,0,0,0,0,0,0,0,
Amhara,North Shewa,239,Aliyu Amba,912768575,uuid:a8cdcfbf-63e8-4ee3-8dc8-eebd6c59dc8a,,,6,1,1,1,0,matched (3), No,,,,,,,,,,,,"Drugs (coartem, artesunate inj.)",No, No, No, No, Yes, Yes , Yes,0,0,0,0,0,0,0,0,0,0,0,1,1,0,0,0, Microscopy  , Yes,,,Yes,No,No,Ankober, No,0,0,0,0,0,0,0,0,0,
SNNP,Kembata Timbaro,162,Hadero health center,464320310,uuid:a960cf6d-2213-4225-87ef-797689241d06,,,17,5,2,1,2,matched (3), No,,,,,,,,,,,,"Drugs (coartem, artesunate inj.)",Yes, No, Yes, No, Yes, Yes , No,0,0,0,0,0,0,0,0,0,0,0,0,0,0,0,0, Microscopy  , Yes,,,Yes,No,No,Hadero Tunto town, Yes,1,0,0,0,0,0,0,0,0,
SNNP,Silitie,195,Tanze hc,468990109,uuid:be9c73f2-e74a-4f6f-939b-431a1fad94e8,,,5,1,1,1,1,matched (3), No,,,,,,,,,,,,"Drugs (coartem, artesunate inj.)",Yes, No, No, No, No, Yes , Yes,1,1,0,0,0,1,1,1,1,1,1,1,1,1,1,1, Both Microscope and RDT, No,,,No,No,Yes,Alicho Woriro, No,0,0,0,0,0,0,0,0,0,
Oromiya,Arsi,45,Dumuga health center,927255692,uuid:c8953ce3-f975-4678-b8e2-adc03256b48b,,,4,1,1,1,1,matched (3), No,,,,,,,,,,,,"Drugs (coartem, artesunate inj.)",Yes, No, No, No, No, Yes , Yes,0,0,0,0,0,0,0,0,1,1,0,1,1,1,1,0, Both Microscope and RDT, No,,,No,No,Yes,SHANAN KOLU, No,0,0,0,0,0,0,0,0,0,
SNNP,Hadiya,148,Fonko Health Center,931359829,uuid:cbabe7a7-a7ba-4031-aa8b-3a3e31bce1ce,,,11,3,2,1,1,matched (3), No,,,,,,,,,,,,"Drugs (coartem, artesunate inj.)",Yes, No, No, No, No, No, No,0,0,0,0,0,0,0,0,0,0,0,0,0,0,0,0, Both Microscope and RDT, No,,,No,No,Yes,Analemo, No,0,0,0,0,0,0,0,0,0,
Amhara,South Wolo,235,Wogdi HC,334450484,uuid:aa881811-b878-439b-b8ee-9a4a691620a5,,,22,3,2,2,1,matched (3), Yes,0,1,0,1,0,0,0,0,0,0,0,Diagnosis,No, No, Yes, No, No, Yes , No,0,0,0,0,0,0,0,0,0,0,0,0,0,0,0,0, Microscopy  , Yes,,,Yes,No,No,Wogdi, No,0,0,0,0,0,0,0,0,0,
Oromiya,East Hararge,87,Mino Health Center,915002834,uuid:aaf6e71a-8549-4c61-993d-d83ebf5b2178,,,7,0,0,1,0,matched (3), No,,,,,,,,,,,,No service given for free,No, No, No, No, No, No, Yes,0,0,1,1,1,1,0,0,1,1,1,1,1,1,1,1, RDT, No,,,No,Yes,No,, No,0,0,0,0,0,0,0,0,0,
Oromiya,Arsi,41,Hella hc,228170850,uuid:ac7df24b-0ec2-4b47-b60d-1826ef49a684,,,7,1,1,1,1,matched (3), No,,,,,,,,,,,,Diagnosis,Yes, No, No, Yes, Yes, Yes , Yes,0,0,0,0,0,1,0,0,1,1,0,1,0,0,0,0, Microscopy  , No,,,Yes,No,No,MERTI-WEREDA, No,0,0,0,0,0,0,0,0,0,
SNNP,Sidama,164,Gowadamo H.C,No,uuid:ad1fe804-1e03-4f3e-a95b-8a77bce09ef0,,,33,2,2,1,1,matched (3), No,,,,,,,,,,,,"Drugs (coartem, artesunate inj.)",Yes, No, No, No, Yes, Yes , No,0,0,0,0,0,0,0,0,0,0,0,0,0,0,0,0, Microscopy  , No,,,Yes,No,No,Alteta Wondo, Yes,0,0,0,0,0,0,0,0,1,
SNNP,Hadiya,151,Anjama Health Center,967436576,uuid:ad429666-c069-4944-9ffc-8b399120959e,,,8,1,1,0,1,matched (3), No,,,,,,,,,,,,"Drugs (coartem, artesunate inj.)",No, No, No, No, Yes, Yes , Yes,1,1,0,1,1,1,1,1,1,1,1,0,1,1,1,1, RDT, No,,,No,Yes,No,Misha, Yes,0,0,0,0,0,0,0,0,0,
Oromiya,East Hararge,78,Burka Health Center,928116333,uuid:adeab259-1016-49a2-b515-998e8b937e9b,,,16,13,1,1,1,matched (3), No,,,,,,,,,,,,No service given for free,No, No, No, No, Yes, No, Yes,1,1,1,0,1,1,0,0,1,1,1,1,1,1,1,1, Microscopy  , No,,,Yes,No,No,, No,0,0,0,0,0,0,0,0,0,
Harari,Harer,271,Jinila health center,9123456,uuid:afd7cf9e-c8c7-4d49-a919-ae3601c158a7,,,26,3,3,1,1,matched (3), No,,,,,,,,,,,,Diagnosis,Yes, No, Yes, No, No, Yes , No,0,0,0,0,0,0,0,0,0,0,0,0,0,0,0,0, Microscopy  , Yes,,,Yes,No,No,Harer Ketema, Yes,0,0,0,0,0,0,0,0,1,
SNNP,Sidama,179,Warancha health center,914117416,uuid:b038a935-0e0c-4fda-9ef2-fed9313d4639,,,5,2,1,1,1,matched (3), No,,,,,,,,,,,,"Drugs (coartem, artesunate inj.)",Yes, No, No, No, No, Yes , No,0,0,0,0,0,0,0,0,0,0,0,0,0,0,0,0, Microscopy  , No,,,Yes,No,No,Bona Zuriya, No,0,0,0,0,0,0,0,0,0,
Amhara,South Wolo,226,07 Tulu Adame,033 8514101,uuid:b09e879f-796e-416c-8752-a269901dcd20,,,4,3,3,1,1,matched (3), No,,,,,,,,,,,,"Drugs (coartem, artesunate inj.)",Yes, No, Yes, No, No, Yes , Yes,0,0,0,0,0,0,0,0,1,1,1,0,0,1,1,1, Microscopy  , Yes,,,Yes,No,No,Kombolcha, Yes,0,0,0,1,0,0,0,0,0,
Dire Dawa,Dire Dawa,265,Legehare Health center,91234566,uuid:b0bf4fe6-40ab-455d-931f-5dedeb78f7ea,,,45,45,6,1,1,matched (3), Yes,0,1,2,2,0,0,0,0,0,0,0,Diagnosis,Yes, No, Yes, Yes, Yes, Yes , Yes,0,0,0,0,0,0,0,0,1,0,0,0,0,0,0,0, Microscopy  , Yes,,,Yes,No,No,, Yes,1,1,1,1,1,1,1,1,1,
Amhara,South Wolo,231,Koreb HC,No,uuid:cec3b8eb-791e-455b-9364-19de7250274f,,,7,1,1,1,0,matched (3), No,,,,,,,,,,,,No service given for free,Yes, No, Yes, No, Yes, Yes , Yes,0,0,0,0,0,1,0,0,1,1,0,0,1,1,1,1, Both Microscope and RDT, No,,,No,No,Yes,Mekdella, Yes,0,0,0,0,0,0,0,0,1,
Oromiya,West Hararge,53,Badesa Health Center,No,uuid:b1bbf92e-ad00-4629-a370-23f9624eea7e,,,17,1,2,1,1,matched (3), No,,,,,,,,,,,,Diagnosis,No, Yes, Yes, Yes, Yes, Yes , Yes,0,0,0,0,0,1,0,0,0,0,0,0,0,0,0,0, Microscopy  , Yes,,,Yes,No,No,BEDESA TOWN, Yes,0,0,0,0,0,0,0,0,0,
Amhara,South Wolo,221,Delanta Hospital,No,uuid:b2360b82-32a8-4698-9f52-0e587a33eec0,,,32,4,4,2,1,matched (3), No,,,,,,,,,,,,"Drugs (coartem, artesunate inj.)",No, No, No, No, No, No, No,0,0,0,0,0,0,0,0,0,0,0,0,0,0,0,0,other, No,,,No,No,No,Delanta, No,0,0,0,0,0,0,0,0,0,
Amhara,South Wolo,216,TiTa  Health Center,033 8119895,uuid:b24b42df-debf-40bd-920f-eced7c5806ae,,,5,1,3,1,1,matched (3), No,,,,,,,,,,,,"Drugs (coartem, artesunate inj.)",No, No, No, No, Yes, Yes , No,0,0,0,0,0,0,0,0,0,0,0,0,0,0,0,0, RDT, Yes,,,No,Yes,No,Dessie town, Yes,0,0,0,0,0,0,0,0,1,
Tigray,Eastern Tigray,105,Zala,914434655,uuid:d7a12c1d-4804-44c7-a231-af529d0bc4de,,,16,1,2,1,1,matched (3), No,,,,,,,,,,,,"Drugs (coartem, artesunate inj.)",Yes, No, No, Yes, Yes, Yes , Yes,0,0,0,0,0,0,0,0,1,0,0,1,0,0,0,0, Both Microscope and RDT, No,,,No,No,Yes,Gulo Meheda, Yes,0,0,0,0,0,0,0,0,1,
SNNP,Kembata Timbaro,156,Odoricho health center,465540122,uuid:b3be56fb-7f95-4256-8de1-6d46bd8eeb39,,,22,2,1,1,1,matched (3), No,,,,,,,,,,,,"Drugs (coartem, artesunate inj.)",Yes, No, Yes, No, Yes, Yes , No,0,0,0,0,0,0,0,0,0,0,0,0,0,0,0,0, Microscopy  , No,,,Yes,No,No,Kedida Gamela, Yes,0,0,0,0,0,0,0,0,0,
Tigray,Eastern Tigray,106,Freweyni health center,344470490,uuid:b3d471e3-a4c8-4ece-a25a-840872e4cf32,,,16,6,1,1,1,matched (3), No,,,,,,,,,,,,Diagnosis,No, Yes, Yes, No, Yes, Yes , No,0,0,0,0,0,0,0,0,0,0,0,0,0,0,0,0, Microscopy  , Yes,,,Yes,No,No,Saesi Tsadamba, Yes,0,0,0,0,0,0,0,0,1,
Harari,Harer,270,HASANGE,258669172,uuid:b4770fa6-c65d-4eb1-a4f2-e65fa7490c50,,,12,3,3,1,1,matched (3), Yes,0,2,0,0,2,0,0,0,0,0,0,Diagnosis,Yes, Yes, No, No, Yes, Yes , No,0,0,0,0,0,0,0,0,0,0,0,0,0,0,0,0, Microscopy  , Yes,,,Yes,No,No,Dire Teyara, Yes,1,0,1,1,1,1,1,0,0,
SNNP,Sidama,171,Worancha wacho,916037568,uuid:dabc9284-3acb-4856-9a72-0e842c465068,,,16,2,2,1,1,matched (3), No,,,,,,,,,,,,"Drugs (coartem, artesunate inj.)",Yes, No, No, No, Yes, Yes , Yes,0,0,0,0,0,0,0,0,1,1,1,0,1,0,0,0, Both Microscope and RDT, No,,,No,No,Yes,Boricha, No,0,0,0,0,0,0,0,0,0,
SNNP,Sidama,183,Aleta wondo hospital,462241463,uuid:b580e73b-b4fc-45ad-a0a9-db2c66999401,,,30,6,5,1,2,matched (3), No,,,,,,,,,,,,"Drugs (coartem, artesunate inj.)",No, No, No, No, No, Yes , Yes,0,0,0,0,0,0,0,0,0,1,0,1,0,1,0,0, Microscopy  , Yes,,,Yes,No,No,Aleta wondo town, No,0,0,0,0,0,0,0,0,0,
Oromiya,East Hararge,81,Oda santala health center,913924032,uuid:b5cf64ab-79e7-443a-9173-e2bfd91ddba8,,,1,1,1,1,0,matched (3), Yes,0,0,0,0,11,0,6,0,0,0,0,Diagnosis,No, Yes, Yes, No, Yes, Yes , No,0,0,0,0,0,0,0,0,0,0,0,0,0,0,0,0, RDT, No,,,No,Yes,No,GURSUM-WEREDA, Yes,0,0,0,0,0,0,0,0,1,
Oromiya,East Hararge,75,laga gaba health center,910276934,uuid:b6e454f1-57ca-4342-8dca-8c4ea723bb60,,,4,1,1,1,1,matched (3), No,,,,,,,,,,,,Diagnosis,Yes, No, No, No, Yes, No, Yes,1,1,1,1,1,0,1,1,1,1,1,0,1,1,1,1, Microscopy  , No,,,Yes,No,No,DEDER-WEREDA, Yes,0,0,0,0,0,0,0,0,0,
SNNP,Gurage,140,Kebule Health Center,118840154,uuid:b6e78e61-47e8-4e2a-a208-2eb35fd72f1a,,,4,1,1,1,1,matched (3), No,,,,,,,,,,,,"Drugs (coartem, artesunate inj.)",No, No, No, No, No, Yes , Yes,0,0,0,0,0,0,0,0,0,0,0,1,1,0,0,0, RDT, No,,,No,Yes,No,Geta, No,0,0,0,0,0,0,0,0,0,
Oromiya,East Hararge,84,Ejersa goro health center,987327731,uuid:b791af4b-1c03-415d-a934-48cd32a3b996,,,3,2,2,1,0,matched (3), No,,,,,,,,,,,,Diagnosis,No, No, Yes, No, Yes, Yes , Yes,0,0,0,0,0,1,1,1,1,1,1,0,1,1,0,1, Microscopy  , Yes,,,Yes,No,No,JARSO-WEREDA, Yes,1,0,0,0,0,0,0,0,0,
SNNP,Gurage,140,Wedaka hc,920968301,uuid:b7ae6a16-c465-4d6e-8742-e7eced68b5e7,,,5,0,1,1,1,matched (3), No,,,,,,,,,,,,"Drugs (coartem, artesunate inj.)",Yes, No, No, No, No, Yes , No,0,0,0,0,0,0,0,0,0,0,0,0,0,0,0,0, RDT, No,,,No,Yes,No,Geta, No,0,0,0,0,0,0,0,0,0,
SNNP,Sidama,172,Tugo health center,916042243,uuid:b883bf5e-6235-484b-ab6a-cad3156d1fce,,,3,0,1,1,1,matched (3), No,,,,,,,,,,,,Diagnosis,No, No, No, No, No, No, No,0,0,0,0,0,0,0,0,0,0,0,0,0,0,0,0,other, No,,,No,No,No,Bursa, No,0,0,0,0,0,0,0,0,0,
SNNP,Silitie,196,Elose  hc,0,uuid:b934768d-6934-4fc4-9b0b-faac7e245e0c,,,13,2,2,1,1,matched (3), No,,,,,,,,,,,,"Drugs (coartem, artesunate inj.)",Yes, No, No, No, No, Yes , No,0,0,0,0,0,0,0,0,0,0,0,0,0,0,0,0, Microscopy  , Yes,,,Yes,No,No,Siliti, Yes,0,0,0,0,0,0,0,0,1,
SNNP,Sidama,179,Bona Hospital,463232025,uuid:b96260ea-a3ec-4b3c-b609-fa2212dcb5fd,,,200,20,18,1,1,matched (3), No,,,,,,,,,,,,"Drugs (coartem, artesunate inj.)",Yes, No, No, Yes, No, Yes , No,0,0,0,0,0,0,0,0,0,0,0,0,0,0,0,0, Microscopy  , No,,,Yes,No,No,Bona Zuriya, No,0,0,0,0,0,0,0,0,0,
Dire Dawa,Dire Dawa,263,Biyo Awale,251191291,uuid:b969770a-3ea7-4ca2-aed7-2cbfa42a0045,,,18,2,3,1,1,matched (3), No,,,,,,,,,,,,Diagnosis,Yes, Yes, Yes, No, Yes, Yes , No,0,0,0,0,0,0,0,0,0,0,0,0,0,0,0,0, Microscopy  , Yes,,,Yes,No,No,, No,0,0,0,0,0,0,0,0,0,
Oromiya,East Hararge,92,Terkanfeta Health Center,913452622,uuid:b97ac890-dfde-4cb6-a35b-dfcff7cdcfa0,,,5,1,1,2,0,matched (3), No,,,,,,,,,,,,"Drugs (coartem, artesunate inj.)",No, No, Yes, Yes, Yes, Yes , No,0,0,0,0,0,0,0,0,0,0,0,0,0,0,0,0, Microscopy  , No,,,Yes,No,No,MIDEGA TOLA-WEREDA, Yes,0,0,0,0,0,0,0,0,0,
Dire Dawa,Dire Dawa,264,Jeldesa,Not functional,uuid:b995387e-31b1-4d77-bff3-24bb8dee8e24,,,23,1,2,1,1,matched (3), Yes,3,0,1,0,0,0,0,0,0,0,0,Diagnosis,Yes, No, No, No, Yes, Yes , Yes,0,0,0,0,0,0,0,0,1,0,0,0,0,1,1,1, Microscopy  , Yes,,,Yes,No,No,, Yes,1,1,1,1,1,1,1,1,1,
Amhara,North Shewa,254,Zeita,966024596,uuid:ba06a629-c0f6-4fbc-a141-84d189c2e26a,,,4,0,2,1,1,matched (3), No,,,,,,,,,,,,Diagnosis,Yes, No, No, No, No, Yes , No,0,0,0,0,0,0,0,0,0,0,0,0,0,0,0,0, RDT, No,,,No,Yes,No,Merhabete, No,0,0,0,0,0,0,0,0,0,
Amhara,North Shewa,242,Bereager health center,No,uuid:bab039a3-b1a9-41c7-99d1-8edbb2d29d9b,,,11,1,2,1,1,matched (3), No,,,,,,,,,,,,"Drugs (coartem, artesunate inj.)",Yes, No, No, No, No, Yes , No,0,0,0,0,0,0,0,0,0,0,0,0,0,0,0,0, Microscopy  , No,,,Yes,No,No,Baso Worana, No,0,0,0,0,0,0,0,0,0,
Oromiya,West Hararge,59,Biyo keraba,920948115,uuid:bac5ac85-116e-40af-b1b3-45f59d822609,,,6,0,0,1,1,matched (3), No,,,,,,,,,,,,Diagnosis,No, Yes, Yes, No, Yes, No, Yes,0,0,0,0,0,1,0,0,0,0,0,0,0,0,0,0, Microscopy  , Yes,,,Yes,No,No,DOBA WEREDA, Yes,0,0,0,0,0,0,0,0,0,
Oromiya,Arsi,47,Sire health center,223300444,uuid:bac5cd39-d0c0-42c3-8f50-36cf0bb1ee5d,,,1,2,2,1,1,matched (3), No,,,,,,,,,,,,Diagnosis,Yes, No, No, Yes, No, Yes , Yes,0,0,0,0,0,1,0,0,1,1,1,0,0,0,0,0, Microscopy  , Yes,,,Yes,No,No,SIRE-WEREDA, No,0,0,0,0,0,0,0,0,0,
Amhara,North Shewa,258,Keteb health center,920631660,uuid:baec176c-d438-48d4-a8b1-570a961d94fd,,,12,0,2,1,0,matched (3), No,,,,,,,,,,,,Drugs (quinine and chloroquine),No, Yes, Yes, Yes, Yes, No, Yes,0,0,0,0,0,1,0,0,0,0,0,0,0,0,0,0, Microscopy  , Yes,,,Yes,No,No,Moretnajiru, No,0,0,0,0,0,0,0,0,0,
Amhara,South Wolo,216,Boru meda hospilal,910056285,uuid:bd0acb65-a597-497d-b639-c484cd46d688,,,163,11,18,1,1,matched (3), No,,,,,,,,,,,,"Drugs (coartem, artesunate inj.)",Yes, No, No, No, No, Yes , Yes,0,0,0,0,0,1,1,1,0,1,0,0,0,1,0,0, Microscopy  , Yes,,,Yes,No,No,Dessie town, Yes,0,0,0,0,0,0,0,0,1,
Tigray,South Tigray,122,Alamata Health center,911572636,uuid:bd79a8d7-8cb6-4488-bda2-10f74eae223c,,,22,3,2,1,1,matched (3), No,,,,,,,,,,,,"Drugs (coartem, artesunate inj.)",No, Yes, Yes, No, Yes, Yes , No,0,0,0,0,0,0,0,0,0,0,0,0,0,0,0,0, Microscopy  , Yes,,,Yes,No,No,Alamata Town, No,0,0,0,0,0,0,0,0,0,
Tigray,South East,125,Jvcvnk,98643545,uuid:bda2ea11-c076-4b89-8a53-ffdcec0b5be3,,,,,,,,master only (1),,,,,,,,,,,,,,, No, No,,,,,,,,,,,,,,,,,,,,,,,,,,,,Hintalo Wajirat,,,,,,,,,,,
SNNP,Gedeo,193,Herede HC,916798725,uuid:bdcf83c3-a0f4-4aac-8e86-617c87caed0e,,,0,0,0,1,1,matched (3), No,,,,,,,,,,,,No service given for free,No, No, No, No, No, No, No,0,0,0,0,0,0,0,0,0,0,0,0,0,0,0,0,other, No,,,No,No,No,Bule, No,0,0,0,0,0,0,0,0,0,
Amhara,North Wollo,212,Taja,33,uuid:be0021b9-8abb-4643-8374-a719c0036e18,,,1,0,0,0,0,matched (3), No,,,,,,,,,,,,"Drugs (coartem, artesunate inj.)",Yes, No, No, No, No, No, Yes,1,1,1,1,1,1,1,1,1,1,1,1,1,0,0,0, Microscopy  , Yes,,,Yes,No,No,Mekiet, Yes,0,0,0,0,0,0,0,0,0,
Oromiya,East Hararge,73,Mulwisa health center,927958418,uuid:be086cb8-5d19-49df-af5b-b45110a88f22,,,1,1,1,2,0,matched (3), Yes,10,1,1,1,10,0,1,0,1,0,0,Diagnosis,No, No, No, No, Yes, No, Yes,1,0,0,0,0,0,0,0,0,0,0,0,0,0,0,0, Microscopy  , No,,,Yes,No,No,CHINAKSEN-WEREDA, Yes,0,1,0,0,0,0,0,0,0,
SNNP,Gurage,141,Dinkula hc,113500051,uuid:de938fce-e3fc-4254-b575-5e844cd727a4,,,7,1,1,1,1,matched (3), No,,,,,,,,,,,,"Drugs (coartem, artesunate inj.)",Yes, No, No, No, No, Yes , No,0,0,0,0,0,0,0,0,0,0,0,0,0,0,0,0, Both Microscope and RDT, No,,,No,No,Yes,Endegagne, No,0,0,0,0,0,0,0,0,0,
SNNP,Gurage,129,Tiya Health Center,462640030,uuid:bed73f7d-af51-481a-9b2d-a849e457f8e7,,,17,1,1,1,1,matched (3), No,,,,,,,,,,,,"Drugs (coartem, artesunate inj.)",Yes, No, No, No, No, No, Yes,0,1,0,1,1,0,0,0,1,0,1,1,1,0,0,0, Microscopy  , No,,,Yes,No,No,Sodo, No,0,0,0,0,0,0,0,0,0,
Tigray,Central Tigray,94,May Weyni health center,932256105,uuid:beedcf32-dbe8-4564-84b0-2e08ff9f2908,,,17,0,1,1,1,matched (3), No,,,,,,,,,,,,Diagnosis,Yes, No, No, No, Yes, Yes , No,0,0,0,0,0,0,0,0,0,0,0,0,0,0,0,0, RDT, No,,,No,Yes,No,Lailay Mayichewu, Yes,0,0,0,0,0,0,0,0,1,
Amhara,North Shewa,240,Ambowuha,922369130,uuid:bfcd10b8-6c47-4b33-ab11-c7b42350673e,,,2,0,0,1,0,matched (3), Yes,0,0,1,0,0,0,0,0,0,0,0,"Drugs (coartem, artesunate inj.)",Yes, No, Yes, Yes, Yes, Yes , No,0,0,0,0,0,0,0,0,0,0,0,0,0,0,0,0, Microscopy  , Yes,,,Yes,No,No,Antsokia, Yes,0,0,0,0,0,0,0,0,1,
SNNP,Gurage,132,Hole health center,923123656,uuid:bff07e4a-2455-404f-ac74-bfa1e052eba4,,,14,2,2,1,1,matched (3), No,,,,,,,,,,,,"Drugs (coartem, artesunate inj.)",Yes, No, Yes, No, Yes, Yes , Yes,0,1,0,0,0,1,1,1,0,1,1,0,0,1,1,1, Microscopy  , Yes,,,Yes,No,No,Abshge, Yes,1,0,0,0,0,0,0,0,0,
Oromiya,East Hararge,90,Chelnko HC,913310385,uuid:c062c5d1-06b0-4e87-b5e6-65442ff2bb53,,,1,1,1,1,1,matched (3), Yes,0,1,1,1,1,0,0,4,0,0,0,"Drugs (coartem, artesunate inj.)",Yes, No, No, Yes, Yes, No, Yes,0,0,0,0,0,1,0,0,0,0,0,0,1,1,1,0, Microscopy  , No,,,Yes,No,No,META-WEREDA, Yes,1,0,0,0,0,0,0,0,0,
Tigray,South East,123,Hagereselam primery hospital,046757/,uuid:c07da4e6-9ab0-42d3-bda5-531000aff077,,,0,1,0,0,0,matched (3), No,,,,,,,,,,,,"Drugs (coartem, artesunate inj.)",No, No, No, No, Yes, Yes , Yes,1,0,1,1,1,1,0,1,1,0,0,1,1,0,0,0, Microscopy  , Yes,,,Yes,No,No,Degua Temben, Yes,1,0,0,0,0,0,0,0,0,
Amhara,North Shewa,245,Bergbi H.C,9,uuid:c08ca830-fe14-48b4-a1d4-5069f935551b,,,18,0,0,1,0,matched (3), No,,,,,,,,,,,,"Drugs (coartem, artesunate inj.)",Yes, No, No, Yes, No, Yes , Yes,1,1,1,1,1,1,0,0,0,0,0,1,1,0,1,1, Microscopy  , Yes,,,Yes,No,No,Efrata, Yes,0,0,0,0,0,0,0,0,1,
Oromiya,Arsi,35,Jinga,910771941,uuid:c142c56b-9f0b-40bb-9fbd-ab2e9cb5de65,,,6,0,1,1,0,matched (3), No,,,,,,,,,,,,Diagnosis,No, No, No, No, No, Yes , No,0,0,0,0,0,0,0,0,0,0,0,0,0,0,0,0,other, No,,,No,No,No,GOLOLCHA-WEREDA, No,0,0,0,0,0,0,0,0,0,
Harari,Harer,271,Jugel Hospital,256660170,uuid:c17d8b02-8d85-4b7d-a6e9-6802be40c6ff,,,205,16,19,1,1,matched (3), No,,,,,,,,,,,,Diagnosis,Yes, No, No, No, No, Yes , Yes,0,0,0,0,0,0,0,0,0,1,1,0,1,1,1,1, Microscopy  , Yes,,,Yes,No,No,Harer Ketema, Yes,1,1,1,1,1,1,1,1,1,
Amhara,South Wolo,216,Gerado Health Center,331191414,uuid:c2a54410-680c-412d-9bc1-1de29df43c07,,,6,2,2,1,1,matched (3), Yes,0,0,1,1,0,0,2,0,0,0,0,"Drugs (coartem, artesunate inj.)",No, No, No, No, No, Yes , Yes,0,0,0,0,0,1,0,0,0,1,0,1,0,0,0,0, Microscopy  , Yes,,,Yes,No,No,Dessie town, Yes,0,0,1,0,1,0,0,0,0,
SNNP,Gedeo,194,Kedida giwe health center,0,uuid:c3326262-0b00-4e71-bc64-ab6c5de7bf1a,,,27,2,2,1,1,matched (3), No,,,,,,,,,,,,"Drugs (coartem, artesunate inj.)",No, No, No, No, No, Yes , Yes,1,0,1,0,0,1,1,1,1,1,1,1,1,1,0,0, RDT, No,,,No,Yes,No,Gedeb, No,0,0,0,0,0,0,0,0,0,
Tigray,South Tigray,120,Mekoni   Primeri   Hospital,9147283,uuid:c39aa3f3-c235-431e-8e52-eb5af44cc011,,,23,3,4,1,2,matched (3), Yes,0,2,1,1,1,0,0,1,1,1,0,Diagnosis,Yes, Yes, No, No, No, Yes , No,0,0,0,0,0,0,0,0,0,0,0,0,0,0,0,0, Microscopy  , Yes,,,Yes,No,No,Rya Azebo, No,0,0,0,0,0,0,0,0,0,
Harari,Harer,272,Sofi Health Center,25,uuid:c3b1bbf0-7ad4-40b3-97f1-c337d2e96f0c,,,14,3,3,1,1,matched (3), Yes,1,2,0,0,1,0,0,0,0,0,1,Diagnosis,Yes, Yes, Yes, Yes, Yes, Yes , Yes,0,0,0,0,0,0,0,0,1,0,0,1,0,0,0,0, Microscopy  , Yes,,,Yes,No,No,Sofi, No,0,0,0,0,0,0,0,0,0,
Oromiya,West Hararge,52,Badeyi,912914533,uuid:c420ed38-a053-4e6a-9204-ff97df9a5107,,,1,0,0,1,0,matched (3), Yes,0,0,0,0,4,0,0,0,0,0,0,"Drugs (coartem, artesunate inj.)",No, No, No, No, Yes, Yes , No,0,0,0,0,0,0,0,0,0,0,0,0,0,0,0,0,other, No,,,No,No,No,ANCHAR-WEREDA, Yes,0,0,0,0,0,0,0,0,0,
SNNP,Hadiya,150,Shormo,912044373,uuid:c482c9cc-9dcf-4a5a-ae10-7836e3fcefca,,,27,4,1,1,1,matched (3), No,,,,,,,,,,,,"Drugs (coartem, artesunate inj.)",No, No, No, No, No, Yes , No,0,0,0,0,0,0,0,0,0,0,0,0,0,0,0,0, Microscopy  , No,,,Yes,No,No,Lemo, Yes,0,0,0,0,0,0,0,0,1,
Dire Dawa,Dire Dawa,268,Melka jebdu,251160138,uuid:c4b6ac35-2b57-4240-872b-a64affaffef2,,,34,33,3,1,1,matched (3), Yes,0,2,2,2,0,0,4,0,0,0,0,Diagnosis,Yes, No, Yes, Yes, Yes, Yes , No,0,0,0,0,0,0,0,0,0,0,0,0,0,0,0,0, Microscopy  , Yes,,,Yes,No,No,, Yes,1,1,1,1,1,1,1,1,0,
Oromiya,Arsi,38,Bolo,228990003,uuid:c53f0d39-ab17-493d-921e-db59a8829eba,,,13,2,2,1,1,matched (3), No,,,,,,,,,,,,Diagnosis,No, No, No, No, No, No, No,0,0,0,0,0,0,0,0,0,0,0,0,0,0,0,0, Microscopy  , Yes,,,Yes,No,No,JEJU-WEREDA, No,0,0,0,0,0,0,0,0,0,
Oromiya,Arsi,28,Jida,930668560,uuid:c5b350d8-016d-45d2-8eb4-8e7982340a15,,,5,1,0,1,0,matched (3), No,,,,,,,,,,,,"Drugs (coartem, artesunate inj.)",No, No, No, Yes, Yes, No, No,0,0,0,0,0,0,0,0,0,0,0,0,0,0,0,0, Microscopy  , Yes,,,Yes,No,No,BELE GASGAR-WEREDA, Yes,0,0,0,0,0,0,0,0,0,
Oromiya,Arsi,48,Semer health center,O,uuid:c5d4ac2d-ed56-4dac-a5ea-8ed22d550aaa,,,,,,,,master only (1),,,,,,,,,,,,,,,,,,, Yes , No,0,0,0,0,0,0,0,0,0,0,0,0,0,0,0,0,,,,,,,,SUDE-WEREDA,,,,,,,,,,,
Oromiya,East Hararge,79,Yeka Aman,915136630,uuid:c7e13457-00db-40b5-94a8-e0911540f5d0,,,2,1,1,1,1,matched (3), No,,,,,,,,,,,,Diagnosis,Yes, No, No, No, Yes, No, Yes,0,0,0,0,0,1,0,0,1,1,0,1,1,1,0,1, Microscopy  , No,,,Yes,No,No,GORO GUTU-WEREDA, Yes,1,0,0,0,0,0,0,0,0,
SNNP,Hadiya,142,Amburse health center,916141148,uuid:e019d8d9-1d2c-4c82-9e05-e09af21e4762,,,14,3,4,1,1,matched (3), No,,,,,,,,,,,,"Drugs (coartem, artesunate inj.)",Yes, No, No, No, No, Yes , Yes,0,0,0,0,0,0,0,0,0,0,0,1,0,0,0,0, Both Microscope and RDT, Yes,,,No,No,Yes,Misrak badewacho, Yes,1,0,0,0,0,0,0,0,0,
SNNP,Kembata Timbaro,158,Magare,No phone,uuid:c8c09fd3-3940-4f23-bdec-de9415c027b3,,,19,3,1,1,1,matched (3), No,,,,,,,,,,,,"Drugs (coartem, artesunate inj.)",Yes, No, No, No, Yes, Yes , Yes,0,0,0,0,0,1,0,0,0,0,0,0,0,0,0,0, Microscopy  , No,,,Yes,No,No,Damboya, Yes,0,0,0,0,0,0,0,0,0,
SNNP,Sidama,163,Dongora hc,916781194,uuid:c8d1031b-1211-4879-87df-d5e77ea97f32,,,16,1,1,1,1,matched (3), Yes,1,1,1,1,0,0,0,0,0,0,0,"Drugs (coartem, artesunate inj.)",No, No, No, No, Yes, Yes , Yes,0,0,0,0,0,1,0,0,0,0,0,0,1,1,1,0, Microscopy  , No,,,Yes,No,No,Aleta Chuko, Yes,0,1,0,0,0,0,0,0,0,
Amhara,North Wollo,208,Sirinka Healthy center,333300449,uuid:c92c3e52-f1af-450a-99b8-eb64042215a1,,,1,0,0,1,0,matched (3), No,,,,,,,,,,,,"Drugs (coartem, artesunate inj.)",Yes, No, No, Yes, Yes, Yes , Yes,0,1,0,0,0,1,1,1,1,1,1,0,1,1,1,1, Microscopy  , Yes,,,Yes,No,No,Habru, Yes,0,0,0,0,0,0,0,0,1,
Harari,Harer,272,Harewe Health Center,258920127,uuid:ca7f80a8-d4fe-4625-9d30-e3cea54fad48,,,12,3,3,1,1,matched (3), Yes,1,2,0,0,0,0,0,0,0,0,1,Diagnosis,Yes, Yes, Yes, No, Yes, Yes , Yes,0,0,0,0,0,0,0,0,1,0,0,0,0,0,0,0, Microscopy  , Yes,,,Yes,No,No,Sofi, Yes,1,0,1,1,1,1,1,0,0,
SNNP,Gurage,133,Tatesa wesherbe health center,923062774,uuid:cad80071-a3d8-43ef-9f02-531445e10e6e,,,14,3,3,1,1,matched (3), Yes,2,1,0,0,1,0,1,3,2,0,1,"Drugs (coartem, artesunate inj.)",No, No, Yes, No, Yes, Yes , Yes,0,0,0,0,0,0,0,1,0,1,1,0,1,1,0,1, Microscopy  , Yes,,,Yes,No,No,Kebena, Yes,1,1,0,0,0,0,0,0,0,
Tigray,Central Tigray,103,Adewa  health  center,347711208,uuid:e1e4c175-f911-4782-af81-c9b789aa7548,,,36,2,1,1,1,matched (3), No,,,,,,,,,,,,Diagnosis,No, No, No, No, Yes, Yes , No,0,0,0,0,0,0,0,0,0,0,0,0,0,0,0,0, Both Microscope and RDT, No,,,No,No,Yes,Adwa Town, Yes,0,0,0,0,0,0,0,0,0,
SNNP,Gedeo,194,Kedida gubata,0,uuid:cbb2bf3c-b793-4e92-8247-49c6c1e524f8,,,27,2,2,1,1,matched (3), No,,,,,,,,,,,,"Drugs (coartem, artesunate inj.)",No, No, No, No, No, Yes , Yes,1,0,1,0,0,1,1,1,1,1,1,1,1,1,1,1, RDT, No,,,No,Yes,No,Gedeb, No,0,0,0,0,0,0,0,0,0,
Tigray,South Tigray,116,Shimta Health Center,927760742,uuid:cbf9a517-dfe2-4c4c-9e8a-03586c5ef418,,,15,1,1,1,1,matched (3), No,,,,,,,,,,,,"Drugs (coartem, artesunate inj.)",Yes, No, No, No, Yes, Yes , No,0,0,0,0,0,0,0,0,0,0,0,0,0,0,0,0, Microscopy  , Yes,,,Yes,No,No,Endamehone, No,0,0,0,0,0,0,0,0,0,
SNNP,Hadiya,144,Jemaya Health Center,912444839,uuid:cced5a10-d95d-4f08-ab34-ec952287bf45,,,24,2,2,1,1,matched (3), Yes,2,1,1,1,0,0,0,1,1,0,0,"Drugs (coartem, artesunate inj.)",No, No, No, No, No, Yes , No,0,0,0,0,0,0,0,0,0,0,0,0,0,0,0,0, Microscopy  , Yes,,,Yes,No,No,Shashogo, No,0,0,0,0,0,0,0,0,0,
Oromiya,Arsi,47,Bale kamisa health center,922303010,uuid:cd656cb8-203c-4835-bfca-25f8a8e59105,,,1,2,2,1,1,matched (3), No,,,,,,,,,,,,Diagnosis,Yes, No, Yes, No, Yes, Yes , No,0,0,0,0,0,0,0,0,0,0,0,0,0,0,0,0, Microscopy  , Yes,,,Yes,No,No,SIRE-WEREDA, Yes,1,0,0,0,0,0,0,0,0,
Amhara,South Wolo,228,Tiksie H.c,No.phone number,uuid:cd98d0e3-590f-4f39-b14a-15d22d510c5c,,,5,0,1,1,1,matched (3), No,,,,,,,,,,,,"Drugs (coartem, artesunate inj.)",Yes, No, No, Yes, Yes, Yes , Yes,1,1,1,0,1,0,1,1,1,1,1,0,1,1,1,1, RDT, No,,,No,Yes,No,Legambo, No,0,0,0,0,0,0,0,0,0,
Harari,Harer,273,Ererweldeya health center,258920208,uuid:cea2a58d-1997-4d29-ae70-15d021621dbc,,,10,3,3,1,1,matched (3), Yes,0,2,0,0,0,0,0,0,0,0,0,Diagnosis,Yes, Yes, Yes, No, Yes, Yes , Yes,0,0,0,0,0,0,0,0,0,0,0,1,0,0,0,0, Microscopy  , Yes,,,Yes,No,No,Erer, Yes,1,0,1,1,1,1,1,1,0,
SNNP,Sidama,173,Muchucho HC,0,uuid:cea363fe-6540-4815-a4f8-0f80ce4c7ec2,,,10,1,1,1,1,matched (3), No,,,,,,,,,,,,"Drugs (coartem, artesunate inj.)",No, No, No, No, No, Yes , No,0,0,0,0,0,0,0,0,0,0,0,0,0,0,0,0, Microscopy  , No,,,Yes,No,No,Arbegona, No,0,0,0,0,0,0,0,0,0,
Oromiya,East Hararge,75,Kobo health center,912165090,uuid:e21d0154-6384-4626-a47c-75f09f6d3bb1,,,4,1,1,1,1,matched (3), No,,,,,,,,,,,,Diagnosis,Yes, No, No, No, No, No, Yes,0,0,0,0,0,0,0,0,0,0,0,1,0,0,0,0, Both Microscope and RDT, No,,,No,No,Yes,DEDER-WEREDA, Yes,0,0,0,0,0,0,0,0,0,
SNNP,Kembata Timbaro,160,Sarera health center,913816067,uuid:d0ecdfb3-4fe5-458e-a2df-fc839c5cb4c7,,,11,3,3,1,0,matched (3), No,,,,,,,,,,,,"Drugs (coartem, artesunate inj.)",No, No, No, No, Yes, Yes , No,0,0,0,0,0,0,0,0,0,0,0,0,0,0,0,0, Microscopy  , Yes,,,Yes,No,No,Doyogena, No,0,0,0,0,0,0,0,0,0,
SNNP,Gurage,135,Weyra health center,960198662,uuid:d199fb3a-bf53-4c15-b4f4-bed82eac9e7c,,,4,1,1,1,1,matched (3), No,,,,,,,,,,,,"Drugs (coartem, artesunate inj.)",No, No, No, No, Yes, Yes , No,0,0,0,0,0,0,0,0,0,0,0,0,0,0,0,0, Microscopy  , No,,,Yes,No,No,Enemor Ener, Yes,1,0,0,0,0,0,0,0,1,
SNNP,Gurage,129,Bui Primary Hospital,923434356,uuid:d2333207-1b94-4e49-811d-500644cdc107,,,20,5,5,1,1,matched (3), No,,,,,,,,,,,,"Drugs (coartem, artesunate inj.)",Yes, No, No, No, No, Yes , Yes,1,1,0,0,0,0,0,0,0,0,0,0,0,1,0,1, Microscopy  , Yes,,,Yes,No,No,Sodo, Yes,1,0,0,0,0,0,0,0,0,
SNNP,Gurage,131,Engi Health Center,912174850,uuid:d251e149-4039-494a-bca9-da4a7e411a55,,,9,2,3,1,1,matched (3), Yes,0,0,0,0,0,0,0,0,0,0,0,"Drugs (coartem, artesunate inj.)",No, No, No, No, Yes, Yes , No,0,0,0,0,0,0,0,0,0,0,0,0,0,0,0,0, Microscopy  , No,,,Yes,No,No,Gedebano G/W, Yes,1,0,0,0,0,0,0,0,1,
Amhara,North Shewa,258,Gihur,116340115,uuid:d2675b50-3094-43fe-bab6-1bd8ad9f7c70,,,17,1,2,1,1,matched (3), No,,,,,,,,,,,,"Drugs (coartem, artesunate inj.)",No, Yes, Yes, No, Yes, Yes , No,0,0,0,0,0,0,0,0,0,0,0,0,0,0,0,0, Microscopy  , Yes,,,Yes,No,No,Moretnajiru, No,0,0,0,0,0,0,0,0,0,
SNNP,Sidama,165,J/Dado hc,972692865,uuid:d338536f-ad43-4115-b08d-190670097797,,,42,3,3,1,1,matched (3), Yes,0,1,0,0,0,0,0,0,0,0,0,"Drugs (coartem, artesunate inj.)",No, Yes, Yes, Yes, Yes, Yes , No,0,0,0,0,0,0,0,0,0,0,0,0,0,0,0,0, Microscopy  , Yes,,,Yes,No,No,Awassa Zuria, No,0,0,0,0,0,0,0,0,0,
SNNP,Silitie,196,Tora primary hospital ,0,uuid:d33c0761-d7ed-48d5-8586-752f1a405cd0,,,,,,,,master only (1),,,,,,,,,,,,,,,,,,, Yes , Yes,1,1,0,1,1,1,0,0,1,0,1,1,0,0,1,1, Microscopy  , Yes,,,Yes,No,No,Siliti,,,,,,,,,,,
SNNP,Sidama,165,Unbulo tenkaka,0,uuid:d5efc980-7c10-4549-b352-617fa5091fdb,,,18,2,1,1,1,matched (3), No,,,,,,,,,,,,"Drugs (coartem, artesunate inj.)",No, No, No, No, Yes, No, Yes,1,0,0,0,0,1,0,0,1,1,1,1,1,1,1,1, Microscopy  , No,,,Yes,No,No,Awassa Zuria, No,0,0,0,0,0,0,0,0,0,
SNNP,Gurage,138,Mojer health center,916785049,uuid:d671e361-2cf7-41a9-baa9-f19cd2b76987,,,12,1,1,1,1,matched (3), No,,,,,,,,,,,,"Drugs (coartem, artesunate inj.)",Yes, No, Yes, No, Yes, Yes , Yes,0,0,0,1,0,0,0,0,1,1,1,0,1,1,1,0, Microscopy  , No,,,Yes,No,No,Mhur Aklil, Yes,0,0,0,0,0,0,0,0,1,
Oromiya,East Hararge,71,Erer health center,935625365,uuid:d67ef86e-7d06-494c-b11f-0846eb8220c2,,,1,1,2,1,1,matched (3), No,,,,,,,,,,,,Diagnosis,Yes, Yes, Yes, No, Yes, No, Yes,0,0,0,0,0,0,0,0,1,1,1,0,1,1,1,1, Microscopy  , Yes,,,Yes,No,No,BABILE-WEREDA, Yes,0,0,0,0,0,0,0,0,1,
SNNP,Gurage,140,Eskut hc,914341836,uuid:d6b3bcf4-c033-4fd2-9de0-bd1c5f342d73,,,5,1,1,1,1,matched (3), No,,,,,,,,,,,,"Drugs (coartem, artesunate inj.)",Yes, No, No, No, No, Yes , No,0,0,0,0,0,0,0,0,0,0,0,0,0,0,0,0, Microscopy  , No,,,Yes,No,No,Geta, No,0,0,0,0,0,0,0,0,0,
Amhara,North Wollo,212,Estaysh,338890270,uuid:d72421fa-8096-4362-8c02-08ef89c98fcb,,,4,1,0,1,1,matched (3), No,,,,,,,,,,,,"Drugs (coartem, artesunate inj.)",Yes, No, Yes, Yes, Yes, Yes , Yes,0,0,0,0,0,0,0,0,1,1,0,0,1,1,0,0, Microscopy  , Yes,,,Yes,No,No,Mekiet, Yes,0,0,0,0,0,0,0,0,1,
Tigray,South Tigray,114,Mekelle hospital,344408211,uuid:d732c36c-396f-4954-bda3-a99934904c7c,,,6,1,1,1,1,matched (3), No,,,,,,,,,,,,Diagnosis,No, No, Yes, Yes, No, Yes , No,0,0,0,0,0,0,0,0,0,0,0,0,0,0,0,0, Microscopy  , Yes,,,Yes,No,No,Mekele, Yes,0,0,0,0,0,0,0,0,1,
Tigray,Central Tigray,103,Adewa  general  hospital,347711206,uuid:d760cbc1-481a-4b70-883f-a0d768e8e38d,,,179,11,11,1,4,matched (3), No,,,,,,,,,,,,"Drugs (coartem, artesunate inj.)",Yes, No, No, No, No, Yes , No,0,0,0,0,0,0,0,0,0,0,0,0,0,0,0,0, Microscopy  , No,,,Yes,No,No,Adwa Town, No,0,0,0,0,0,0,0,0,0,
Tigray,South Tigray,121,Merewa   Health   Center,923773080,uuid:e65931a3-1e26-4f54-bcdd-28bb5c3b43d5,,,18,1,2,1,1,matched (3), Yes,0,0,1,0,0,0,0,0,0,0,0,"Drugs (coartem, artesunate inj.)",Yes, Yes, No, No, No, Yes , No,0,0,0,0,0,0,0,0,0,0,0,0,0,0,0,0, Both Microscope and RDT, No,,,No,No,Yes,Alamata, No,0,0,0,0,0,0,0,0,0,
Amhara,South Wolo,223,Faji H.c,No phone number,uuid:d999df5d-c3e9-44df-92d5-5fe28b48c544,,,6,1,1,2,1,matched (3), No,,,,,,,,,,,,Diagnosis,Yes, No, No, Yes, No, Yes , No,0,0,0,0,0,0,0,0,0,0,0,0,0,0,0,0, Microscopy  , No,,,Yes,No,No,Jamma, No,0,0,0,0,0,0,0,0,0,
Oromiya,East Hararge,71,Wayu health center,949319735,uuid:d9cb4c80-8df4-4bc6-bdad-ff797cf76080,,,1,1,2,1,1,matched (3), Yes,0,1,1,0,4,0,0,0,0,0,0,Diagnosis,Yes, No, No, No, Yes, Yes , Yes,1,0,0,0,0,1,0,0,1,1,0,0,1,1,1,1, Microscopy  , No,,,Yes,No,No,BABILE-WEREDA, Yes,1,0,0,0,0,0,0,0,0,
SNNP,Gedeo,191,Chito health center,0,uuid:d9d4e891-6cee-44c1-b5fc-c40d057921b0,,,7,1,1,1,1,matched (3), No,,,,,,,,,,,,Diagnosis,No, No, No, No, Yes, Yes , Yes,0,0,0,0,0,1,0,0,0,0,0,0,0,0,1,0, Microscopy  , No,,,Yes,No,No,Yirgacheffe woreda, No,0,0,0,0,0,0,0,0,0,
Amhara,North Wollo,214,Hamusit health ceanter,No,uuid:da24c9cb-c4bd-4294-8586-4eb9f81d02da,,,2,1,1,1,1,matched (3), No,,,,,,,,,,,,"Drugs (coartem, artesunate inj.)",Yes, Yes, No, Yes, Yes, Yes , No,0,0,0,0,0,0,0,0,0,0,0,0,0,0,0,0, Microscopy  , Yes,,,Yes,No,No,Wadela, Yes,1,0,0,0,0,0,0,0,0,
SNNP,Gurage,136,Yeshere hc,963289200,uuid:da45a9af-8e65-4a61-8cf7-76fce9120077,,,7,2,1,1,1,matched (3), Yes,1,0,0,0,0,0,0,0,0,0,0,"Drugs (coartem, artesunate inj.)",Yes, No, No, No, No, No, Yes,0,0,0,0,0,0,0,0,0,1,0,0,0,0,0,0, RDT, No,,,No,Yes,No,Cheha, No,0,0,0,0,0,0,0,0,0,
Tigray,South Tigray,120,Balla  Health  Center,914239265,uuid:e6bd0060-e512-42ea-8fb7-3413cf0bb2d4,,,16,1,2,1,1,matched (3), No,,,,,,,,,,,,"Drugs (coartem, artesunate inj.)",Yes, Yes, No, No, Yes, Yes , No,0,0,0,0,0,0,0,0,0,0,0,0,0,0,0,0, Both Microscope and RDT, Yes,,,No,No,Yes,Rya Azebo, Yes,0,0,0,0,0,0,0,0,0,
SNNP,Hadiya,145,Gimbichu health center,467720173,uuid:db249350-d897-4d35-becd-a654ef2cfb67,,,41,4,2,2,2,matched (3), Yes,1,0,0,0,0,0,0,4,0,0,0,"Drugs (coartem, artesunate inj.)",No, No, No, No, No, Yes , No,0,0,0,0,0,0,0,0,0,0,0,0,0,0,0,0, Microscopy  , No,,,Yes,No,No,Soro, Yes,0,1,0,0,0,0,0,0,0,
SNNP,Gurage,139,Bola Health Center,913558785,uuid:dbabece3-9523-4d82-a4b9-47f27ab46dfa,,,5,1,1,1,1,matched (3), No,,,,,,,,,,,,"Drugs (coartem, artesunate inj.)",Yes, No, No, Yes, No, Yes , No,0,0,0,0,0,0,0,0,0,0,0,0,0,0,0,0, RDT, No,,,No,Yes,No,Gummer, No,0,0,0,0,0,0,0,0,0,
Amhara,North Shewa,252,Kubate health post,969091692,uuid:ddafd7df-3ed1-4c68-a09b-2b832e2b41d9,,,7,0,1,1,0,matched (3), No,,,,,,,,,,,,No service given for free,Yes, No, No, No, No, No, No,0,0,0,0,0,0,0,0,0,0,0,0,0,0,0,0, RDT, No,,,No,Yes,No,M/Lalo, No,0,0,0,0,0,0,0,0,0,
Amhara,South Wolo,217,Degaga Health Center,0,uuid:ddd2cf53-7f50-4aad-999f-859d9a74956c,,,14,1,2,1,1,matched (3), No,,,,,,,,,,,,"Drugs (coartem, artesunate inj.)",Yes, No, No, Yes, Yes, Yes , Yes,0,0,0,0,0,0,0,0,1,0,0,0,0,1,1,1, Microscopy  , Yes,,,Yes,No,No,Albuko, Yes,0,0,0,0,0,0,1,0,1,
Oromiya,Arsi,28,Bale gasgar,O,uuid:de4fcbf7-89be-465d-a244-44f103b1b1c5,,,0,2,2,1,1,matched (3), No,,,,,,,,,,,,Diagnosis,No, No, No, No, No, Yes , Yes,0,0,0,0,0,0,0,0,0,1,0,0,0,0,1,1, Microscopy  , No,,,Yes,No,No,BELE GASGAR-WEREDA, No,0,0,0,0,0,0,0,0,0,
SNNP,Silitie,197,Archuma wonte Hc,0,uuid:e94774f3-b948-4089-b1df-8a6eb20287ba,,,15,1,1,1,1,matched (3), No,,,,,,,,,,,,"Drugs (coartem, artesunate inj.)",Yes, No, No, No, No, Yes , Yes,0,0,0,0,0,1,0,0,1,1,1,1,1,1,1,1, Both Microscope and RDT, Yes,,,No,No,Yes,Lanifaro, No,0,0,0,0,0,0,0,0,0,
Oromiya,Arsi,28,Bale,228126106,uuid:def3ed88-19ab-4b6a-ae19-7b360aa89147,,,9,1,2,1,1,matched (3), No,,,,,,,,,,,,Diagnosis,No, No, No, No, No, Yes , No,0,0,0,0,0,0,0,0,0,0,0,0,0,0,0,0, RDT, No,,,No,Yes,No,BELE GASGAR-WEREDA, No,0,0,0,0,0,0,0,0,0,
Oromiya,Arsi,31,Wetera Gola health center,920049475,uuid:df344a9e-71c9-44ee-9317-21ca5320b2cf,,,0,0,1,1,1,matched (3), No,,,,,,,,,,,,No service given for free,No, No, No, No, No, No, No,0,0,0,0,0,0,0,0,0,0,0,0,0,0,0,0,other, No,,,No,No,No,DEKSIS-WEREDA, No,0,0,0,0,0,0,0,0,0,
Amhara,North Wollo,205,Gersa health ceanter,No,uuid:dfe86145-463b-4b75-b6a1-c5b065495d44,,,12,1,2,1,1,matched (3), No,,,,,,,,,,,,"Drugs (coartem, artesunate inj.)",Yes, No, No, No, Yes, Yes , No,0,0,0,0,0,0,0,0,0,0,0,0,0,0,0,0, Microscopy  , Yes,,,Yes,No,No,Dawunt, No,0,0,0,0,0,0,0,0,0,
Oromiya,East Hararge,80,muti health center,961003175,uuid:e00a8e00-438e-4e23-a141-df8da7475642,,,4,1,1,1,0,matched (3), No,,,,,,,,,,,,Diagnosis,Yes, No, No, No, No, No, Yes,0,0,0,0,0,0,0,0,0,0,0,0,0,0,0,0, Microscopy  , No,,,Yes,No,No,GORO MUTI, No,0,0,0,0,0,0,0,0,0,
SNNP,Gedeo,189,Kisha HC,916182715,uuid:ea22012f-8bd6-4dd3-9cb4-06e237252b79,,,0,0,0,1,1,matched (3), No,,,,,,,,,,,,"Drugs (coartem, artesunate inj.)",No, No, No, No, No, No, Yes,0,0,0,0,0,1,0,0,1,1,1,1,0,0,0,0, Both Microscope and RDT, No,,,No,No,Yes,Kochore, No,0,0,0,0,0,0,0,0,0,
Oromiya,East Hararge,81,Funyaan hujuba health center,910015759,uuid:e07131b0-fd29-4185-8daf-caf6aaafa7c4,,,2,1,2,1,0,matched (3), No,,,,,,,,,,,,Diagnosis,No, Yes, Yes, Yes, Yes, Yes , Yes,0,0,0,0,0,1,0,0,0,0,0,0,0,0,0,0, Microscopy  , Yes,,,Yes,No,No,GURSUM-WEREDA, Yes,1,0,0,0,0,0,0,0,0,
Oromiya,West Hararge,65,Mole,966085777,uuid:e1699a59-0957-4b78-be46-3a9fb8639b41,,,1,1,1,1,1,matched (3), No,,,,,,,,,,,,No service given for free,Yes, No, No, No, Yes, No, No,0,0,0,0,0,0,0,0,0,0,0,0,0,0,0,0, Microscopy  , Yes,,,Yes,No,No,MESELA-WEREDA, Yes,0,0,0,0,0,0,0,0,0,
SNNP,Silitie,202,Hulbareg health Center,9,uuid:e1c92b50-9b3f-4120-bcf8-81498c61b93a,,,,,,,,master only (1),,,,,,,,,,,,,,,,,,,,,,,,,,,,,,,,,,,,, Microscopy  , Yes,,,Yes,No,No,Wilbareg,,,,,,,,,,,
Amhara,South Wolo,218,Golbo H C,923658805,uuid:e1cbfee0-4504-4bd6-bdd3-86870a39833b,,,13,1,1,1,1,matched (3), No,,,,,,,,,,,,"Drugs (coartem, artesunate inj.)",Yes, No, No, Yes, No, Yes , No,0,0,0,0,0,0,0,0,0,0,0,0,0,0,0,0,other, No,,,No,No,No,Ambasel, Yes,0,0,0,0,0,0,0,0,0,
Tigray,South Tigray,121,Selen wuha Health center,914485443,uuid:ea6e0736-16a9-4742-8653-aa5d60121975,,,9,1,1,1,0,matched (3), Yes,0,0,0,0,1,0,0,1,0,0,0,Diagnosis,Yes, No, Yes, No, Yes, Yes , No,0,0,0,0,0,0,0,0,0,0,0,0,0,0,0,0, Both Microscope and RDT, Yes,,,No,No,Yes,Alamata, No,0,0,0,0,0,0,0,0,0,
Oromiya,Arsi,35,Haro,921484761,uuid:e1fa13ee-3345-407f-9110-4188cd5c02b6,,,3,1,1,0,1,matched (3), No,,,,,,,,,,,,Diagnosis,No, No, No, No, No, Yes , Yes,0,0,0,0,0,0,0,0,1,1,0,0,1,1,0,0, Microscopy  , No,,,Yes,No,No,GOLOLCHA-WEREDA, No,0,0,0,0,0,0,0,0,0,
Tigray,South Tigray,116,Mesiwit   Health  Center,343190145,uuid:eb1cc04b-4aad-47b0-bcb8-c36784b2b184,,,15,1,2,1,1,matched (3), No,,,,,,,,,,,,"Drugs (coartem, artesunate inj.)",Yes, Yes, Yes, No, Yes, Yes , No,0,0,0,0,0,0,0,0,0,0,0,0,0,0,0,0, Both Microscope and RDT, Yes,,,No,No,Yes,Endamehone, Yes,0,0,0,0,0,0,0,0,0,
SNNP,Silitie,201,Wero Health Center,0,uuid:e267aa39-fa71-4f9e-9d51-944d2f32b5af,,,9,1,1,1,1,matched (3), No,,,,,,,,,,,,"Drugs (coartem, artesunate inj.)",Yes, No, No, No, No, No, No,0,0,0,0,0,0,0,0,0,0,0,0,0,0,0,0, Microscopy  , No,,,Yes,No,No,Misirak Azerenet Berbere, No,0,0,0,0,0,0,0,0,0,
SNNP,Gedeo,191,Konga health center,0,uuid:e29fe740-93fc-476c-b1de-11308689fa9f,,,7,2,2,1,1,matched (3), No,,,,,,,,,,,,"Drugs (coartem, artesunate inj.)",Yes, No, No, No, No, Yes , Yes,0,0,0,0,0,0,1,1,1,1,1,1,1,1,1,1, Microscopy  , No,,,Yes,No,No,Yirgacheffe woreda, Yes,0,0,0,0,0,0,0,0,1,
SNNP,Hadiya,149,Bure bushana,915623910,uuid:e312d4c5-e2dc-4149-a5c2-ea2ac85d07cd,,,4,3,2,1,1,matched (3), No,,,,,,,,,,,,"Drugs (coartem, artesunate inj.)",No, No, No, No, Yes, Yes , No,0,0,0,0,0,0,0,0,0,0,0,0,0,0,0,0, Microscopy  , No,,,Yes,No,No,Duna, Yes,1,1,1,1,1,0,1,0,0,
SNNP,Gurage,133,Tatesa wesherbe HC,923062774,uuid:e3205e76-6b97-43d9-a91a-9d83837a0163,,,14,3,3,1,1,matched (3), Yes,2,1,0,0,1,0,1,3,2,0,1,"Drugs (coartem, artesunate inj.)",No, No, Yes, No, Yes, Yes , No,0,0,0,0,0,0,0,0,0,0,0,0,0,0,0,0, Microscopy  , Yes,,,Yes,No,No,Kebena, Yes,1,1,0,0,0,0,0,0,0,
SNNP,Kembata Timbaro,160,Doyogena primary hospital,910339571,uuid:e3591bcd-5c8b-4a3e-ba23-bc8b52d4fde7,,,12,7,7,1,1,matched (3), No,,,,,,,,,,,,"Drugs (coartem, artesunate inj.)",No, No, No, No, No, Yes , Yes,0,0,0,0,0,0,0,0,0,0,0,1,0,0,0,0, Microscopy  , No,,,Yes,No,No,Doyogena, Yes,0,0,0,0,0,0,0,0,1,
Oromiya,East Hararge,76,Riski Health Center,946894951,uuid:e38a3e53-1bab-4bac-81dd-9a6c6b698843,,,9,3,1,1,1,matched (3), Yes,0,0,0,0,0,0,0,0,0,0,0,"Drugs (coartem, artesunate inj.)",No, No, No, Yes, Yes, No, Yes,0,0,0,0,0,1,0,0,1,1,0,0,0,0,0,0,other, No,,,No,No,No,FEDIS-WEREDA, No,0,0,0,0,0,0,0,0,0,
SNNP,Sidama,182,Banko markos hc,916189178,uuid:e3bd9617-aa0c-4905-a13d-caeff04f347e,,,17,1,0,1,1,matched (3), No,,,,,,,,,,,,No service given for free,No, No, No, No, No, Yes , Yes,1,0,0,0,0,1,1,1,0,1,1,1,0,0,0,0, Microscopy  , No,,,Yes,No,No,Dara, No,0,0,0,0,0,0,0,0,0,
Tigray,Eastern Tigray,111,Tekli swuat h/c,344450220,uuid:e3f7a48f-0db1-4468-9510-52cc687c15ef,,,29,1,1,1,1,matched (3), No,,,,,,,,,,,,"Drugs (coartem, artesunate inj.)",No, No, No, No, Yes, Yes , No,0,0,0,0,0,0,0,0,0,0,0,0,0,0,0,0, Microscopy  , Yes,,,Yes,No,No,Adi Girat Town, No,0,0,0,0,0,0,0,0,0,
Oromiya,Arsi,33,Dhera,223330455,uuid:ee504780-fc55-4c32-8836-029f62c26a73,,,6,2,2,1,1,matched (3), No,,,,,,,,,,,,Diagnosis,No, No, No, Yes, No, Yes , Yes,0,0,0,0,0,0,0,0,0,0,1,0,0,1,0,1, Both Microscope and RDT, No,,,No,No,Yes,DODOTA-WEREDA, No,0,0,0,0,0,0,0,0,0,
Amhara,North Shewa,260,Anche Kore.wayou,921139550,uuid:e4a7bf0a-003f-48dc-b736-f6e120e5711d,,,5,1,2,1,1,matched (3), No,,,,,,,,,,,,"Drugs (coartem, artesunate inj.)",Yes, No, No, No, Yes, Yes , No,0,0,0,0,0,0,0,0,0,0,0,0,0,0,0,0, Microscopy  , No,,,Yes,No,No,Siadebr, Yes,1,0,1,1,1,1,1,0,0,
SNNP,Sidama,174,TetichaHc,No,uuid:e4c2f4d7-8e9f-4b1b-b762-51852b013ce6,,,30,2,4,1,1,matched (3), No,,,,,,,,,,,,No service given for free,No, No, No, No, No, Yes , No,0,0,0,0,0,0,0,0,0,0,0,0,0,0,0,0, Microscopy  , No,,,Yes,No,No,Hula, No,0,0,0,0,0,0,0,0,0,
Tigray,Eastern Tigray,106,Edaga hamus health center,347730475,uuid:eefa17b6-6206-4af3-99c9-4fabc695a722,,,8,1,1,1,1,matched (3), No,,,,,,,,,,,,Diagnosis,No, No, No, No, Yes, Yes , No,0,0,0,0,0,0,0,0,0,0,0,0,0,0,0,0, Both Microscope and RDT, Yes,,,No,No,Yes,Saesi Tsadamba, Yes,0,0,0,0,0,0,0,0,0,
Oromiya,East Hararge,82,Haremaya hospital,256660239,uuid:e5d4df82-2a2d-471a-abd6-e8684a89a416,,,4,4,9,1,1,matched (3), No,,,,,,,,,,,,"Drugs (coartem, artesunate inj.)",No, No, No, No, No, Yes , Yes,0,0,0,0,0,0,0,0,1,1,0,0,1,1,1,1, Microscopy  , Yes,,,Yes,No,No,HAROMAYA-TOWN, No,0,0,0,0,0,0,0,0,0,
Tigray,South Tigray,122,Alamata  Hospital,347740251,uuid:e5f8e0e3-b391-4fa5-9419-70528b164170,,,126,13,21,1,4,matched (3), No,,,,,,,,,,,,"Drugs (coartem, artesunate inj.)",Yes, No, No, No, No, Yes , No,0,0,0,0,0,0,0,0,0,0,0,0,0,0,0,0, Microscopy  , Yes,,,Yes,No,No,Alamata Town, No,0,0,0,0,0,0,0,0,0,
SNNP,Hadiya,149,Kekicho health Center,5895,uuid:e6269c01-8015-4f31-a564-e1e5884a9159,,,28,2,2,1,1,matched (3), No,,,,,,,,,,,,"Drugs (coartem, artesunate inj.)",No, No, No, No, No, No, No,0,0,0,0,0,0,0,0,0,0,0,0,0,0,0,0, RDT, No,,,No,Yes,No,Duna, No,0,0,0,0,0,0,0,0,0,
Oromiya,Arsi,44,Seru,224740005,uuid:f70226cd-6e21-47cc-b79d-035ae8485697,,,5,1,1,1,0,matched (3), No,,,,,,,,,,,,Diagnosis,No, No, No, No, No, Yes , No,0,0,0,0,0,0,0,0,0,0,0,0,0,0,0,0, Both Microscope and RDT, No,,,No,No,Yes,SERU-WEREDA, No,0,0,0,0,0,0,0,0,0,
Amhara,North Shewa,246,Salish,912907063,uuid:e65dd967-67b7-403c-a154-a018bf42014c,,,4,1,2,1,0,matched (3), No,,,,,,,,,,,,"Drugs (coartem, artesunate inj.)",Yes, No, No, No, Yes, Yes , Yes,0,0,0,0,0,0,0,0,0,1,1,0,0,1,0,1, Microscopy  , No,,,Yes,No,No,Ensaro, Yes,0,0,0,0,0,0,0,0,0,
Amhara,North Wollo,213,Gulsha,913280933,uuid:e6aa9b01-bb25-45f2-bbe1-bf377e067e37,,,1,0,0,1,0,matched (3), No,,,,,,,,,,,,"Drugs (coartem, artesunate inj.)",Yes, No, No, No, No, Yes , Yes,0,0,0,0,0,1,0,0,0,0,0,1,0,0,0,1, RDT, No,,,No,Yes,No,Raya Kobo, Yes,0,0,0,0,0,0,0,0,0,
SNNP,Sidama,178,Mejo hc,921453307,uuid:2d8f40b2-e8a7-4040-a616-66abfe91f597,,,12,2,2,1,1,matched (3), No,,,,,,,,,,,,"Drugs (coartem, artesunate inj.)",No, No, No, No, No, Yes , Yes,0,1,1,1,1,0,1,1,0,0,0,0,1,0,1,0, Both Microscope and RDT, No,,,No,No,Yes,Aroresa, No,0,0,0,0,0,0,0,0,0,
SNNP,Sidama,186,Adare HC,912050746,uuid:e6fafeb4-7912-49e4-a5ee-8c2a5cfbdb68,,,1,0,0,1,0,matched (3), Yes,0,0,1,0,0,0,12,0,0,0,0,"Drugs (coartem, artesunate inj.)",No, No, No, Yes, No, Yes , Yes,0,0,0,0,0,1,0,0,1,1,1,1,0,1,1,1, Microscopy  , No,,,Yes,No,No,Hawassa  town, No,0,0,0,0,0,0,0,0,0,
Amhara,North Shewa,239,Gorebela Health Center,920633425,uuid:e735858e-bfbb-4750-b69f-79094ba756c7,,,8,2,3,1,1,matched (3), No,,,,,,,,,,,,"Drugs (coartem, artesunate inj.)",No, No, No, No, No, Yes , Yes,1,1,1,1,1,1,1,1,1,1,1,1,1,1,0,0, Microscopy  , No,,,Yes,No,No,Ankober, Yes,0,0,0,0,0,0,0,0,1,
Amhara,North Shewa,245,Jewuha H.C,963603066,uuid:e7c47054-bde0-4ed6-9f1c-ff2ab417aa97,,,1,0,0,1,0,matched (3), No,,,,,,,,,,,,"Drugs (coartem, artesunate inj.)",Yes, No, No, No, No, Yes , No,0,0,0,0,0,0,0,0,0,0,0,0,0,0,0,0, Microscopy  , Yes,,,Yes,No,No,Efrata, Yes,0,0,0,0,0,0,0,0,1,
Oromiya,West Hararge,55,Senbeti HC,No,uuid:e7d7cca2-d484-4e31-b9a1-30640bfda9c0,,,6,0,1,1,1,matched (3), Yes,0,0,0,0,3,0,0,0,0,0,0,Diagnosis,Yes, Yes, Yes, Yes, Yes, Yes , Yes,0,0,0,1,0,1,0,0,1,1,1,0,1,1,1,1, RDT, No,,,No,Yes,No,BURKA DIMTU, No,0,0,0,0,0,0,0,0,0,
SNNP,Gurage,139,Jenboro Health Center,912242483,uuid:e8c866c5-f09e-41f4-9300-da867b50f4d8,,,4,1,1,1,1,matched (3), No,,,,,,,,,,,,Drugs (quinine and chloroquine),Yes, No, No, No, No, Yes , No,0,0,0,0,0,0,0,0,0,0,0,0,0,0,0,0, RDT, No,,,No,Yes,No,Gummer, No,0,0,0,0,0,0,0,0,0,
Amhara,North Wollo,208,Wergisa,033 33200,uuid:e8f7f31a-39a8-44c2-86e6-ff234a601a8d,,,1,0,0,1,0,matched (3), Yes,0,1,0,0,0,0,0,0,1,0,0,"Drugs (coartem, artesunate inj.)",Yes, No, No, Yes, Yes, Yes , Yes,0,0,0,0,0,0,1,1,0,0,0,0,0,1,0,0, Microscopy  , Yes,,,Yes,No,No,Habru, Yes,1,0,0,0,0,0,0,0,1,
SNNP,Gurage,140,Qunta perymer Hospital,912120285,uuid:e91a82db-88c6-48ee-a63b-15ca807d855d,,,8,2,4,1,1,matched (3), No,,,,,,,,,,,,"Drugs (coartem, artesunate inj.)",Yes, No, No, No, No, Yes , No,0,0,0,0,0,0,0,0,0,0,0,0,0,0,0,0, Microscopy  , No,,,Yes,No,No,Geta, No,0,0,0,0,0,0,0,0,0,
SNNP,Hadiya,146,Amboro Health center,916897654,uuid:e92a7f17-c4ef-45c7-9dac-9df5e2206474,,,8,1,1,1,2,matched (3), No,,,,,,,,,,,,"Drugs (coartem, artesunate inj.)",No, No, No, No, No, Yes , No,0,0,0,0,0,0,0,0,0,0,0,0,0,0,0,0, RDT, No,,,No,Yes,No,Gibe, No,0,0,0,0,0,0,0,0,0,
SNNP,Sidama,168,Dobe toga,916498837,uuid:574cc300-fbe6-4e18-9e85-18fb273c28a6,,,0,1,2,1,871,matched (3), No,,,,,,,,,,,,"Drugs (coartem, artesunate inj.)",Yes, No, No, No, No, No, Yes,1,1,1,1,1,0,1,1,1,1,1,1,1,1,1,1, Both Microscope and RDT, Yes,,,No,No,Yes,Shebedino, Yes,0,0,0,0,0,0,0,0,0,
SNNP,Sidama,173,Toshine,O,uuid:ea1081a7-b69f-4434-979b-e0826f651913,,,0,1,1,1,1,matched (3), No,,,,,,,,,,,,"Drugs (coartem, artesunate inj.)",No, No, No, No, No, Yes , Yes,0,0,0,0,0,1,1,1,1,0,0,0,0,0,0,0, Microscopy  , Yes,,,Yes,No,No,Arbegona, Yes,0,0,0,0,0,0,0,0,0,
SNNP,Silitie,198,Jiro Health Center,910039565,uuid:645eeb44-b40e-47a0-8b9e-3c0945a8ab6e,,,9,1,1,1,1,matched (3), No,,,,,,,,,,,,Consultation time (for card),Yes, No, No, Yes, No, Yes , Yes,0,0,1,1,1,0,0,0,1,0,0,0,0,0,0,0, Both Microscope and RDT, No,,,No,No,Yes,MIRAB AZERNET BERBERE, Yes,0,0,0,0,0,0,0,0,1,
Amhara,North Shewa,257,Seladingay,116250078,uuid:7af47276-dd82-4c04-a5d8-23fe0edc74d4,,,3,0,0,1,0,matched (3), No,,,,,,,,,,,,"Drugs (coartem, artesunate inj.)",Yes, No, No, No, Yes, Yes , Yes,1,0,0,0,1,1,0,0,0,1,1,1,0,1,1,1, Both Microscope and RDT, Yes,,,No,No,Yes,Mojana, No,0,0,0,0,0,0,0,0,0,
Tigray,South Tigray,120,Mehoni primery Hospital,914728392,uuid:eaf02ef1-3f2f-41ed-8783-7744fe253936,,,23,3,4,1,2,matched (3), Yes,0,2,1,1,1,0,0,1,1,1,0,Diagnosis,Yes, Yes, No, No, No, Yes , No,0,0,0,0,0,0,0,0,0,0,0,0,0,0,0,0, Microscopy  , No,,,Yes,No,No,Rya Azebo, No,0,0,0,0,0,0,0,0,0,
SNNP,Hadiya,150,Jewe health center,961471875,uuid:eb06da68-185c-48be-acbe-50e786469fa3,,,14,4,1,1,1,matched (3), No,,,,,,,,,,,,"Drugs (coartem, artesunate inj.)",No, No, No, No, No, Yes , Yes,0,0,0,0,0,1,0,0,1,0,0,0,0,0,0,0, RDT, No,,,No,Yes,No,Lemo, No,0,0,0,0,0,0,0,0,0,
Amhara,North Shewa,239,Gorgo,912976723,uuid:eb110bf8-d0b1-4ccf-9132-9b298949491d,,,7,0,2,0,0,matched (3), No,,,,,,,,,,,,Diagnosis,No, No, No, No, Yes, Yes , Yes,0,0,0,0,0,1,0,0,0,0,0,0,0,0,0,0, RDT, No,,,No,Yes,No,Ankober, No,0,0,0,0,0,0,0,0,0,
Oromiya,Arsi,48,Semar health center,228120327,uuid:98bb8a57-90f1-42eb-9bc0-ae978f781583,,,1,1,1,1,1,matched (3), No,,,,,,,,,,,,Diagnosis,No, No, No, No, No, Yes , Yes,0,0,1,1,1,0,0,0,1,0,1,0,1,1,1,1, Both Microscope and RDT, Yes,,,No,No,Yes,SUDE-WEREDA, No,0,0,0,0,0,0,0,0,0,
SNNP,Sidama,167,Chanico,No,uuid:ebe44c51-6341-43e9-96b4-702145868577,,,20,2,1,1,1,matched (3), No,,,,,,,,,,,,"Drugs (coartem, artesunate inj.)",No, No, No, No, No, Yes , Yes,0,0,0,0,0,1,0,0,0,0,0,1,1,0,1,0, Microscopy  , No,,,Yes,No,No,Loka Abaya, Yes,0,0,0,0,0,0,0,0,1,
SNNP,Sidama,169,Aruma H/c,979842319,uuid:aa212d33-98de-4933-b805-20c88f041b04,,,2,4,2,1,1,matched (3), No,,,,,,,,,,,,"Drugs (coartem, artesunate inj.)",No, No, No, No, Yes, Yes , Yes,1,1,0,0,1,0,0,0,0,0,0,0,0,0,1,1, Both Microscope and RDT, No,,,No,No,Yes,Wondo Genet, No,0,0,0,0,0,0,0,0,0,
SNNP,Gedeo,189,Biloya HC,916428371,uuid:ecf81dcd-b102-4243-bd0c-4b4130ccd572,,,0,0,0,1,1,matched (3), No,,,,,,,,,,,,"Drugs (coartem, artesunate inj.)",No, No, No, No, No, No, Yes,0,0,0,0,0,1,0,0,1,0,1,1,1,1,1,1, RDT, No,,,No,Yes,No,Kochore, No,0,0,0,0,0,0,0,0,0,
Amhara,North Shewa,254,Alem  ketema  Enat  Hospital,111320138,uuid:ed06550e-caff-4f31-8d6a-7c8766c1e2d4,,,20,8,10,1,1,matched (3), No,,,,,,,,,,,,"Drugs (coartem, artesunate inj.)",Yes, No, No, No, No, No, Yes,1,0,0,1,0,1,0,0,1,1,0,1,1,0,1,1, Microscopy  , Yes,,,Yes,No,No,Merhabete, Yes,1,0,1,1,1,1,0,1,0,
SNNP,Hadiya,142,Cheffa health center,913342326,uuid:edca67a8-8a82-439a-89e1-7c9c5967cc92,,,30,2,2,1,1,matched (3), No,,,,,,,,,,,,"Drugs (coartem, artesunate inj.)",No, No, No, No, No, Yes , No,0,0,0,0,0,0,0,0,0,0,0,0,0,0,0,0, Microscopy  , Yes,,,Yes,No,No,Misrak badewacho, Yes,1,0,0,0,0,0,0,0,0,
SNNP,Sidama,169,Chuko,Chuko HC,uuid:e47a32f2-348f-4c23-b309-07c194febd63,,,5,3,3,1,1,matched (3), No,,,,,,,,,,,,"Drugs (coartem, artesunate inj.)",No, No, No, No, Yes, Yes , Yes,0,0,0,0,1,0,0,0,0,1,1,0,1,0,1,1, Both Microscope and RDT, No,,,No,No,Yes,Wondo Genet, No,0,0,0,0,0,0,0,0,0,
Amhara,South Wolo,236,Arabati Health center,914063608,uuid:eecfd12f-955f-4d5b-9dd8-7339a1fa0f3c,,,9,9,1,1,1,matched (3), Yes,0,0,0,0,1,0,0,0,0,0,0,Diagnosis,Yes, No, No, No, No, Yes , Yes,1,1,1,1,1,1,0,1,1,0,0,0,0,0,1,0, RDT, No,,,No,Yes,No,Worebabo, No,0,0,0,0,0,0,0,0,0,
SNNP,Silitie,197,Adazer hc,0,uuid:e5591f54-ff13-4519-924e-165134571f54,,,13,1,0,1,1,matched (3), No,,,,,,,,,,,,Diagnosis,Yes, No, No, No, No, Yes , Yes,1,1,0,0,1,1,0,0,1,1,1,1,1,1,1,1, Both Microscope and RDT, No,,,No,No,Yes,Lanifaro, Yes,0,0,0,0,0,0,0,0,1,
Amhara,South Wolo,233,Haik H c,332220456,uuid:efa41857-9676-4446-9f42-98f0f1e743d9,,,21,3,4,1,1,matched (3), No,,,,,,,,,,,,"Drugs (coartem, artesunate inj.)",Yes, No, Yes, Yes, No, Yes , Yes,0,1,0,0,0,1,1,1,0,0,1,0,1,1,0,1, Microscopy  , Yes,,,Yes,No,No,Tehuledeire, Yes,1,1,1,0,0,0,0,0,1,
SNNP,Sidama,186,Millennium HC,46220088322,uuid:efbb73b9-e350-4d81-8368-d5084441517c,,,0,0,0,1,0,matched (3), No,,,,,,,,,,,,Diagnosis,No, No, No, Yes, Yes, Yes , No,0,0,0,0,0,0,0,0,0,0,0,0,0,0,0,0, Microscopy  , No,,,Yes,No,No,Hawassa  town, No,0,0,0,0,0,0,0,0,0,
Tigray,Central Tigray,96,Enticho  primary  hospital,933226008,uuid:efd6ec50-4799-4d3f-b966-6bd66110588a,,,45,3,3,1,1,matched (3), No,,,,,,,,,,,,"Drugs (coartem, artesunate inj.)",Yes, No, Yes, No, Yes, Yes , No,0,0,0,0,0,0,0,0,0,0,0,0,0,0,0,0, Microscopy  , Yes,,,Yes,No,No,Ahiferom, Yes,0,0,0,0,0,0,0,0,0,
Oromiya,West Hararge,56,Yabdo Shenbeko,0,uuid:efe4b308-8b67-433d-a1d0-a2846a423b84,,,6,1,2,1,1,matched (3), Yes,0,0,1,1,1,0,0,0,1,0,0,Diagnosis,No, No, No, No, Yes, Yes , Yes,1,0,0,0,1,1,0,0,0,0,0,1,0,0,0,0, Microscopy  , No,,,Yes,No,No,CHIRO ZURIA WEREDA, Yes,0,0,0,0,0,0,0,0,0,
Amhara,South Wolo,234,Tenta HC,331170019,uuid:eff9a268-f51e-4d9c-b4b7-7bb2e20d7301,,,17,1,2,1,1,matched (3), No,,,,,,,,,,,,"Drugs (coartem, artesunate inj.)",Yes, No, Yes, No, Yes, Yes , No,0,0,0,0,0,0,0,0,0,0,0,0,0,0,0,0, Microscopy  , Yes,,,Yes,No,No,Tenta, Yes,0,0,0,0,0,0,0,0,1,
Amhara,South Wolo,229,Aselel H.c,No. Phone number,uuid:f09cbf5f-036a-462d-8ed5-535d1491188a,,,4,1,0,1,1,matched (3), No,,,,,,,,,,,,Diagnosis,Yes, No, No, No, No, Yes , No,0,0,0,0,0,0,0,0,0,0,0,0,0,0,0,0, RDT, No,,,No,Yes,No,Legehida, No,0,0,0,0,0,0,0,0,0,
Oromiya,Arsi,26,Chefa kuyu H/c,920397114,uuid:f1e3e73a-236b-4f92-90ea-78649a6e00b1,,,10,1,1,1,1,matched (3), Yes,0,0,1,0,0,0,0,1,0,0,0,Diagnosis,No, No, No, No, Yes, No, Yes,0,0,0,0,0,0,0,0,1,1,0,0,0,0,1,0, Microscopy  , No,,,Yes,No,No,ASEKO-WEREDA, Yes,0,0,0,0,0,0,0,0,1,
Amhara,South Wolo,217,Tossa Fellana,331191215,uuid:f1f6c06d-d702-4828-a2f4-1f006fe04ac2,,,14,1,2,1,0,matched (3), No,,,,,,,,,,,,"Drugs (coartem, artesunate inj.)",Yes, No, Yes, Yes, Yes, Yes , No,0,0,0,0,0,0,0,0,0,0,0,0,0,0,0,0, Microscopy  , Yes,,,Yes,No,No,Albuko, Yes,0,0,0,0,0,0,0,0,0,
Oromiya,East Hararge,71,Awsharif health center,911552611,uuid:f28bbc41-73fa-4e28-8470-88b321829a1f,,,6,2,2,1,1,matched (3), No,,,,,,,,,,,,Diagnosis,Yes, Yes, Yes, No, Yes, Yes , Yes,1,0,0,0,0,1,1,0,1,1,1,0,0,1,1,1, Microscopy  , No,,,Yes,No,No,BABILE-WEREDA, No,0,0,0,0,0,0,0,0,0,
SNNP,Sidama,182,Qawado Hospital,466600173,uuid:f2a3d673-038f-45d7-b428-9750a693ef06,,,70,7,3,1,2,matched (3), No,,,,,,,,,,,,"Drugs (coartem, artesunate inj.)",No, Yes, Yes, No, Yes, Yes , Yes,0,0,0,0,0,1,0,0,0,0,0,1,0,0,0,0, Microscopy  , No,,,Yes,No,No,Dara, Yes,0,0,0,0,0,0,1,0,0,
SNNP,Sidama,181,Gajaba,916073600,uuid:f2c3be5b-faca-4e1c-9591-66f0f3d0982a,,,5,2,1,1,1,matched (3), No,,,,,,,,,,,,Diagnosis,No, No, No, No, No, Yes , No,0,0,0,0,0,0,0,0,0,0,0,0,0,0,0,0, RDT, No,,,No,Yes,No,Wensho, No,0,0,0,0,0,0,0,0,0,
Amhara,South Wolo,228,Hidar 11 Hospital,033114 0490,uuid:f2cc3c65-3846-4eeb-8ed7-fee993afdbb9,,,23,9,11,1,1,matched (3), No,,,,,,,,,,,,"Drugs (coartem, artesunate inj.)",Yes, No, No, No, No, Yes , Yes,1,1,0,0,1,1,1,1,1,1,1,0,0,1,1,1, Microscopy  , Yes,,,Yes,No,No,Legambo, No,0,0,0,0,0,0,0,0,0,
SNNP,Sidama,184,Daye towon Hc,No,uuid:f340d93d-8ece-4e08-a4aa-56be748e86fc,,,26,4,3,0,1,matched (3), No,,,,,,,,,,,,"Drugs (coartem, artesunate inj.)",Yes, No, No, No, No, Yes , Yes,0,0,0,0,0,1,0,0,1,0,0,1,0,0,0,0, Microscopy  , Yes,,,Yes,No,No,, No,0,0,0,0,0,0,0,0,0,
Oromiya,West Hararge,55,Kurfa roka Health Center,251191171,uuid:f3ea17f3-5a0b-4cd4-8f0f-ded379afd714,,,2,1,1,1,1,matched (3), No,,,,,,,,,,,,Diagnosis,No, Yes, Yes, Yes, Yes, Yes , Yes,1,1,1,1,1,1,0,0,1,1,1,1,1,0,1,1, Microscopy  , No,,,Yes,No,No,BURKA DIMTU, Yes,0,0,0,0,0,0,0,0,0,
SNNP,Kembata Timbaro,157,Angecha Hc,465540562,uuid:f3f2881d-503b-4ad5-8e89-c7fc187b63de,,,26,3,2,1,1,matched (3), No,,,,,,,,,,,,"Drugs (coartem, artesunate inj.)",Yes, No, No, No, Yes, Yes , Yes,0,0,0,0,0,1,0,0,0,0,0,0,0,0,0,0, Microscopy  , Yes,,,Yes,No,No,Angacha, No,0,0,0,0,0,0,0,0,0,
SNNP,Gedeo,194,Banko gotiti,0,uuid:f46fef60-3adc-4ace-9d5c-d64e2e1ff29a,,,5,3,1,1,1,matched (3), No,,,,,,,,,,,,Diagnosis,No, No, No, No, No,,,,,,,,,,,,,,,,,,, Microscopy  , No,,,Yes,No,No,Gedeb, No,0,0,0,0,0,0,0,0,0,
Oromiya,West Hararge,63,Cheffe HC,912950880,uuid:f4c75c5a-cd08-4d0b-a4d1-f611e78dbe55,,,7,0,0,1,0,matched (3), Yes,0,0,0,0,3,0,0,0,0,0,0,Diagnosis,Yes, No, No, No, Yes, No, Yes,1,1,1,1,1,1,0,0,1,1,1,0,1,1,1,1,other, No,,,No,No,No,HABRO-WEREDA, No,0,0,0,0,0,0,0,0,0,
Amhara,South Wolo,237,Kabi H.c,No. Phone number,uuid:f5decf11-ff78-445a-8220-2b0e22a80a6d,,,6,1,2,1,1,matched (3), No,,,,,,,,,,,,Diagnosis,Yes, No, No, Yes, No, Yes , No,0,0,0,0,0,0,0,0,0,0,0,0,0,0,0,0, Microscopy  , No,,,Yes,No,No,Woreillu, No,0,0,0,0,0,0,0,0,0,
SNNP,Gurage,127,Udessa Health Center,916989226,uuid:f5e70cb2-d6ef-44ed-8b14-6afc52d29f55,,,32,2,1,1,1,matched (3), No,,,,,,,,,,,,"Drugs (coartem, artesunate inj.)",Yes, No, No, No, No, No, No,0,0,0,0,0,0,0,0,0,0,0,0,0,0,0,0, Microscopy  , No,,,Yes,No,No,Mareko, Yes,0,0,0,0,0,0,0,0,0,
Oromiya,West Hararge,54,Hatura Health Center,No,uuid:f68cea5a-3083-4264-90cb-d24c1c2cbec3,,,4,1,1,1,1,matched (3), No,,,,,,,,,,,,Diagnosis,No, No, No, Yes, Yes, Yes , Yes,0,0,0,0,0,0,0,0,0,0,0,0,0,0,0,0, Microscopy  , No,,,Yes,No,No,BOKE-WEREDA, No,0,0,0,0,0,0,0,0,0,
SNNP,Silitie,201,Adazer Health center,0,uuid:ebfd51df-59cb-403d-8482-35d8b70a6768,,,13,1,0,1,1,matched (3), No,,,,,,,,,,,,Diagnosis,Yes, No, No, No, No, Yes , Yes,1,1,1,1,1,1,0,0,1,1,1,1,1,1,1,1, Both Microscope and RDT, No,,,No,No,Yes,Misirak Azerenet Berbere, Yes,0,0,0,0,0,0,0,0,1,
SNNP,Sidama,174,Gatama H.C,No,uuid:f749cc48-f545-467c-bc6d-58422a8cadd1,,,16,0,2,1,1,matched (3), No,,,,,,,,,,,,No service given for free,Yes, No, No, No, No, Yes , Yes,0,0,0,0,0,1,0,0,0,0,0,1,0,0,1,1,other, No,,,No,No,No,Hula, No,0,0,0,0,0,0,0,0,0,
Tigray,South East,123,Endamariam,924381854,uuid:f764bc68-27c5-45c7-8aef-aedc7d5ebe29,,,1,1,0,0,0,matched (3), No,,,,,,,,,,,,"Drugs (coartem, artesunate inj.)",No, No, Yes, No, Yes, Yes , No,0,0,0,0,0,0,0,0,0,0,0,0,0,0,0,0, Microscopy  , Yes,,,Yes,No,No,Degua Temben, Yes,0,0,0,0,0,0,0,0,1,
SNNP,Kembata Timbaro,155,Mandoye health center,916716560,uuid:f9405ae8-e40d-4059-b1d0-d4c63614348c,,,20,3,0,1,1,matched (3), No,,,,,,,,,,,,"Drugs (coartem, artesunate inj.)",Yes, No, No, No, Yes, No, No,0,0,0,0,0,0,0,0,0,0,0,0,0,0,0,0, Microscopy  , Yes,,,Yes,No,No,Hedero Tunto, No,0,0,0,0,0,0,0,0,0,
Tigray,Central Tigray,95,Kidist Mariam Hospital,347752013,uuid:f9caa54a-d5f8-40e8-a34e-efd6438de354,,,191,15,17,1,3,matched (3), No,,,,,,,,,,,,Diagnosis,Yes, No, No, No, Yes, Yes , Yes,0,0,0,0,0,0,0,0,1,0,0,1,0,0,0,0, Microscopy  , Yes,,,Yes,No,No,Akisum Town, Yes,0,0,0,0,0,0,0,0,1,
Amhara,South Wolo,220,Dilfrea HC,No,uuid:f9d6f020-ff46-4b08-aed6-30881e5620fe,,,10,0,1,1,1,matched (3), No,,,,,,,,,,,,Diagnosis,Yes, No, Yes, No, Yes, Yes , No,0,0,0,0,0,0,0,0,0,0,0,0,0,0,0,0, RDT, No,,,No,Yes,No,Borena, Yes,0,0,0,0,0,0,0,0,0,
Oromiya,East Hararge,75,Deder Hospital,253330008,uuid:fa43d6ee-8d7d-49f4-932b-6163bc5fdc10,,,2,1,1,1,1,matched (3), No,,,,,,,,,,,,Drugs (quinine and chloroquine),Yes, No, No, No, No, Yes , Yes,0,0,0,0,0,1,0,0,0,0,1,0,1,1,0,0, Microscopy  , Yes,,,Yes,No,No,DEDER-WEREDA, No,0,0,0,0,0,0,0,0,0,
SNNP,Sidama,167,Foka,No,uuid:fa5c49f7-e03d-47d7-a342-de8104358393,,,23,1,1,1,0,matched (3), Yes,1,0,0,0,0,0,0,0,0,0,0,"Drugs (coartem, artesunate inj.)",Yes, No, No, No, No, Yes , Yes,0,0,0,0,0,1,0,0,1,0,0,1,0,0,0,0, RDT, No,,,No,Yes,No,Loka Abaya, Yes,0,1,1,0,0,0,0,0,0,
Tigray,South Tigray,120,Lemlem karl Hospital,348770101,uuid:fbb27461-d424-480b-99a4-a9ae3069fcdd,,,129,12,17,1,3,matched (3), No,,,,,,,,,,,,"Drugs (coartem, artesunate inj.)",Yes, Yes, No, No, No, Yes , No,0,0,0,0,0,0,0,0,0,0,0,0,0,0,0,0, Microscopy  , Yes,,,Yes,No,No,Rya Azebo, No,0,0,0,0,0,0,0,0,0,
Tigray,South Tigray,117,Ashenge,9144370,uuid:fbd5cecb-64de-401d-bf01-845f43c5ade0,,,1,0,0,0,0,matched (3), No,,,,,,,,,,,,Diagnosis,No, Yes, Yes, No, Yes, Yes , No,0,0,0,0,0,0,0,0,0,0,0,0,0,0,0,0, Microscopy  , No,,,Yes,No,No,Ofla, Yes,0,0,0,0,0,0,0,0,1,
Oromiya,East Hararge,91,Alola Health Center,920683743,uuid:fbf01ef7-90e8-4ba9-b70c-e0de05195454,,,6,0,1,1,1,matched (3), No,,,,,,,,,,,,No service given for free,No, No, No, No, Yes, No, No,0,0,0,0,0,0,0,0,0,0,0,0,0,0,0,0, RDT, No,,,No,Yes,No,, No,0,0,0,0,0,0,0,0,0,
Oromiya,East Hararge,77,Hakebas Health Center,921070433,uuid:fd09bf0f-48b2-494e-8e35-e3a95850dc27,,,3,0,1,1,1,matched (3), No,,,,,,,,,,,,No service given for free,No, No, No, No, Yes, No, Yes,0,0,0,0,0,0,0,0,0,0,0,0,0,0,0,0, RDT, No,,,No,Yes,No,, Yes,0,0,0,0,0,0,0,0,0,
SNNP,Silitie,197,Mito hc,0,uuid:fdf06d4b-fab4-4ad6-939c-2508e2856be1,,,42,2,2,1,1,matched (3), No,,,,,,,,,,,,"Drugs (coartem, artesunate inj.)",Yes, No, No, No, No, Yes , Yes,0,0,0,0,0,1,0,0,0,1,1,1,1,1,1,1, Microscopy  , Yes,,,Yes,No,No,Lanifaro, No,0,0,0,0,0,0,0,0,0,
Oromiya,West Hararge,52,Dindin,927306926,uuid:fe32b163-81bd-4662-a17c-4de52f7c18b8,,,4,2,2,1,1,matched (3), No,,,,,,,,,,,,"Drugs (coartem, artesunate inj.)",No, No, No, No, No, Yes , Yes,0,0,0,0,0,0,0,0,0,0,0,0,0,0,0,0, Microscopy  , Yes,,,Yes,No,No,ANCHAR-WEREDA, No,0,0,0,0,0,0,0,0,0,
Oromiya,West Hararge,58,Micheta HC,911264149,uuid:fe3346fa-b895-4681-956c-05ed690bc8de,,,8,1,2,1,0,matched (3), Yes,0,1,1,1,4,0,0,2,0,0,0,Diagnosis,No, No, No, No, No, Yes , Yes,0,0,0,0,0,1,0,0,1,1,1,0,0,0,1,1, Microscopy  , Yes,,,Yes,No,No,DARO LEBU-WEREDA, No,0,0,0,0,0,0,0,0,0,
SNNP,Silitie,203,Worabe health center,467710260,uuid:fecb7ea8-d3f1-4726-96e6-ea2ed100fda8,,,,,,,,master only (1),,,,,,,,,,,,,,,,,,, Yes , No,0,0,0,0,0,0,0,0,0,0,0,0,0,0,0,0, Microscopy  , Yes,,,Yes,No,No,Werabe Town,,,,,,,,,,,
SNNP,Gurage,135,Eneramanuel health center,932195324,uuid:fee20ec9-2103-481a-b0fe-7ccda90c044b,,,4,1,1,1,1,matched (3), Yes,0,1,1,1,0,0,0,0,0,0,0,"Drugs (coartem, artesunate inj.)",No, No, No, No, Yes, Yes , Yes,0,0,0,0,0,0,0,0,0,0,0,1,0,0,0,0, Microscopy  , No,,,Yes,No,No,Enemor Ener, Yes,1,0,0,0,0,0,0,0,1,
SNNP,Sidama,177,Daela health center,920442503,uuid:fef1a29e-d4e1-49f5-9fa9-7c60c70856a3,,,8,0,1,1,1,matched (3), No,,,,,,,,,,,,No service given for free,No, No, No, No, No, No, No,0,0,0,0,0,0,0,0,0,0,0,0,0,0,0,0,other, No,,,No,No,No,Chire, No,0,0,0,0,0,0,0,0,0,
Oromiya,East Hararge,80,goro muti health center,923769956,uuid:ff8c8745-1767-43ee-b91a-41995dd10e58,,,4,1,1,1,0,matched (3), No,,,,,,,,,,,,Diagnosis,Yes, No, No, No, No, Yes , Yes,0,0,0,0,0,0,0,0,1,1,1,0,1,1,1,1, Microscopy  , No,,,Yes,No,No,GORO MUTI, No,0,0,0,0,0,0,0,0,0,
Oromiya,East Hararge,71,Bisidimoo hospital,922800788,uuid:ffa9705a-99d8-48c7-9587-89abf4a4ad63,,,1,8,13,2,1,matched (3), No,,,,,,,,,,,,Diagnosis,Yes, No, Yes, No, Yes, Yes , No,0,0,0,0,0,0,0,0,0,0,0,0,0,0,0,0, Microscopy  , Yes,,,Yes,No,No,BABILE-WEREDA, No,0,0,0,0,0,0,0,0,0,
SNNP,Sidama,168,Leku H/L,463260373,uuid:ffbe537d-736a-4b19-8208-56b4ddeea20c,,,16,6,4,1,1,matched (3), No,,,,,,,,,,,,"Drugs (coartem, artesunate inj.)",No, No, No, No, No, Yes , Yes,0,0,0,0,0,0,0,0,0,0,0,0,0,1,0,0, Microscopy  , Yes,,,Yes,No,No,Shebedino, No,0,0,0,0,0,0,0,0,0,
